{
"type": "FeatureCollection",
"name": "sitecoffres3-",
"crs": { "type": "name", "properties": { "name": "urn:ogc:def:crs:OGC:1.3:CRS84" } },
"xy_coordinate_resolution": 1e-10,
"features": [
{ "type": "Feature", "properties": { "fid": 187, "time": "03/06/2026", "Type_Capac": "20m3", "Nom": "Bia sud", "Commune": "Koumassi", "Cod": "Kou-1", "X": 393566.16765474022, "Y": 583993.70456415263, "Quartier": "Abia Koumassi", "Affectatio": "Précollecte", "Statut": "actif", "Num_Circu": "CDSM_501 - AMPLIROLL/Tt - NOUVEAU", "Amenagemen": "Plateforme pour 2 coffres", "Num_Coffre": 2 }, "geometry": { "type": "Point", "coordinates": [ -3.960502166, 5.2826810002 ] } },
{ "type": "Feature", "properties": { "fid": 188, "time": "03/06/2026", "Type_Capac": "20m3", "Nom": "Chevaux", "Commune": "Koumassi", "Cod": "Kou-2", "X": 393819.56594064814, "Y": 583829.58188253827, "Quartier": "Abia Koumassi", "Affectatio": "Précollecte", "Statut": "actif", "Num_Circu": "CDSM_501 - AMPLIROLL/Tt - NOUVEAU", "Amenagemen": "Pas de plateforme", "Num_Coffre": 1 }, "geometry": { "type": "Point", "coordinates": [ -3.9582133333, 5.2812 ] } },
{ "type": "Feature", "properties": { "fid": 189, "time": "22/11/2023", "Type_Capac": "20m3", "Nom": "Yapokro", "Commune": "Koumassi", "Cod": "Kou-4", "X": 395137.95851055958, "Y": 585702.25956246641, "Quartier": "Zone Industrielle", "Affectatio": "Précollecte", "Statut": "supprimé", "Num_Circu": "CDSM_501 - AMPLIROLL/Tt - NOUVEAU", "Amenagemen": "Pas de plateforme", "Num_Coffre": 0 }, "geometry": { "type": "Point", "coordinates": [ -3.946342487, 5.2981571752 ] } },
{ "type": "Feature", "properties": { "fid": 190, "time": "27/10/2021", "Type_Capac": "20m3", "Nom": "Marche recasé", "Commune": "Koumassi", "Cod": "Kou-29", "X": 394171.62833779852, "Y": 585645.45843705267, "Quartier": "Progrès", "Affectatio": "Précollecte", "Statut": "supprimé", "Num_Circu": "CDSM_501 - AMPLIROLL/Tt - NOUVEAU", "Amenagemen": "Pas de plateforme", "Num_Coffre": 0 }, "geometry": { "type": "Point", "coordinates": [ -3.9550616667, 5.29763 ] } },
{ "type": "Feature", "properties": { "fid": 191, "time": "26/07/2025", "Type_Capac": "20m3", "Nom": "Campement Bord Lagunaire", "Commune": "Koumassi", "Cod": "Kou-28", "X": 396803.5, "Y": 587259.6, "Quartier": "Cité Houphouet (Campement)", "Affectatio": "Précollecte", "Statut": "actif", "Num_Circu": "CDSM_501 - AMPLIROLL/Tt - NOUVEAU", "Amenagemen": "Pas de plateforme", "Num_Coffre": 1 }, "geometry": { "type": "Point", "coordinates": [ -3.9313340475, 5.3122666361 ] } },
{ "type": "Feature", "properties": { "fid": 192, "time": "04/06/2026", "Type_Capac": "20m3", "Nom": "Boriborilogo", "Commune": "Koumassi", "Cod": "Kou-5", "X": 396188.81566375267, "Y": 586699.0990417276, "Quartier": "Cité Houphouet (Campement)", "Affectatio": "Précollecte", "Statut": "actif", "Num_Circu": "CDSM_501 - AMPLIROLL/Tt - NOUVEAU", "Amenagemen": "Plateforme pour 2 coffres", "Num_Coffre": 2 }, "geometry": { "type": "Point", "coordinates": [ -3.9368733333, 5.3071883333 ] } },
{ "type": "Feature", "properties": { "fid": 193, "time": "04/06/2026", "Type_Capac": "20m3", "Nom": "N'da kouaokro", "Commune": "Koumassi", "Cod": "Kou-6", "X": 396312.05020479113, "Y": 587217.04433770187, "Quartier": "Cité Houphouet (Campement)", "Affectatio": "Précollecte", "Statut": "actif", "Num_Circu": "CDSM_501 - AMPLIROLL/Tt - NOUVEAU", "Amenagemen": "Plateforme pour 2 coffres", "Num_Coffre": 2 }, "geometry": { "type": "Point", "coordinates": [ -3.9357683333, 5.311875 ] } },
{ "type": "Feature", "properties": { "fid": 194, "time": "04/06/2026", "Type_Capac": "20m3", "Nom": "Divo", "Commune": "Koumassi", "Cod": "Kou-27", "X": 394206.25128654466, "Y": 586605.64898238343, "Quartier": "Divo", "Affectatio": "Précollecte", "Statut": "actif", "Num_Circu": "CDSM_501 - AMPLIROLL/Tt - NOUVEAU", "Amenagemen": "Pas de plateforme", "Num_Coffre": 6 }, "geometry": { "type": "Point", "coordinates": [ -3.9547625798, 5.3063156682 ] } },
{ "type": "Feature", "properties": { "fid": 195, "time": "03/06/2026", "Type_Capac": "20m3", "Nom": "Depot 32", "Commune": "Koumassi", "Cod": "Kou-7", "X": 394242.7785043692, "Y": 587111.67640649469, "Quartier": "Alliodan", "Affectatio": "Précollecte", "Statut": "actif", "Num_Circu": "CDSM_501 - AMPLIROLL/Tt - NOUVEAU", "Amenagemen": "Pas de plateforme", "Num_Coffre": 2 }, "geometry": { "type": "Point", "coordinates": [ -3.95444, 5.3108933333 ] } },
{ "type": "Feature", "properties": { "fid": 196, "time": "04/06/2026", "Type_Capac": "20m3", "Nom": "CIE sans Fil ", "Commune": "Koumassi", "Cod": "Kou-8", "X": 393248.89313606196, "Y": 586485.99925916467, "Quartier": "Remblais", "Affectatio": "Précollecte", "Statut": "actif", "Num_Circu": "CDSM_501 - AMPLIROLL/Tt - NOUVEAU", "Amenagemen": "Pas de plateforme", "Num_Coffre": 4 }, "geometry": { "type": "Point", "coordinates": [ -3.9634, 5.30522 ] } },
{ "type": "Feature", "properties": { "fid": 197, "time": "25/07/2025", "Type_Capac": "20m3", "Nom": "Abia bety", "Commune": "Marcory", "Cod": "Mar-1", "X": 391249.38932363136, "Y": 583024.95220855728, "Quartier": "Abia Abéti", "Affectatio": "EcoEburnie", "Statut": "actif", "Num_Circu": "CDSM_002 - AMPLIROLL - MARCORY – EEB", "Amenagemen": "Pas de Plateforme", "Num_Coffre": 2 }, "geometry": { "type": "Point", "coordinates": [ -3.9813938865, 5.2738857334 ] } },
{ "type": "Feature", "properties": { "fid": 198, "time": "20/12/2023", "Type_Capac": "20m3", "Nom": "Rail bietry", "Commune": "Marcory", "Cod": "Mar-2", "X": 392031.17563715257, "Y": 583884.31937731861, "Quartier": "Biétry", "Affectatio": "Précollecte", "Statut": "supprimé", "Num_Circu": "CDSM_501 - AMPLIROLL/Tt - NOUVEAU", "Amenagemen": "Pas de Plateforme", "Num_Coffre": 0 }, "geometry": { "type": "Point", "coordinates": [ -3.9743516667, 5.28167 ] } },
{ "type": "Feature", "properties": { "fid": 199, "time": "12/06/2026", "Type_Capac": "20m3", "Nom": "Grand marché", "Commune": "Marcory", "Cod": "Mar-7", "X": 391961.76316801721, "Y": 585776.63679784932, "Quartier": "Sicogi", "Affectatio": "Précollecte", "Statut": "actif", "Num_Circu": "CDSM_501 - AMPLIROLL/Tt - NOUVEAU", "Amenagemen": "Plateforme pour 2 coffres", "Num_Coffre": 2 }, "geometry": { "type": "Point", "coordinates": [ -3.9750048033, 5.2987854497 ] } },
{ "type": "Feature", "properties": { "fid": 200, "time": "12/06/2026", "Type_Capac": "20m3", "Nom": "ARTCI", "Commune": "Marcory", "Cod": "Mar-4", "X": 392274.26400762389, "Y": 587198.02534916566, "Quartier": "Anoumabo", "Affectatio": "Précollecte", "Statut": "actif", "Num_Circu": "CDSM_501 - AMPLIROLL/Tt - NOUVEAU", "Amenagemen": "Pas de Plateforme", "Num_Coffre": 5 }, "geometry": { "type": "Point", "coordinates": [ -3.972205, 5.3116466667 ] } },
{ "type": "Feature", "properties": { "fid": 201, "time": "12/06/2026", "Type_Capac": "20m3", "Nom": "Tchapalo", "Commune": "Marcory", "Cod": "Mar-6", "X": 392655.493464317, "Y": 586621.43358978839, "Quartier": "Anoumabo", "Affectatio": "Précollecte", "Statut": "actif", "Num_Circu": "CDSM_501 - AMPLIROLL/Tt - NOUVEAU", "Amenagemen": "Plateforme pour 2 coffres", "Num_Coffre": 3 }, "geometry": { "type": "Point", "coordinates": [ -3.9687566667, 5.3064366667 ] } },
{ "type": "Feature", "properties": { "fid": 202, "time": "27/10/2021", "Type_Capac": "20m3", "Nom": "Alliodan", "Commune": "Marcory", "Cod": "Mar-5", "X": 392990.16618784051, "Y": 586743.07469115464, "Quartier": "Alliodan", "Affectatio": "Précollecte", "Statut": "supprimé", "Num_Circu": "CDSM_501 - AMPLIROLL/Tt - NOUVEAU", "Amenagemen": "", "Num_Coffre": 0 }, "geometry": { "type": "Point", "coordinates": [ -3.9657383333, 5.3075416667 ] } },
{ "type": "Feature", "properties": { "fid": 203, "time": "12/06/2026", "Type_Capac": "20m3", "Nom": "Sainte Elysée", "Commune": "Marcory", "Cod": "Mar-3", "X": 391939.47506756021, "Y": 586416.00224814785, "Quartier": "Anoumabo", "Affectatio": "Précollecte", "Statut": "actif", "Num_Circu": "CDSM_501 - AMPLIROLL/Tt - NOUVEAU", "Amenagemen": "", "Num_Coffre": 1 }, "geometry": { "type": "Point", "coordinates": [ -3.975215, 5.3045683333 ] } },
{ "type": "Feature", "properties": { "fid": 204, "time": "06/01/2025", "Type_Capac": "20m3", "Nom": "Vatican", "Commune": "Marcory", "Cod": "Mar-8", "X": 390873.22861036588, "Y": 586303.81585028383, "Quartier": "Kablan Brou Fulgence", "Affectatio": "Précollecte", "Statut": "supprimé", "Num_Circu": "CDSM_501 - AMPLIROLL/Tt - NOUVEAU", "Amenagemen": "Pas de Plateforme - le coffre est posé sur le bitume", "Num_Coffre": 0 }, "geometry": { "type": "Point", "coordinates": [ -3.984835, 5.3035383333 ] } },
{ "type": "Feature", "properties": { "fid": 205, "time": "14/07/2026", "Type_Capac": "20m3", "Nom": "Quai belle ville", "Commune": "Treichville", "Cod": "Tre-1", "X": 389675.31026924879, "Y": 586321.7603857686, "Quartier": "Habitat Belleville", "Affectatio": "Précollecte", "Statut": "actif", "Num_Circu": "CDSM_501 - AMPLIROLL/Tt - NOUVEAU", "Amenagemen": "Quai pour 2 coffres + clôture, Plateforme defaillantes", "Num_Coffre": 7 }, "geometry": { "type": "Point", "coordinates": [ -3.995645, 5.3036833333 ] } },
{ "type": "Feature", "properties": { "fid": 206, "time": "14/07/2026", "Type_Capac": "20m3", "Nom": "Biafra bord", "Commune": "Treichville", "Cod": "Tre-6", "X": 388810.96543503413, "Y": 587600.63604978274, "Quartier": "Biafra", "Affectatio": "Précollecte", "Statut": "actif", "Num_Circu": "CDSM_501 - AMPLIROLL/Tt - NOUVEAU", "Amenagemen": "Plateforme pour 1 coffre", "Num_Coffre": 1 }, "geometry": { "type": "Point", "coordinates": [ -4.0034633333, 5.3152383333 ] } },
{ "type": "Feature", "properties": { "fid": 207, "time": "01/08/2024", "Type_Capac": "20m3", "Nom": "Biafra garage", "Commune": "Treichville", "Cod": "Tre-4", "X": 388579.58786127402, "Y": 587173.7102087636, "Quartier": "Biafra", "Affectatio": "Précollecte", "Statut": "supprimé", "Num_Circu": "CDSM_501 - AMPLIROLL/Tt - NOUVEAU", "Amenagemen": "Pas de Plateforme", "Num_Coffre": 0 }, "geometry": { "type": "Point", "coordinates": [ -4.005545, 5.3113733333 ] } },
{ "type": "Feature", "properties": { "fid": 208, "time": "14/07/2026", "Type_Capac": "20m3", "Nom": "Grand marché", "Commune": "Treichville", "Cod": "Tre-5", "X": 387599.40746006789, "Y": 586949.58923066535, "Quartier": "Boa Kassi", "Affectatio": "Précollecte", "Statut": "actif", "Num_Circu": "CDSM_501 - AMPLIROLL/Tt - NOUVEAU", "Amenagemen": "Pas de Plateforme - coffre posé sur la dalle du marché", "Num_Coffre": 1 }, "geometry": { "type": "Point", "coordinates": [ -4.0143866667, 5.3093316667 ] } },
{ "type": "Feature", "properties": { "fid": 209, "time": "11/03/2021", "Type_Capac": "20m3", "Nom": "Anani petro ivoire", "Commune": "Port-Bouet", "Cod": "Por-3", "X": 402756.73423462571, "Y": 578848.11227914062, "Quartier": "Anani Amanou", "Affectatio": "Précollecte", "Statut": "supprimé", "Num_Circu": "CDSM_501 - AMPLIROLL/Tt - NOUVEAU", "Amenagemen": "Site deplacé pour construction de la station TOTAL - nouveaux site Pas de Plateforme", "Num_Coffre": 0 }, "geometry": { "type": "Point", "coordinates": [ -3.8775044596, 5.2362594195 ] } },
{ "type": "Feature", "properties": { "fid": 210, "time": "28/05/2026", "Type_Capac": "20m3", "Nom": "Ancienne route", "Commune": "Port-Bouet", "Cod": "Por-4", "X": 403700.07992469892, "Y": 578643.44837035972, "Quartier": "Anani Amanou", "Affectatio": "Précollecte", "Statut": "actif", "Num_Circu": "CDSM_501 - AMPLIROLL/Tt - NOUVEAU", "Amenagemen": "Plateforme pour 1 coffre", "Num_Coffre": 1 }, "geometry": { "type": "Point", "coordinates": [ -3.86899, 5.23442 ] } },
{ "type": "Feature", "properties": { "fid": 211, "time": "29/05/2026", "Type_Capac": "20m3", "Nom": "Anani autoroute", "Commune": "Port-Bouet", "Cod": "Por-5", "X": 403789.98585831997, "Y": 579009.06710210466, "Quartier": "Anani Amanou", "Affectatio": "Précollecte", "Statut": "actif", "Num_Circu": "CDSM_501 - AMPLIROLL/Tt - NOUVEAU", "Amenagemen": "Plateforme pour 1 coffre", "Num_Coffre": 1 }, "geometry": { "type": "Point", "coordinates": [ -3.8681833333, 5.2377283333 ] } },
{ "type": "Feature", "properties": { "fid": 212, "time": "29/05/2026", "Type_Capac": "20m3", "Nom": "Anani village", "Commune": "Port-Bouet", "Cod": "Por-6", "X": 403223.40181337821, "Y": 579177.31618347485, "Quartier": "Anani Amanou", "Affectatio": "Précollecte", "Statut": "actif", "Num_Circu": "CDSM_501 - AMPLIROLL/Tt - NOUVEAU", "Amenagemen": "Plateforme pour 1 coffre", "Num_Coffre": 1 }, "geometry": { "type": "Point", "coordinates": [ -3.8732978066, 5.2392431195 ] } },
{ "type": "Feature", "properties": { "fid": 213, "time": "18/02/2023", "Type_Capac": "20m3", "Nom": "Amamou", "Commune": "Port-Bouet", "Cod": "Por-7", "X": 402438.72477565543, "Y": 578928.40316624928, "Quartier": "Anani Amanou", "Affectatio": "Précollecte", "Statut": "supprimé", "Num_Circu": "CDSM_501 - AMPLIROLL/Tt - NOUVEAU", "Amenagemen": "", "Num_Coffre": 0 }, "geometry": { "type": "Point", "coordinates": [ -3.8803749028, 5.2369816618 ] } },
{ "type": "Feature", "properties": { "fid": 214, "time": "28/05/2026", "Type_Capac": "20m3", "Nom": "Marché francais", "Commune": "Port-Bouet", "Cod": "Por-9", "X": 401829.6172609168, "Y": 579519.53688735736, "Quartier": "Gonzagueville", "Affectatio": "Précollecte", "Statut": "actif", "Num_Circu": "CDSM_501 - AMPLIROLL/Tt - NOUVEAU", "Amenagemen": "Plateforme pour 1 coffre", "Num_Coffre": 2 }, "geometry": { "type": "Point", "coordinates": [ -3.885878465, 5.2423209907 ] } },
{ "type": "Feature", "properties": { "fid": 215, "time": "01/08/2024", "Type_Capac": "20m3", "Nom": "Abraham", "Commune": "Port-Bouet", "Cod": "Por-10", "X": 401714.53962785139, "Y": 579039.83534621389, "Quartier": "Gonzagueville", "Affectatio": "Précollecte", "Statut": "supprimé", "Num_Circu": "CDSM_501 - AMPLIROLL/Tt - NOUVEAU", "Amenagemen": "", "Num_Coffre": 0 }, "geometry": { "type": "Point", "coordinates": [ -3.8869107087, 5.2379803958 ] } },
{ "type": "Feature", "properties": { "fid": 216, "time": "03/11/2021", "Type_Capac": "20m3", "Nom": "Carrefour chien", "Commune": "Port-Bouet", "Cod": "Por-11", "X": 401373.59505778184, "Y": 579090.5630827602, "Quartier": "Gonzagueville", "Affectatio": "Précollecte", "Statut": "supprimé", "Num_Circu": "CDSM_501 - AMPLIROLL/Tt - NOUVEAU", "Amenagemen": "", "Num_Coffre": 0 }, "geometry": { "type": "Point", "coordinates": [ -3.8899877309, 5.2384348853 ] } },
{ "type": "Feature", "properties": { "fid": 217, "time": "28/05/2026", "Type_Capac": "20m3", "Nom": "Corridor", "Commune": "Port-Bouet", "Cod": "Por-12", "X": 400697.81769460201, "Y": 579194.53597340814, "Quartier": "Gonzagueville", "Affectatio": "Précollecte", "Statut": "actif", "Num_Circu": "CDSM_501 - AMPLIROLL/Tt - NOUVEAU", "Amenagemen": "", "Num_Coffre": 1 }, "geometry": { "type": "Point", "coordinates": [ -3.8960866667, 5.2393666667 ] } },
{ "type": "Feature", "properties": { "fid": 218, "time": "01/08/2024", "Type_Capac": "20m3", "Nom": "Terre rouge", "Commune": "Port-Bouet", "Cod": "Por-73", "X": 400361.53343101451, "Y": 579246.97700815299, "Quartier": "Gonzagueville", "Affectatio": "Précollecte", "Statut": "supprimé", "Num_Circu": "CDSM_501 - AMPLIROLL/Tt - NOUVEAU", "Amenagemen": "", "Num_Coffre": 0 }, "geometry": { "type": "Point", "coordinates": [ -3.8991216667, 5.2398366667 ] } },
{ "type": "Feature", "properties": { "fid": 219, "time": "28/05/2026", "Type_Capac": "20m3", "Nom": "Rue 12", "Commune": "Port-Bouet", "Cod": "Por-14", "X": 399812.32701268635, "Y": 579333.99779127201, "Quartier": "Jean Folly", "Affectatio": "Précollecte", "Statut": "actif", "Num_Circu": "CDSM_501 - AMPLIROLL/Tt - NOUVEAU", "Amenagemen": "Plateforme pour 2 coffres", "Num_Coffre": 1 }, "geometry": { "type": "Point", "coordinates": [ -3.9024189923, 5.2406003139 ] } },
{ "type": "Feature", "properties": { "fid": 221, "time": "22/06/2026", "Type_Capac": "20m3", "Nom": "Site OP", "Commune": "Port-Bouet", "Cod": "Por-20", "X": 397597.24169229844, "Y": 580196.96583724907, "Quartier": "Adjouffou 2", "Affectatio": "Précollecte", "Statut": "actif", "Num_Circu": "CDSM_501 - AMPLIROLL/Tt - NOUVEAU", "Amenagemen": "Plateforme pour 2 coffres", "Num_Coffre": 2 }, "geometry": { "type": "Point", "coordinates": [ -3.9240766667, 5.2483933333 ] } },
{ "type": "Feature", "properties": { "fid": 222, "time": "30/07/2025", "Type_Capac": "20m3", "Nom": "1er arrêt", "Commune": "Port-Bouet", "Cod": "Por-96", "X": 397074.99159282132, "Y": 579773.02692983916, "Quartier": null, "Affectatio": null, "Statut": "supprimé", "Num_Circu": null, "Amenagemen": null, "Num_Coffre": 0 }, "geometry": { "type": "Point", "coordinates": [ -3.9287833333, 5.2445516667 ] } },
{ "type": "Feature", "properties": { "fid": 223, "time": "28/05/2026", "Type_Capac": "4m3", "Nom": "Djeddah", "Commune": "Port-Bouet", "Cod": "Por-23", "X": 395812.79161109048, "Y": 579976.30190748395, "Quartier": "(Zone Aéroportuaire)", "Affectatio": "Collecte", "Statut": "actif", "Num_Circu": "CDSM_101", "Amenagemen": "Plateforme pour 1 coffre", "Num_Coffre": 1 }, "geometry": { "type": "Point", "coordinates": [ -3.940175, 5.2463733333 ] } },
{ "type": "Feature", "properties": { "fid": 224, "time": "28/05/2026", "Type_Capac": "20m3", "Nom": "Depot 8", "Commune": "Port-Bouet", "Cod": "Por-24", "X": 395757.81398454594, "Y": 580715.61635626142, "Quartier": "(Zone Aéroportuaire)", "Affectatio": "Précollecte", "Statut": "actif", "Num_Circu": "CDSM_501 - AMPLIROLL/Tt - NOUVEAU", "Amenagemen": "Pas de Plateforme", "Num_Coffre": 2 }, "geometry": { "type": "Point", "coordinates": [ -3.9406810893, 5.253059927 ] } },
{ "type": "Feature", "properties": { "fid": 225, "time": "29/05/2026", "Type_Capac": "20m3", "Nom": "Barron", "Commune": "Port-Bouet", "Cod": "Por-25", "X": 394747.60970806133, "Y": 580150.09435995668, "Quartier": "Derrière Wharf", "Affectatio": "Précollecte", "Statut": "actif", "Num_Circu": "CDSM_501 - AMPLIROLL/Tt - NOUVEAU", "Amenagemen": "Plateforme pour 1 coffre", "Num_Coffre": 1 }, "geometry": { "type": "Point", "coordinates": [ -3.9497885839, 5.247930807 ] } },
{ "type": "Feature", "properties": { "fid": 226, "time": "01/08/2024", "Type_Capac": "20m3", "Nom": "ORYX", "Commune": "Port-Bouet", "Cod": "Por-26", "X": 394441.30563232454, "Y": 580221.19777762762, "Quartier": "Derrière Wharf", "Affectatio": "Précollecte", "Statut": "supprimé", "Num_Circu": "CDSM_501 - AMPLIROLL/Tt - NOUVEAU", "Amenagemen": "Plateforme pour 1 coffre", "Num_Coffre": 0 }, "geometry": { "type": "Point", "coordinates": [ -3.9525533633, 5.248569751 ] } },
{ "type": "Feature", "properties": { "fid": 227, "time": "28/05/2026", "Type_Capac": "20m3", "Nom": "Grand marché", "Commune": "Port-Bouet", "Cod": "Por-38", "X": 393290.01607593178, "Y": 581311.76909234945, "Quartier": "Hopital Grand Marché", "Affectatio": "Précollecte", "Statut": "actif", "Num_Circu": "CDSM_501 - AMPLIROLL/Tt - NOUVEAU", "Amenagemen": "Pas de Plateforme - mais le coffre est posé sur la dalle du marché", "Num_Coffre": 2 }, "geometry": { "type": "Point", "coordinates": [ -3.9629566667, 5.2584183333 ] } },
{ "type": "Feature", "properties": { "fid": 228, "time": "28/05/2025", "Type_Capac": "20m3", "Nom": "Aka anghui", "Commune": "Port-Bouet", "Cod": "Por-39", "X": 392317.09707603842, "Y": 581122.21388635226, "Quartier": "Océan", "Affectatio": "Précollecte", "Statut": "actif", "Num_Circu": "CDSM_501 - AMPLIROLL/Tt - NOUVEAU", "Amenagemen": "Plateforme pour 2 coffres", "Num_Coffre": 2 }, "geometry": { "type": "Point", "coordinates": [ -3.9717328314, 5.2566901425 ] } },
{ "type": "Feature", "properties": { "fid": 229, "time": "01/08/2024", "Type_Capac": "20m3", "Nom": "Manioc (Petit Bassam)", "Commune": "Port-Bouet", "Cod": "Por-52", "X": 391827.48371575639, "Y": 581428.83097927552, "Quartier": "Petit Bassam", "Affectatio": "Précollecte", "Statut": "supprimé", "Num_Circu": "CDSM_501 - AMPLIROLL/Tt - NOUVEAU", "Amenagemen": "Pas de Plateforme", "Num_Coffre": 0 }, "geometry": { "type": "Point", "coordinates": [ -3.976155, 5.2594566667 ] } },
{ "type": "Feature", "properties": { "fid": 230, "time": "28/05/2026", "Type_Capac": "20m3", "Nom": "Macaci (Petit Bassam)", "Commune": "Port-Bouet", "Cod": "Por-53", "X": 391553.7867060157, "Y": 581692.0128346046, "Quartier": "Petit Bassam", "Affectatio": "Précollecte", "Statut": "actif", "Num_Circu": "CDSM_501 - AMPLIROLL/Tt - NOUVEAU", "Amenagemen": "Pas de plateforme", "Num_Coffre": 3 }, "geometry": { "type": "Point", "coordinates": [ -3.9786283333, 5.2618333333 ] } },
{ "type": "Feature", "properties": { "fid": 231, "time": "28/05/2026", "Type_Capac": "20m3", "Nom": "Vridi cite  (marché )", "Commune": "Port-Bouet", "Cod": "Por-34", "X": 390279.6304353241, "Y": 582135.86971917457, "Quartier": "Vidri - Canal - Sir", "Affectatio": "Précollecte", "Statut": "actif", "Num_Circu": "CDSM_501 - AMPLIROLL/Tt - NOUVEAU", "Amenagemen": "Pas de Plateforme - mais le coffre est posé sur la dalle du marché", "Num_Coffre": 1 }, "geometry": { "type": "Point", "coordinates": [ -3.9901316287, 5.2658299425 ] } },
{ "type": "Feature", "properties": { "fid": 232, "time": "01/08/2024", "Type_Capac": "20m3", "Nom": "Bima 1", "Commune": "Port-Bouet", "Cod": "Por-27", "X": 393864.1651429623, "Y": 581239.02632651606, "Quartier": "Derrière Wharf", "Affectatio": "Précollecte", "Statut": "supprimé", "Num_Circu": "CDSM_501 - AMPLIROLL/Tt - NOUVEAU", "Amenagemen": "Plateforme pour 1 coffre", "Num_Coffre": 0 }, "geometry": { "type": "Point", "coordinates": [ -3.957775, 5.2577683333 ] } },
{ "type": "Feature", "properties": { "fid": 233, "time": "01/08/2024", "Type_Capac": "20m3", "Nom": "Bima 2", "Commune": "Port-Bouet", "Cod": "Por-28", "X": 393773.06748349674, "Y": 581456.4064136761, "Quartier": "Derrière Wharf", "Affectatio": "Précollecte", "Statut": "supprimé", "Num_Circu": "CDSM_501 - AMPLIROLL/Tt - NOUVEAU", "Amenagemen": "Plateforme pour 1 coffre", "Num_Coffre": 0 }, "geometry": { "type": "Point", "coordinates": [ -3.9586, 5.2597333333 ] } },
{ "type": "Feature", "properties": { "fid": 234, "time": "28/05/2026", "Type_Capac": "20m3", "Nom": "Vridi Capko (vridi canal)", "Commune": "Port-Bouet", "Cod": "Por-35", "X": 389496.11880671332, "Y": 580879.54617729655, "Quartier": "Vidri - Canal - Sir", "Affectatio": "Précollecte", "Statut": "actif", "Num_Circu": "CDSM_501 - AMPLIROLL/Tt - NOUVEAU", "Amenagemen": "Plateforme pour 2 coffres", "Num_Coffre": 3 }, "geometry": { "type": "Point", "coordinates": [ -3.9971833333, 5.254455 ] } },
{ "type": "Feature", "properties": { "fid": 235, "time": "28/05/2026", "Type_Capac": "20m3", "Nom": "Vridi CIE", "Commune": "Port-Bouet", "Cod": "Por-36", "X": 390748.81487258908, "Y": 581218.07264895434, "Quartier": "Cie Plage", "Affectatio": "Précollecte", "Statut": "actif", "Num_Circu": "CDSM_501 - AMPLIROLL/Tt - NOUVEAU", "Amenagemen": "Plateforme pour 1 coffre", "Num_Coffre": 1 }, "geometry": { "type": "Point", "coordinates": [ -3.985885, 5.257535 ] } },
{ "type": "Feature", "properties": { "fid": 236, "time": "28/05/2026", "Type_Capac": "20m3", "Nom": "Abattoir", "Commune": "Port-Bouet", "Cod": "Por-30", "X": 392531.63278103119, "Y": 581728.68294744869, "Quartier": "Abattoir 1", "Affectatio": "EcoEburnie", "Statut": "actif", "Num_Circu": "CDSM_002 - AMPLIROLL - MARCORY – EEB", "Amenagemen": "Plateforme pour 1 coffre", "Num_Coffre": 1 }, "geometry": { "type": "Point", "coordinates": [ -3.9698055358, 5.2621788169 ] } },
{ "type": "Feature", "properties": { "fid": 237, "time": "04/11/2021", "Type_Capac": "20m3", "Nom": "Amangoua-koi", "Commune": "Port-Bouet", "Cod": "Por-98", "X": 397530.70467985369, "Y": 584282.95164279989, "Quartier": null, "Affectatio": null, "Statut": "supprimé", "Num_Circu": null, "Amenagemen": null, "Num_Coffre": 0 }, "geometry": { "type": "Point", "coordinates": [ -3.9247316667, 5.2853516667 ] } },
{ "type": "Feature", "properties": { "fid": 238, "time": "13/03/2022", "Type_Capac": "5m3", "Nom": "Roi des rois", "Commune": "Koumassi", "Cod": "Kou-10", "X": 393855.97759972408, "Y": 584205.96563942253, "Quartier": "Abia Koumassi", "Affectatio": "Collecte", "Statut": "supprimé", "Num_Circu": "CDSM_PC", "Amenagemen": "Pas de Plateforme", "Num_Coffre": 0 }, "geometry": { "type": "Point", "coordinates": [ -3.95789, 5.284605 ] } },
{ "type": "Feature", "properties": { "fid": 239, "time": "11/04/2024", "Type_Capac": "5m3", "Nom": "St Lucien", "Commune": "Koumassi", "Cod": "Kou-26", "X": 394210.76779524167, "Y": 584312.84271441365, "Quartier": "Abia Koumassi", "Affectatio": "Collecte", "Statut": "supprimé", "Num_Circu": "CDSM_107", "Amenagemen": "Pas de Plateforme", "Num_Coffre": 0 }, "geometry": { "type": "Point", "coordinates": [ -3.95469, 5.2855766667 ] } },
{ "type": "Feature", "properties": { "fid": 240, "time": "03/06/2026", "Type_Capac": "4m3", "Nom": "Eglise céleste", "Commune": "Koumassi", "Cod": "Kou-24", "X": 394959.16798748908, "Y": 585760.88603359938, "Quartier": "Prodomo Sipim Pangolin", "Affectatio": "Collecte", "Statut": "actif", "Num_Circu": "CDSM_108", "Amenagemen": "Pas de Plateforme", "Num_Coffre": 1 }, "geometry": { "type": "Point", "coordinates": [ -3.9479566667, 5.298685 ] } },
{ "type": "Feature", "properties": { "fid": 241, "time": "03/06/2026", "Type_Capac": "4m3", "Nom": "buisson ardent ", "Commune": "Koumassi", "Cod": "Kou-25", "X": 394400.6095098966, "Y": 585617.28339124972, "Quartier": "SOGEFIHA", "Affectatio": "Collecte", "Statut": "actif", "Num_Circu": "CDSM_108", "Amenagemen": "Pas de Plateforme", "Num_Coffre": 1 }, "geometry": { "type": "Point", "coordinates": [ -3.952995, 5.2973783333 ] } },
{ "type": "Feature", "properties": { "fid": 242, "time": "03/06/2026", "Type_Capac": "4m3", "Nom": "Caire Grand marché", "Commune": "Koumassi", "Cod": "Kou-18", "X": 393735.36678282445, "Y": 585163.00556940772, "Quartier": "Grand marché", "Affectatio": "Collecte", "Statut": "actif", "Num_Circu": "CDSM_106", "Amenagemen": "Pas de Plateforme", "Num_Coffre": 1 }, "geometry": { "type": "Point", "coordinates": [ -3.9589652595, 5.2932625145 ] } },
{ "type": "Feature", "properties": { "fid": 243, "time": "03/06/2026", "Type_Capac": "4m3", "Nom": "Ecole Baradji", "Commune": "Koumassi", "Cod": "Kou-13", "X": 393684.98628120241, "Y": 585668.3202121699, "Quartier": "Progrès", "Affectatio": "Collecte", "Statut": "actif", "Num_Circu": "CDSM_106", "Amenagemen": "Pas de Plateforme", "Num_Coffre": 1 }, "geometry": { "type": "Point", "coordinates": [ -3.9594533333, 5.29783 ] } },
{ "type": "Feature", "properties": { "fid": 244, "time": "14/07/2023", "Type_Capac": "5m3", "Nom": "Marche poulet", "Commune": "Koumassi", "Cod": "Kou-14", "X": 393841.45584094792, "Y": 585688.34686729708, "Quartier": "Progrès", "Affectatio": "Collecte", "Statut": "supprimé", "Num_Circu": "CDSM_106", "Amenagemen": "", "Num_Coffre": 0 }, "geometry": { "type": "Point", "coordinates": [ -3.9580416667, 5.2980133333 ] } },
{ "type": "Feature", "properties": { "fid": 245, "time": "03/06/2026", "Type_Capac": "4m3", "Nom": "Marche banane", "Commune": "Koumassi", "Cod": "Kou-17", "X": 394754.02985274815, "Y": 585799.89397864672, "Quartier": "Prodomo Sipim Pangolin", "Affectatio": "Collecte", "Statut": "actif", "Num_Circu": "CDSM_PC", "Amenagemen": "Pas de Plateforme", "Num_Coffre": 1 }, "geometry": { "type": "Point", "coordinates": [ -3.9498083333, 5.299035 ] } },
{ "type": "Feature", "properties": { "fid": 246, "time": "03/06/2026", "Type_Capac": "4m3", "Nom": "Groupe scolaire Pangolin", "Commune": "Koumassi", "Cod": "Kou-15", "X": 394822.26739679382, "Y": 587301.67661225377, "Quartier": "Koumassi Nord Est 1", "Affectatio": "Collecte", "Statut": "actif", "Num_Circu": "CDSM_108", "Amenagemen": "Pas de Plateforme", "Num_Coffre": 1 }, "geometry": { "type": "Point", "coordinates": [ -3.9492133333, 5.31262 ] } },
{ "type": "Feature", "properties": { "fid": 247, "time": "04/06/2026", "Type_Capac": "4m3", "Nom": "Remblais Petroci", "Commune": "Koumassi", "Cod": "Kou-11", "X": 392647.67918823299, "Y": 586112.33800548187, "Quartier": "Remblais", "Affectatio": "Collecte", "Statut": "actif", "Num_Circu": "CDSM_106", "Amenagemen": "Pas de Plateforme", "Num_Coffre": 1 }, "geometry": { "type": "Point", "coordinates": [ -3.96882, 5.3018316667 ] } },
{ "type": "Feature", "properties": { "fid": 248, "time": "04/06/2026", "Type_Capac": "4m3", "Nom": "Canal Rochelle", "Commune": "Koumassi", "Cod": "Kou-12", "X": 392454.21404963947, "Y": 585938.33143403113, "Quartier": "Remblais", "Affectatio": "Collecte", "Statut": "actif", "Num_Circu": "CDSM_106", "Amenagemen": "Pas de Plateforme", "Num_Coffre": 1 }, "geometry": { "type": "Point", "coordinates": [ -3.9706889865, 5.3000139781 ] } },
{ "type": "Feature", "properties": { "fid": 249, "time": "04/06/2026", "Type_Capac": "4m3", "Nom": "College Blaise pascal", "Commune": "Koumassi", "Cod": "Kou-16", "X": 392140.15702194883, "Y": 585421.79208763083, "Quartier": "E.M.C.C.", "Affectatio": "Collecte", "Statut": "actif", "Num_Circu": "CDSM_PC", "Amenagemen": "Pas de Plateforme", "Num_Coffre": 1 }, "geometry": { "type": "Point", "coordinates": [ -3.97339, 5.2955783333 ] } },
{ "type": "Feature", "properties": { "fid": 250, "time": "09/01/2024", "Type_Capac": "5m3", "Nom": "EPP aeroport /Asecna", "Commune": "Port-Bouet", "Cod": "Por-43", "X": 395946.75363849837, "Y": 580869.1953740716, "Quartier": "(Zone Aéroportuaire)", "Affectatio": "Collecte", "Statut": "actif", "Num_Circu": "CDSM_101", "Amenagemen": "Pas de Plateforme", "Num_Coffre": 1 }, "geometry": { "type": "Point", "coordinates": [ -3.9389783333, 5.2544516666 ] } },
{ "type": "Feature", "properties": { "fid": 251, "time": "29/05/2026", "Type_Capac": "4m3", "Nom": "Pont piéton 33eme", "Commune": "Port-Bouet", "Cod": "Por-54", "X": 395257.82386847306, "Y": 580066.19968846324, "Quartier": "Derrière Wharf", "Affectatio": "Collecte", "Statut": "actif", "Num_Circu": "CDSM_PC", "Amenagemen": "", "Num_Coffre": 1 }, "geometry": { "type": "Point", "coordinates": [ -3.9451837376, 5.2471789344 ] } },
{ "type": "Feature", "properties": { "fid": 252, "time": "28/05/2026", "Type_Capac": "4m3", "Nom": "Phare / Caraïbes 3", "Commune": "Port-Bouet", "Cod": "Por-40", "X": 393630.9574895316, "Y": 580689.37298715976, "Quartier": "Phare Collège Moderne", "Affectatio": "Collecte", "Statut": "actif", "Num_Circu": "CDSM_101", "Amenagemen": "Pas de Plateforme", "Num_Coffre": 1 }, "geometry": { "type": "Point", "coordinates": [ -3.9598716667, 5.2527933333 ] } },
{ "type": "Feature", "properties": { "fid": 253, "time": "2022/06/15", "Type_Capac": "5m3", "Nom": "Phare", "Commune": "Port-Bouet", "Cod": "Por-41", "X": 393358.655680847, "Y": 580784.68428234302, "Quartier": "Phare Littoral", "Affectatio": "Collecte", "Statut": "supprimé", "Num_Circu": "CDSM_101", "Amenagemen": "", "Num_Coffre": 0 }, "geometry": { "type": "Point", "coordinates": [ -3.96233, 5.2536516667 ] } },
{ "type": "Feature", "properties": { "fid": 254, "time": "28/05/2026", "Type_Capac": "4m3", "Nom": "EPP Selmer", "Commune": "Port-Bouet", "Cod": "Por-45", "X": 393625.16049035778, "Y": 581124.59996296884, "Quartier": "Hopital 43è BIMA", "Affectatio": "Collecte", "Statut": "actif", "Num_Circu": "CDSM_101", "Amenagemen": "Pas de Plateforme", "Num_Coffre": 1 }, "geometry": { "type": "Point", "coordinates": [ -3.95993, 5.25673 ] } },
{ "type": "Feature", "properties": { "fid": 255, "time": "25/07/2025", "Type_Capac": "5m3", "Nom": "Hôpital général", "Commune": "Port-Bouet", "Cod": "Por-46", "X": 393236.03437552718, "Y": 581880.47405979433, "Quartier": "Abattoir 3", "Affectatio": "Collecte", "Statut": "supprimé", "Num_Circu": "CDSM_101", "Amenagemen": "Pas de Plateforme", "Num_Coffre": 0 }, "geometry": { "type": "Point", "coordinates": [ -3.9634516667, 5.2635616667 ] } },
{ "type": "Feature", "properties": { "fid": 256, "time": "28/05/2026", "Type_Capac": "4m3", "Nom": "Station Vinko", "Commune": "Port-Bouet", "Cod": "Por-56", "X": 392038.16335213557, "Y": 581094.87356692832, "Quartier": "Océan", "Affectatio": "Collecte", "Statut": "actif", "Num_Circu": "CDSM_101", "Amenagemen": "Pas de Plateforme", "Num_Coffre": 1 }, "geometry": { "type": "Point", "coordinates": [ -3.9742493051, 5.2564389171 ] } },
{ "type": "Feature", "properties": { "fid": 257, "time": "01/08/2024", "Type_Capac": "5m3", "Nom": "Vridi Cité", "Commune": "Port-Bouet", "Cod": "Por-47", "X": 391152.34484316211, "Y": 581648.23632111377, "Quartier": "Camp Douane", "Affectatio": "Collecte", "Statut": "supprimé", "Num_Circu": "CDSM_101", "Amenagemen": "Pas de Plateforme", "Num_Coffre": 0 }, "geometry": { "type": "Point", "coordinates": [ -3.98225, 5.2614316667 ] } },
{ "type": "Feature", "properties": { "fid": 258, "time": "28/05/2026", "Type_Capac": "4m3", "Nom": "Arrêt Sotra", "Commune": "Port-Bouet", "Cod": "Por-55", "X": 391471.5644439687, "Y": 581203.48579152732, "Quartier": "Cie Plage", "Affectatio": "Collecte", "Statut": "actif", "Num_Circu": "CDSM_101", "Amenagemen": "Pas de Plateforme", "Num_Coffre": 1 }, "geometry": { "type": "Point", "coordinates": [ -3.9793633333, 5.2574133333 ] } },
{ "type": "Feature", "properties": { "fid": 259, "time": "2022/06/15", "Type_Capac": "5m3", "Nom": "Cité Policière", "Commune": "Port-Bouet", "Cod": "Por-50", "X": 392741.7216362023, "Y": 581023.32965579827, "Quartier": "Océan", "Affectatio": "Collecte", "Statut": "supprimé", "Num_Circu": "CDSM_PC", "Amenagemen": "Pas de Plateforme", "Num_Coffre": 0 }, "geometry": { "type": "Point", "coordinates": [ -3.9679, 5.2558016666 ] } },
{ "type": "Feature", "properties": { "fid": 260, "time": "12/06/2026", "Type_Capac": "4m3", "Nom": "INJS", "Commune": "Marcory", "Cod": "Mar-12", "X": 391212.34996363358, "Y": 587130.60435032262, "Quartier": "Gnanzoua", "Affectatio": "Collecte", "Statut": "actif", "Num_Circu": "CDSM_PC", "Amenagemen": "Pas de Plateforme", "Num_Coffre": 1 }, "geometry": { "type": "Point", "coordinates": [ -3.9817866667, 5.3110216667 ] } },
{ "type": "Feature", "properties": { "fid": 261, "time": "12/06/2026", "Type_Capac": "4m3", "Nom": "Espace Henriette bedie", "Commune": "Marcory", "Cod": "Mar-15", "X": 391740.97290723748, "Y": 586093.86077635421, "Quartier": "Jean Baptiste Mockey", "Affectatio": "Collecte", "Statut": "actif", "Num_Circu": "CDSM_110", "Amenagemen": "Pas de Plateforme", "Num_Coffre": 1 }, "geometry": { "type": "Point", "coordinates": [ -3.9770016667, 5.3016516667 ] } },
{ "type": "Feature", "properties": { "fid": 262, "time": "20/12/2023", "Type_Capac": "5m3", "Nom": "EPP Anoumabo", "Commune": "Marcory", "Cod": "Mar-10", "X": 391708.75387186243, "Y": 586744.716236345, "Quartier": "Anoumabo", "Affectatio": "Collecte", "Statut": "supprimé", "Num_Circu": "CDSM_110", "Amenagemen": "", "Num_Coffre": 0 }, "geometry": { "type": "Point", "coordinates": [ -3.9773016667, 5.3075383333 ] } },
{ "type": "Feature", "properties": { "fid": 263, "time": "12/06/2026", "Type_Capac": "4m3", "Nom": "Palmier", "Commune": "Marcory", "Cod": "Mar-9", "X": 393077.89991680247, "Y": 587219.43143276044, "Quartier": "Alliodan", "Affectatio": "Collecte", "Statut": "actif", "Num_Circu": "CDSM_110", "Amenagemen": "Pas de Plateforme", "Num_Coffre": 1 }, "geometry": { "type": "Point", "coordinates": [ -3.9649533333, 5.3118516667 ] } },
{ "type": "Feature", "properties": { "fid": 264, "time": "25/08/2025", "Type_Capac": "5m3", "Nom": "Petro ivoire espace la madone", "Commune": "Marcory", "Cod": "Mar-16", "X": 391912.34832482337, "Y": 585256.50051668962, "Quartier": "Sicogi", "Affectatio": "Collecte", "Statut": "supprimé", "Num_Circu": "CDSM_110", "Amenagemen": "Pas de Plateforme", "Num_Coffre": 0 }, "geometry": { "type": "Point", "coordinates": [ -3.9754433333, 5.29408 ] } },
{ "type": "Feature", "properties": { "fid": 265, "time": "12/06/2026", "Type_Capac": "4m3", "Nom": "Groupe scolaire la madone", "Commune": "Marcory", "Cod": "Mar-17", "X": 391684.06602758548, "Y": 585377.73374816263, "Quartier": "Sicogi", "Affectatio": "Collecte", "Statut": "actif", "Num_Circu": "CDSM_110", "Amenagemen": "Pas de Plateforme", "Num_Coffre": 1 }, "geometry": { "type": "Point", "coordinates": [ -3.977505, 5.2951733333 ] } },
{ "type": "Feature", "properties": { "fid": 266, "time": "12/06/2026", "Type_Capac": "4m3", "Nom": "Sapeur pompier", "Commune": "Marcory", "Cod": "Mar-20", "X": 390324.97946435236, "Y": 584987.59734648454, "Quartier": "Adaimin", "Affectatio": "Collecte", "Statut": "actif", "Num_Circu": "CDSM_PC", "Amenagemen": "", "Num_Coffre": 1 }, "geometry": { "type": "Point", "coordinates": [ -3.9897633333, 5.291625 ] } },
{ "type": "Feature", "properties": { "fid": 267, "time": "25/08/2022", "Type_Capac": "5m3", "Nom": "Pied du pont", "Commune": "Treichville", "Cod": "Tre-9", "X": 389476.24511214899, "Y": 586575.43886836804, "Quartier": "Habitat Belleville", "Affectatio": "Collecte", "Statut": "supprimé", "Num_Circu": "CDSM_110", "Amenagemen": "", "Num_Coffre": 0 }, "geometry": { "type": "Point", "coordinates": [ -3.997445, 5.305975 ] } },
{ "type": "Feature", "properties": { "fid": 268, "time": "14/07/2023", "Type_Capac": "5m3", "Nom": "Arras 3", "Commune": "Treichville", "Cod": "Tre-8", "X": 389226.89297623315, "Y": 586110.58230675117, "Quartier": "Arras 3", "Affectatio": "Collecte", "Statut": "supprimé", "Num_Circu": "CDSM_PC", "Amenagemen": "", "Num_Coffre": 0 }, "geometry": { "type": "Point", "coordinates": [ -3.9996883333, 5.3017666667 ] } },
{ "type": "Feature", "properties": { "fid": 269, "time": "14/07/2026", "Type_Capac": "5m3", "Nom": "Palais de la culture", "Commune": "Treichville", "Cod": "Tre-11", "X": 387793.74946023745, "Y": 587313.18767794222, "Quartier": "Antonin Dioulo", "Affectatio": "Collecte", "Statut": "actif", "Num_Circu": "CDSM_PC", "Amenagemen": "Pas de Plateforme", "Num_Coffre": 1 }, "geometry": { "type": "Point", "coordinates": [ -4.0126383333, 5.3126233333 ] } },
{ "type": "Feature", "properties": { "fid": 270, "time": "25/08/2022", "Type_Capac": "5m3", "Nom": "Palais des sports", "Commune": "Treichville", "Cod": "Tre-7", "X": 388567.04707768298, "Y": 585591.66458562878, "Quartier": "George Kassi", "Affectatio": "Collecte", "Statut": "supprimé", "Num_Circu": "CDSM_104", "Amenagemen": "", "Num_Coffre": 0 }, "geometry": { "type": "Point", "coordinates": [ -4.005635, 5.2970633333 ] } },
{ "type": "Feature", "properties": { "fid": 271, "time": "03/06/2026", "Type_Capac": "4m3", "Nom": "Raoul Follereau zouglou", "Commune": "Koumassi", "Cod": "Kou-30", "X": 393103.4892352263, "Y": 584434.50382147636, "Quartier": "SICOGI 1", "Affectatio": "Collecte", "Statut": "actif", "Num_Circu": "CDSM_107", "Amenagemen": "Pas de Plateforme", "Num_Coffre": 1 }, "geometry": { "type": "Point", "coordinates": [ -3.9646833333, 5.2866616667 ] } },
{ "type": "Feature", "properties": { "fid": 272, "time": "14/07/2023", "Type_Capac": "5m3", "Nom": "Ceinture 05.Salle des jeunes", "Commune": "Koumassi", "Cod": "Kou-31", "X": 395712.85503266635, "Y": 587302.89577944961, "Quartier": "Koumassi Nord Est 1", "Affectatio": "Collecte", "Statut": "supprimé", "Num_Circu": "CDSM_108", "Amenagemen": "", "Num_Coffre": 0 }, "geometry": { "type": "Point", "coordinates": [ -3.9411766667, 5.3126433333 ] } },
{ "type": "Feature", "properties": { "fid": 273, "time": "01/08/2024", "Type_Capac": "5m3", "Nom": "Parc auto", "Commune": "Port-Bouet", "Cod": "Por-57", "X": 393701.71580778388, "Y": 581541.45896395843, "Quartier": "Hopital 1", "Affectatio": "Collecte", "Statut": "supprimé", "Num_Circu": "CDSM_101", "Amenagemen": "Pas de Plateforme", "Num_Coffre": 0 }, "geometry": { "type": "Point", "coordinates": [ -3.959245, 5.2605016667 ] } },
{ "type": "Feature", "properties": { "fid": 274, "time": "03/06/2026", "Type_Capac": "20m3", "Nom": "Zoe Bruno", "Commune": "Koumassi", "Cod": "Kou-22", "X": 394590.58325752767, "Y": 584394.6097610814, "Quartier": "Zoé Bruno", "Affectatio": "Précollecte", "Statut": "actif", "Num_Circu": "CDSM_501 - AMPLIROLL/Tt - NOUVEAU", "Amenagemen": "Pas de plateforme", "Num_Coffre": 2 }, "geometry": { "type": "Point", "coordinates": [ -3.951263822, 5.2863215375 ] } },
{ "type": "Feature", "properties": { "fid": 275, "time": "26/07/2025", "Type_Capac": "20m3", "Nom": "Campement sable", "Commune": "Koumassi", "Cod": "Kou-32", "X": 396532.35004012194, "Y": 586788.58360295545, "Quartier": "Cité Houphouet (Campement)", "Affectatio": "Précollecte", "Statut": "actif", "Num_Circu": "CDSM_501 - AMPLIROLL/Tt - NOUVEAU", "Amenagemen": "Pas de plateforme", "Num_Coffre": 1 }, "geometry": { "type": "Point", "coordinates": [ -3.933774507, 5.3080024428 ] } },
{ "type": "Feature", "properties": { "fid": 276, "time": "05/01/2023", "Type_Capac": "20m3", "Nom": "Benogosso", "Commune": "Port-Bouet", "Cod": "Por-60", "X": 400213.07741831063, "Y": 581822.25948980672, "Quartier": "Jean Folly", "Affectatio": "EcoEburnie", "Statut": "supprimé", "Num_Circu": "CDSM_002 - AMPLIROLL - MARCORY – EEB", "Amenagemen": "Pas de Plateforme", "Num_Coffre": 0 }, "geometry": { "type": "Point", "coordinates": [ -3.9004946274, 5.2631292729 ] } },
{ "type": "Feature", "properties": { "fid": 277, "time": "2022/06/15", "Type_Capac": "5m3", "Nom": "Quincaillerie", "Commune": "Port-Bouet", "Cod": "Por-42", "X": 401064.76603721263, "Y": 579143.34279762604, "Quartier": "Gonzagueville", "Affectatio": "Collecte", "Statut": "supprimé", "Num_Circu": "CDSM_102", "Amenagemen": "", "Num_Coffre": 0 }, "geometry": { "type": "Point", "coordinates": [ -3.892775, 5.2389083333 ] } },
{ "type": "Feature", "properties": { "fid": 278, "time": "28/05/2026", "Type_Capac": "20m3", "Nom": "Anani St Michel", "Commune": "Port-Bouet", "Cod": "Por-61", "X": 402504.75787821005, "Y": 579670.4725667435, "Quartier": "Anani Amanou", "Affectatio": "Précollecte", "Statut": "actif", "Num_Circu": "CDSM_501 - AMPLIROLL/Tt - NOUVEAU", "Amenagemen": "Pas de Plateforme", "Num_Coffre": 2 }, "geometry": { "type": "Point", "coordinates": [ -3.879788471, 5.2436948749 ] } },
{ "type": "Feature", "properties": { "fid": 279, "time": "28/05/2026", "Type_Capac": "20m3", "Nom": "amangoua-koi", "Commune": "Port-Bouet", "Cod": "Por-51", "X": 397659.25732519303, "Y": 584324.99775165867, "Quartier": "Amangou-Koi", "Affectatio": "Précollecte", "Statut": "actif", "Num_Circu": "CDSM_501 - AMPLIROLL/Tt - NOUVEAU", "Amenagemen": "Pas de Plateforme", "Num_Coffre": 1 }, "geometry": { "type": "Point", "coordinates": [ -3.9235722119, 5.2857337167 ] } },
{ "type": "Feature", "properties": { "fid": 280, "time": "28/05/2026", "Type_Capac": "20m3", "Nom": "Abei-kro", "Commune": "Port-Bouet", "Cod": "Por-62", "X": 397620.3697328039, "Y": 585035.09584281663, "Quartier": "Amangou-Koi", "Affectatio": "Précollecte", "Statut": "actif", "Num_Circu": "CDSM_501 - AMPLIROLL/Tt - NOUVEAU", "Amenagemen": "Pas de Plateforme", "Num_Coffre": 1 }, "geometry": { "type": "Point", "coordinates": [ -3.923932647, 5.2921562855 ] } },
{ "type": "Feature", "properties": { "fid": 281, "time": "28/05/2026", "Type_Capac": "4m3", "Nom": "Togo gare", "Commune": "Port-Bouet", "Cod": "Por-63", "X": 395629.7138369251, "Y": 580011.93387091882, "Quartier": "(Zone Aéroportuaire)", "Affectatio": "Collecte", "Statut": "actif", "Num_Circu": "CDSM_101", "Amenagemen": "Pas de Plateforme", "Num_Coffre": 1 }, "geometry": { "type": "Point", "coordinates": [ -3.941827408, 5.2466931489 ] } },
{ "type": "Feature", "properties": { "fid": 282, "time": "12/06/2026", "Type_Capac": "5m3", "Nom": "Camp millitaire", "Commune": "Marcory", "Cod": "Mar-18", "X": 390631.77887140401, "Y": 585227.19998795155, "Quartier": "Adaimin", "Affectatio": "Collecte", "Statut": "actif", "Num_Circu": "CDSM_PC", "Amenagemen": "", "Num_Coffre": 1 }, "geometry": { "type": "Point", "coordinates": [ -3.9869983333, 5.2937966667 ] } },
{ "type": "Feature", "properties": { "fid": 283, "time": "28/05/2026", "Type_Capac": "20m3", "Nom": "Adjahui", "Commune": "Port-Bouet", "Cod": "Por-29", "X": 396069.27111744572, "Y": 582873.91376534279, "Quartier": "Adjahui-Coubé", "Affectatio": "Précollecte", "Statut": "actif", "Num_Circu": "CDSM_501 - AMPLIROLL/Tt - NOUVEAU", "Amenagemen": "Pas de Plateforme", "Num_Coffre": 3 }, "geometry": { "type": "Point", "coordinates": [ -3.9316223375, 5.2658393521 ] } },
{ "type": "Feature", "properties": { "fid": 284, "time": "12/10/2022", "Type_Capac": "20m3", "Nom": "Akwaba", "Commune": "Port-Bouet", "Cod": "Por-1", "X": 393445.48967369826, "Y": 582238.16539169883, "Quartier": "Hopital 1", "Affectatio": "Précollecte", "Statut": "supprimé", "Num_Circu": "CDSM_501 - AMPLIROLL/Tt - NOUVEAU", "Amenagemen": "", "Num_Coffre": 0 }, "geometry": { "type": "Point", "coordinates": [ -3.9615666667, 5.2668 ] } },
{ "type": "Feature", "properties": { "fid": 285, "time": "02/03/2022", "Type_Capac": "5m3", "Nom": "EEP Sogefia 2", "Commune": "Port-Bouet", "Cod": "Por-49", "X": 393596.49521990865, "Y": 581462.38948515232, "Quartier": "Hopital 1", "Affectatio": "Collecte", "Statut": "supprimé", "Num_Circu": "CDSM_101", "Amenagemen": "", "Num_Coffre": 0 }, "geometry": { "type": "Point", "coordinates": [ -3.9601933333, 5.259785 ] } },
{ "type": "Feature", "properties": { "fid": 286, "time": "17/03/2022", "Type_Capac": "5m3", "Nom": "Canal", "Commune": "Marcory", "Cod": "Mar-13", "X": 392352.9664223229, "Y": 585799.00575094623, "Quartier": "Jean Baptiste Mockey", "Affectatio": "Collecte", "Statut": "supprimé", "Num_Circu": "CDSM_PC", "Amenagemen": "", "Num_Coffre": 0 }, "geometry": { "type": "Point", "coordinates": [ -3.971475, 5.2989933333 ] } },
{ "type": "Feature", "properties": { "fid": 287, "time": "28/05/2026", "Type_Capac": "20m3", "Nom": "Motard", "Commune": "Port-Bouet", "Cod": "Por-8", "X": 402077.60540692881, "Y": 578986.39908387349, "Quartier": "Anani Amanou", "Affectatio": "Précollecte", "Statut": "actif", "Num_Circu": "CDSM_501 - AMPLIROLL/Tt - NOUVEAU", "Amenagemen": "", "Num_Coffre": 1 }, "geometry": { "type": "Point", "coordinates": [ -3.8836340522, 5.2375016723 ] } },
{ "type": "Feature", "properties": { "fid": 288, "time": "30/07/2025", "Type_Capac": "20m3", "Nom": "Adjahui", "Commune": "Port-Bouet", "Cod": "Por-97", "X": 396738.48212297278, "Y": 582086.87422819075, "Quartier": null, "Affectatio": null, "Statut": "supprimé", "Num_Circu": null, "Amenagemen": null, "Num_Coffre": 0 }, "geometry": { "type": "Point", "coordinates": [ -3.9318507869, 5.2654767011 ] } },
{ "type": "Feature", "properties": { "fid": 289, "time": "26/07/2025", "Type_Capac": "20m3", "Nom": "Zoe Bruno", "Commune": "Koumassi", "Cod": "Kou-45", "X": 394641.84746268118, "Y": 584430.4026893914, "Quartier": null, "Affectatio": null, "Statut": "supprimé", "Num_Circu": null, "Amenagemen": null, "Num_Coffre": 0 }, "geometry": { "type": "Point", "coordinates": [ -3.9508017268, 5.2866460041 ] } },
{ "type": "Feature", "properties": { "fid": 290, "time": "26/07/2025", "Type_Capac": "20m3", "Nom": "Marché Poulet", "Commune": "Koumassi", "Cod": "Kou-9", "X": 393807.69296492159, "Y": 585777.56271813484, "Quartier": "Progrès", "Affectatio": "Précollecte", "Statut": "actif", "Num_Circu": "CDSM_501 - AMPLIROLL/Tt - NOUVEAU", "Amenagemen": "Pas de plateforme - mais le coffre est encastré dans le marché", "Num_Coffre": 1 }, "geometry": { "type": "Point", "coordinates": [ -3.9583475789, 5.2988198427 ] } },
{ "type": "Feature", "properties": { "fid": 291, "time": "03/06/2026", "Type_Capac": "4m3", "Nom": "Clôture Sotra ", "Commune": "Koumassi", "Cod": "Kou-46", "X": 394301.38447631459, "Y": 584422.66939453653, "Quartier": null, "Affectatio": null, "Statut": "actif", "Num_Circu": null, "Amenagemen": null, "Num_Coffre": 1 }, "geometry": { "type": "Point", "coordinates": [ -3.9538738309, 5.2865713375 ] } },
{ "type": "Feature", "properties": { "fid": 292, "time": "04/06/2026", "Type_Capac": "4m3", "Nom": "Inch Allah", "Commune": "Koumassi", "Cod": "Kou-23", "X": 394103.17519186583, "Y": 585952.94154043286, "Quartier": "Progrès", "Affectatio": "Collecte", "Statut": "actif", "Num_Circu": "CDSM_PC", "Amenagemen": "Pas de Plateforme", "Num_Coffre": 1 }, "geometry": { "type": "Point", "coordinates": [ -3.9556836473, 5.300410315 ] } },
{ "type": "Feature", "properties": { "fid": 293, "time": "01/08/2024", "Type_Capac": "4m3", "Nom": "Terre rouge", "Commune": "Port-Bouet", "Cod": "Por-65", "X": 400341.96728194191, "Y": 579250.82600152912, "Quartier": "Gonzagueville", "Affectatio": "Collecte", "Statut": "supprimé", "Num_Circu": "CDSM_102", "Amenagemen": "", "Num_Coffre": 0 }, "geometry": { "type": "Point", "coordinates": [ -3.8992982636, 5.2398712288 ] } },
{ "type": "Feature", "properties": { "fid": 294, "time": "28/05/2026", "Type_Capac": "20m3", "Nom": "Amamou", "Commune": "Port-Bouet", "Cod": "Por-66", "X": 402848.48830293742, "Y": 578918.7433804929, "Quartier": "Anani Amanou", "Affectatio": "Précollecte", "Statut": "actif", "Num_Circu": "CDSM_501 - AMPLIROLL/Tt - NOUVEAU", "Amenagemen": "", "Num_Coffre": 1 }, "geometry": { "type": "Point", "coordinates": [ -3.8766774443, 5.2368994721 ] } },
{ "type": "Feature", "properties": { "fid": 295, "time": "28/05/2026", "Type_Capac": "4m3", "Nom": "Joker Club", "Commune": "Port-Bouet", "Cod": "Por-67", "X": 402419.71956992854, "Y": 578958.91803602898, "Quartier": "Anani Amanou", "Affectatio": "Collecte", "Statut": "actif", "Num_Circu": "CDSM_PC", "Amenagemen": "", "Num_Coffre": 1 }, "geometry": { "type": "Point", "coordinates": [ -3.8805467748, 5.2372574423 ] } },
{ "type": "Feature", "properties": { "fid": 296, "time": "28/05/2026", "Type_Capac": "4m3", "Nom": "Caraïbes 1", "Commune": "Port-Bouet", "Cod": "Por-64", "X": 393213.01049725985, "Y": 580861.85771382088, "Quartier": "Phare 3", "Affectatio": "Collecte", "Statut": "actif", "Num_Circu": "CDSM_101", "Amenagemen": "", "Num_Coffre": 1 }, "geometry": { "type": "Point", "coordinates": [ -3.963645247, 5.2543476931 ] } },
{ "type": "Feature", "properties": { "fid": 297, "time": "04/10/2023", "Type_Capac": "20m3", "Nom": "Marché brûlé", "Commune": "Port-Bouet", "Cod": "Por-37", "X": 393155.24331787339, "Y": 581194.14679968415, "Quartier": "Phare 3", "Affectatio": "Précollecte", "Statut": "supprimé", "Num_Circu": "CDSM_501 - AMPLIROLL/Tt - NOUVEAU", "Amenagemen": "Pas de Plateforme", "Num_Coffre": 0 }, "geometry": { "type": "Point", "coordinates": [ -3.96417111, 5.2573525299 ] } },
{ "type": "Feature", "properties": { "fid": 298, "time": "28/05/2026", "Type_Capac": "4m3", "Nom": "Université Nord Sud", "Commune": "Port-Bouet", "Cod": "Por-68", "X": 391641.07182480942, "Y": 581119.9763451959, "Quartier": "Petit Bassam", "Affectatio": "Collecte", "Statut": "actif", "Num_Circu": "CDSM_PC", "Amenagemen": "", "Num_Coffre": 1 }, "geometry": { "type": "Point", "coordinates": [ -3.9778326669, 5.2566603713 ] } },
{ "type": "Feature", "properties": { "fid": 299, "time": "01/08/2024", "Type_Capac": "4m3", "Nom": "Oser", "Commune": "Marcory", "Cod": "Mar-21", "X": 392695.40767242957, "Y": 583228.98343434103, "Quartier": "Biétry", "Affectatio": "Collecte", "Statut": "supprimé", "Num_Circu": "CDSM_109", "Amenagemen": "", "Num_Coffre": 0 }, "geometry": { "type": "Point", "coordinates": [ -3.9683487701, 5.2757517035 ] } },
{ "type": "Feature", "properties": { "fid": 300, "time": "28/05/2026", "Type_Capac": "4m3", "Nom": "Dieudonné", "Commune": "Port-Bouet", "Cod": "Por-69", "X": 401389.48756881506, "Y": 579121.91793579725, "Quartier": null, "Affectatio": null, "Statut": "actif", "Num_Circu": null, "Amenagemen": null, "Num_Coffre": 1 }, "geometry": { "type": "Point", "coordinates": [ -3.8898447326, 5.2387187081 ] } },
{ "type": "Feature", "properties": { "fid": 301, "time": "12/06/2026", "Type_Capac": "4m3", "Nom": "Hotel Hamanieh", "Commune": "Marcory", "Cod": "Mar-22", "X": 390407.90413225081, "Y": 586518.71580102784, "Quartier": "Marie Koré", "Affectatio": "Collecte", "Statut": "actif", "Num_Circu": "CDSM_110", "Amenagemen": "", "Num_Coffre": 1 }, "geometry": { "type": "Point", "coordinates": [ -3.9890370804, 5.3054754402 ] } },
{ "type": "Feature", "properties": { "fid": 302, "time": "01/11/2023", "Type_Capac": "4m3", "Nom": "Tournant Anoumanbo", "Commune": "Marcory", "Cod": "Mar-23", "X": 391731.52624780755, "Y": 587196.21278218424, "Quartier": "Anoumabo", "Affectatio": "Collecte", "Statut": "supprimé", "Num_Circu": "CDSM_110", "Amenagemen": "", "Num_Coffre": 0 }, "geometry": { "type": "Point", "coordinates": [ -3.977102602, 5.3116225401 ] } },
{ "type": "Feature", "properties": { "fid": 303, "time": "03/06/2026", "Type_Capac": "4m3", "Nom": "COOPEC", "Commune": "Koumassi", "Cod": "Kou-34", "X": 395091.92708715337, "Y": 586895.96865140391, "Quartier": "Koumassi Nord Est 1", "Affectatio": "Collecte", "Statut": "actif", "Num_Circu": "CDSM_108", "Amenagemen": "", "Num_Coffre": 1 }, "geometry": { "type": "Point", "coordinates": [ -3.94677432, 5.30895399 ] } },
{ "type": "Feature", "properties": { "fid": 304, "time": "12/06/2026", "Type_Capac": "4m3", "Nom": "Station Total INJS", "Commune": "Marcory", "Cod": "Mar-19", "X": 391483.89816509798, "Y": 586573.11357066652, "Quartier": "Gnanzoua", "Affectatio": "Collecte", "Statut": "actif", "Num_Circu": "CDSM_110", "Amenagemen": "", "Num_Coffre": 1 }, "geometry": { "type": "Point", "coordinates": [ -3.9793282851, 5.3059829391 ] } },
{ "type": "Feature", "properties": { "fid": 305, "time": "03/06/2026", "Type_Capac": "4m3", "Nom": "Epp lagune", "Commune": "Koumassi", "Cod": "Kou-35", "X": 394589.83695118234, "Y": 585859.68354493135, "Quartier": "Prodomo Sipim Pangolin", "Affectatio": "Collecte", "Statut": "actif", "Num_Circu": "CDSM_108", "Amenagemen": "", "Num_Coffre": 1 }, "geometry": { "type": "Point", "coordinates": [ -3.9512908066, 5.2995735378 ] } },
{ "type": "Feature", "properties": { "fid": 306, "time": "03/06/2026", "Type_Capac": "4m3", "Nom": "Antananarivo SODECI", "Commune": "Koumassi", "Cod": "Kou-36", "X": 393353.91278039629, "Y": 584119.73821296298, "Quartier": "Abia Koumassi", "Affectatio": "Collecte", "Statut": "actif", "Num_Circu": "CDSM_107", "Amenagemen": "", "Num_Coffre": 1 }, "geometry": { "type": "Point", "coordinates": [ -3.9624192168, 5.2838180407 ] } },
{ "type": "Feature", "properties": { "fid": 307, "time": "24/09/2025", "Type_Capac": "20m3", "Nom": "Benogosso terrain", "Commune": "Port-Bouet", "Cod": "Por-70", "X": 401667.9254092786, "Y": 583318.92301772104, "Quartier": "Bénégosso", "Affectatio": "Précollecte", "Statut": "actif", "Num_Circu": "CDSM_501 - AMPLIROLL/Tt - NOUVEAU", "Amenagemen": "", "Num_Coffre": 1 }, "geometry": { "type": "Point", "coordinates": [ -3.8873861111, 5.2766861111 ] } },
{ "type": "Feature", "properties": { "fid": 308, "time": "21/12/2023", "Type_Capac": "5m3", "Nom": "SGBCI", "Commune": "Koumassi", "Cod": "Kou-21", "X": 394001.72913533263, "Y": 585213.43268930714, "Quartier": "Grand marché", "Affectatio": "Collecte", "Statut": "supprimé", "Num_Circu": "CDSM_106", "Amenagemen": "", "Num_Coffre": 0 }, "geometry": { "type": "Point", "coordinates": [ -3.9565887913, 5.2937198429 ] } },
{ "type": "Feature", "properties": { "fid": 309, "time": "28/05/2026", "Type_Capac": "20m3", "Nom": "1er arrêt", "Commune": "Port-Bouet", "Cod": "Por-21", "X": 396967.76635551191, "Y": 579803.51784949587, "Quartier": "Adjouffou", "Affectatio": "Précollecte", "Statut": "actif", "Num_Circu": "CDSM_501 - AMPLIROLL/Tt - NOUVEAU", "Amenagemen": "Plateforme pour 1 coffre", "Num_Coffre": 1 }, "geometry": { "type": "Point", "coordinates": [ -3.9297512434, 5.2448260299 ] } },
{ "type": "Feature", "properties": { "fid": 310, "time": "28/05/2026", "Type_Capac": "20m3", "Nom": "2e arrêt", "Commune": "Port-Bouet", "Cod": "Por-71", "X": 397453.51300828013, "Y": 579726.94733399665, "Quartier": "Adjouffou", "Affectatio": "Précollecte", "Statut": "actif", "Num_Circu": "CDSM_501 - AMPLIROLL/Tt - NOUVEAU", "Amenagemen": "", "Num_Coffre": 1 }, "geometry": { "type": "Point", "coordinates": [ -3.9253672882, 5.2441399242 ] } },
{ "type": "Feature", "properties": { "fid": 311, "time": "30/07/2025", "Type_Capac": "20m3", "Nom": "Corridor", "Commune": "Port-Bouet", "Cod": "Por-93", "X": 400642.07704343984, "Y": 579219.6226686486, "Quartier": null, "Affectatio": null, "Statut": "supprimé", "Num_Circu": null, "Amenagemen": null, "Num_Coffre": 0 }, "geometry": { "type": "Point", "coordinates": [ -3.896589943, 5.2395928666 ] } },
{ "type": "Feature", "properties": { "fid": 312, "time": "01/08/2024", "Type_Capac": "20m3", "Nom": "Terre rouge", "Commune": "Port-Bouet", "Cod": "Por-72", "X": 400521.66251897864, "Y": 579237.93660029897, "Quartier": "Gonzagueville", "Affectatio": "Précollecte", "Statut": "supprimé", "Num_Circu": "CDSM_501 - AMPLIROLL/Tt - NOUVEAU", "Amenagemen": "", "Num_Coffre": 0 }, "geometry": { "type": "Point", "coordinates": [ -3.8976766906, 5.2397569665 ] } },
{ "type": "Feature", "properties": { "fid": 314, "time": "28/05/2026", "Type_Capac": "4m3", "Nom": "Rue 12", "Commune": "Port-Bouet", "Cod": "Por -75", "X": 399740.41797871189, "Y": 579365.9702913895, "Quartier": "Jean Folly", "Affectatio": "Collecte", "Statut": "actif", "Num_Circu": "CDSM_PC", "Amenagemen": "", "Num_Coffre": 1 }, "geometry": { "type": "Point", "coordinates": [ -3.9047275909, 5.2409049335 ] } },
{ "type": "Feature", "properties": { "fid": 315, "time": "28/05/2026", "Type_Capac": "4m3", "Nom": "Marché Jean Folly", "Commune": "Port-Bouet", "Cod": "Por-74", "X": 399511.86875337991, "Y": 579404.04530492052, "Quartier": "Jean Folly", "Affectatio": "Collecte", "Statut": "actif", "Num_Circu": "CDSM_PC", "Amenagemen": "", "Num_Coffre": 1 }, "geometry": { "type": "Point", "coordinates": [ -3.9067903074, 5.2412463523 ] } },
{ "type": "Feature", "properties": { "fid": 316, "time": "28/05/2026", "Type_Capac": "20m3", "Nom": "Marché Jean Folly", "Commune": "Port-Bouet", "Cod": "Por-15", "X": 399371.12358902581, "Y": 579421.30860626407, "Quartier": "Jean Folly", "Affectatio": "Précollecte", "Statut": "actif", "Num_Circu": "CDSM_501 - AMPLIROLL/Tt - NOUVEAU", "Amenagemen": "", "Num_Coffre": 1 }, "geometry": { "type": "Point", "coordinates": [ -3.908060489, 5.241400664 ] } },
{ "type": "Feature", "properties": { "fid": 317, "time": "28/05/2026", "Type_Capac": "20m3", "Nom": "Mobibois", "Commune": "Port-Bouet", "Cod": "Por-16", "X": 399169.59359824029, "Y": 579454.78369366983, "Quartier": "Jean Folly", "Affectatio": "Précollecte", "Statut": "actif", "Num_Circu": "CDSM_501 - AMPLIROLL/Tt - NOUVEAU", "Amenagemen": "Plateforme pour 2 coffres", "Num_Coffre": 2 }, "geometry": { "type": "Point", "coordinates": [ -3.9098793498, 5.2417008177 ] } },
{ "type": "Feature", "properties": { "fid": 319, "time": "28/05/2026", "Type_Capac": "20m3", "Nom": "Boutique Omo", "Commune": "Port-Bouet", "Cod": "Por-18", "X": 398111.59895511274, "Y": 579628.23653693788, "Quartier": "Aka Anghui", "Affectatio": "Précollecte", "Statut": "actif", "Num_Circu": "CDSM_501 - AMPLIROLL/Tt - NOUVEAU", "Amenagemen": "Plateforme pour 1 coffre", "Num_Coffre": 1 }, "geometry": { "type": "Point", "coordinates": [ -3.9194280116, 5.243255807 ] } },
{ "type": "Feature", "properties": { "fid": 320, "time": "28/05/2026", "Type_Capac": "20m3", "Nom": "Adjoufou", "Commune": "Port-Bouet", "Cod": "Por-19", "X": 397848.15335880138, "Y": 579665.71070869605, "Quartier": "Adjouffou 2", "Affectatio": "Précollecte", "Statut": "actif", "Num_Circu": "CDSM_501 - AMPLIROLL/Tt - NOUVEAU", "Amenagemen": "Plateforme pour 2 coffres", "Num_Coffre": 1 }, "geometry": { "type": "Point", "coordinates": [ -3.9218056006, 5.2435912756 ] } },
{ "type": "Feature", "properties": { "fid": 321, "time": "28/05/2026", "Type_Capac": "20m3", "Nom": "Terre rouge", "Commune": "Port-Bouet", "Cod": "Por-13", "X": 400282.9602545033, "Y": 579280.29699768627, "Quartier": "Gonzagueville", "Affectatio": "Précollecte", "Statut": "actif", "Num_Circu": "CDSM_501 - AMPLIROLL/Tt - NOUVEAU", "Amenagemen": "", "Num_Coffre": 1 }, "geometry": { "type": "Point", "coordinates": [ -3.8998310706, 5.2401370413 ] } },
{ "type": "Feature", "properties": { "fid": 322, "time": "28/05/2026", "Type_Capac": "5m3", "Nom": "Cloture Abattoir", "Commune": "Port-Bouet", "Cod": "Por-76", "X": 392516.72076524654, "Y": 581386.63503371889, "Quartier": "Abattoir 1", "Affectatio": "Collecte", "Statut": "actif", "Num_Circu": "CDSM_101", "Amenagemen": "", "Num_Coffre": 1 }, "geometry": { "type": "Point", "coordinates": [ -3.9699352994, 5.2590847002 ] } },
{ "type": "Feature", "properties": { "fid": 323, "time": "03/06/2026", "Type_Capac": "4m3", "Nom": "Centre des metiers", "Commune": "Koumassi", "Cod": "Kou-37", "X": 392534.79496191267, "Y": 584954.1404603949, "Quartier": "Mosquée", "Affectatio": "Collecte", "Statut": "actif", "Num_Circu": "CDSM_106", "Amenagemen": "", "Num_Coffre": 1 }, "geometry": { "type": "Point", "coordinates": [ -3.9698223129, 5.2913539013 ] } },
{ "type": "Feature", "properties": { "fid": 324, "time": "03/06/2026", "Type_Capac": "4m3", "Nom": "Niche CIE", "Commune": "Koumassi", "Cod": "Kou-38", "X": 393876.88777664368, "Y": 585456.9911604973, "Quartier": "Progrès", "Affectatio": "Collecte", "Statut": "actif", "Num_Circu": "CDSM_PC", "Amenagemen": "", "Num_Coffre": 1 }, "geometry": { "type": "Point", "coordinates": [ -3.9577187149, 5.2959211539 ] } },
{ "type": "Feature", "properties": { "fid": 325, "time": "28/05/2026", "Type_Capac": "4m3", "Nom": "Mairie", "Commune": "Port-Bouet", "Cod": "Por-77", "X": 392999.70896565879, "Y": 581310.14680202317, "Quartier": "Commissariat Sainte Anne", "Affectatio": "Collecte", "Statut": "actif", "Num_Circu": "CDSM_101", "Amenagemen": "", "Num_Coffre": 1 }, "geometry": { "type": "Point", "coordinates": [ -3.9655761397, 5.2583996087 ] } },
{ "type": "Feature", "properties": { "fid": 326, "time": "28/05/2026", "Type_Capac": "20m3", "Nom": "Vridi cité  (douane)", "Commune": "Port-Bouet", "Cod": "Por-81", "X": 391189.8809856936, "Y": 581645.67953603459, "Quartier": "Petit Bassam", "Affectatio": "Précollecte", "Statut": "actif", "Num_Circu": "CDSM_501 - AMPLIROLL/Tt - NOUVEAU", "Amenagemen": "", "Num_Coffre": 1 }, "geometry": { "type": "Point", "coordinates": [ -3.9819112682, 5.2614090737 ] } },
{ "type": "Feature", "properties": { "fid": 327, "time": "03/06/2026", "Type_Capac": "20m3", "Nom": "Grand marché koumassi", "Commune": "Koumassi", "Cod": "Kou-39", "X": 393863.46208990179, "Y": 585050.51404813165, "Quartier": null, "Affectatio": null, "Statut": "actif", "Num_Circu": null, "Amenagemen": null, "Num_Coffre": 2 }, "geometry": { "type": "Point", "coordinates": [ -3.9578342066, 5.2922442722 ] } },
{ "type": "Feature", "properties": { "fid": 328, "time": "28/05/2026", "Type_Capac": "4m3", "Nom": "Marché de nuit", "Commune": "Port-Bouet", "Cod": "Por-78", "X": 393046.42100723524, "Y": 580961.31071046973, "Quartier": "Anléya", "Affectatio": "Collecte", "Statut": "actif", "Num_Circu": "CDSM_101", "Amenagemen": "", "Num_Coffre": 1 }, "geometry": { "type": "Point", "coordinates": [ -3.96514979, 5.2552449484 ] } },
{ "type": "Feature", "properties": { "fid": 329, "time": "28/05/2026", "Type_Capac": "20m3", "Nom": "Iran", "Commune": "Port-Bouet", "Cod": "Por-44", "X": 398293.63230208971, "Y": 579589.73960543878, "Quartier": null, "Affectatio": null, "Statut": "actif", "Num_Circu": null, "Amenagemen": null, "Num_Coffre": 2 }, "geometry": { "type": "Point", "coordinates": [ -3.9178366522, 5.243081506 ] } },
{ "type": "Feature", "properties": { "fid": 330, "time": "01/08/2024", "Type_Capac": "20m3", "Nom": "Abattoir 2", "Commune": "Port-Bouet", "Cod": "Por-82", "X": 392875.07081673207, "Y": 581582.23095364566, "Quartier": "Abattoir 2", "Affectatio": "EcoEburnie", "Statut": "supprimé", "Num_Circu": "CDSM_002 - AMPLIROLL - MARCORY – EEB", "Amenagemen": "", "Num_Coffre": 0 }, "geometry": { "type": "Point", "coordinates": [ -3.96670457, 5.2608589366 ] } },
{ "type": "Feature", "properties": { "fid": 331, "time": "26/07/2025", "Type_Capac": "5m3", "Nom": "Cité Pangolin", "Commune": "Koumassi", "Cod": "Kou-40", "X": 395092.35375721217, "Y": 586097.90317471838, "Quartier": "Prodomo Sipim Pangolin", "Affectatio": "Collecte", "Statut": "supprimé", "Num_Circu": "CDSM_108", "Amenagemen": "", "Num_Coffre": 0 }, "geometry": { "type": "Point", "coordinates": [ -3.9467594654, 5.3017352592 ] } },
{ "type": "Feature", "properties": { "fid": 332, "time": "28/05/2026", "Type_Capac": "4m3", "Nom": "Pont piéton Motard", "Commune": "Port-Bouet", "Cod": "Por-83", "X": 402195.84477183787, "Y": 578991.03237566864, "Quartier": "Anani Amanou", "Affectatio": "Collecte", "Statut": "actif", "Num_Circu": "CDSM_PC", "Amenagemen": "", "Num_Coffre": 1 }, "geometry": { "type": "Point", "coordinates": [ -3.8825672259, 5.2375450875 ] } },
{ "type": "Feature", "properties": { "fid": 333, "time": "01/08/2024", "Type_Capac": "20m3", "Nom": "Motard", "Commune": "Port-Bouet", "Cod": "Por-84", "X": 402547.73786708916, "Y": 578937.70001878089, "Quartier": "Anani Amanou", "Affectatio": "Précollecte", "Statut": "supprimé", "Num_Circu": "CDSM_501 - AMPLIROLL/Tt - NOUVEAU", "Amenagemen": "", "Num_Coffre": 0 }, "geometry": { "type": "Point", "coordinates": [ -3.8793913848, 5.2370671386 ] } },
{ "type": "Feature", "properties": { "fid": 334, "time": "05/06/2026", "Type_Capac": "20m3", "Nom": "Drocolor", "Commune": "Marcory", "Cod": "Mar-24", "X": 390105.28237298282, "Y": 584723.26195053116, "Quartier": "Grand marché", "Affectatio": "Précollecte", "Statut": "actif", "Num_Circu": "CDSM_501 - AMPLIROLL/Tt - NOUVEAU", "Amenagemen": "", "Num_Coffre": 3 }, "geometry": { "type": "Point", "coordinates": [ -3.991741984, 5.2892308701 ] } },
{ "type": "Feature", "properties": { "fid": 335, "time": "04/06/2026", "Type_Capac": "5m3", "Nom": "Rond point kahira", "Commune": "Koumassi", "Cod": "Kou-44", "X": 392813.35331376689, "Y": 585516.50874324131, "Quartier": "Grand marché", "Affectatio": "Collecte", "Statut": "actif", "Num_Circu": "CDSM_106", "Amenagemen": "", "Num_Coffre": 1 }, "geometry": { "type": "Point", "coordinates": [ -3.9673166047, 5.2964445872 ] } },
{ "type": "Feature", "properties": { "fid": 336, "time": "03/06/2026", "Type_Capac": "4m3", "Nom": "Djekonan", "Commune": "Koumassi", "Cod": "Kou-41", "X": 392795.30027505639, "Y": 584687.66621202207, "Quartier": "Grand marché", "Affectatio": "Collecte", "Statut": "actif", "Num_Circu": "CDSM_107", "Amenagemen": "", "Num_Coffre": 1 }, "geometry": { "type": "Point", "coordinates": [ -3.9674678597, 5.288947251 ] } },
{ "type": "Feature", "properties": { "fid": 337, "time": "26/07/2025", "Type_Capac": "5m3", "Nom": "Intérieure camp commando", "Commune": "Koumassi", "Cod": "Kou-43", "X": 393086.94118560839, "Y": 583765.68683924817, "Quartier": "Grand marché", "Affectatio": "Collecte", "Statut": "actif", "Num_Circu": "CDSM_PC", "Amenagemen": "", "Num_Coffre": 1 }, "geometry": { "type": "Point", "coordinates": [ -3.9648232968, 5.2806118161 ] } },
{ "type": "Feature", "properties": { "fid": 338, "time": "29/05/2026", "Type_Capac": "5m3", "Nom": "Sodeci", "Commune": "Port-Bouet", "Cod": "Por-91", "X": 394141.43188337499, "Y": 580504.38800379692, "Quartier": null, "Affectatio": null, "Statut": "actif", "Num_Circu": null, "Amenagemen": null, "Num_Coffre": 1 }, "geometry": { "type": "Point", "coordinates": [ -3.9552630448, 5.2511271566 ] } },
{ "type": "Feature", "properties": { "fid": 339, "time": "29/05/2026", "Type_Capac": "4m3", "Nom": "Carrefour Marché (Benogosso)", "Commune": "Port-Bouet", "Cod": "Por-90", "X": 400312.74817234027, "Y": 580003.96096424304, "Quartier": null, "Affectatio": null, "Statut": "actif", "Num_Circu": null, "Amenagemen": null, "Num_Coffre": 1 }, "geometry": { "type": "Point", "coordinates": [ -3.8995716612, 5.2466832814 ] } },
{ "type": "Feature", "properties": { "fid": 340, "time": "29/05/2026", "Type_Capac": "4m3", "Nom": "Lycée Municipale", "Commune": "Port-Bouet", "Cod": "Por-87", "X": 400304.68584311131, "Y": 580455.75644091086, "Quartier": null, "Affectatio": null, "Statut": "actif", "Num_Circu": null, "Amenagemen": null, "Num_Coffre": 1 }, "geometry": { "type": "Point", "coordinates": [ -3.8996502653, 5.2507698615 ] } },
{ "type": "Feature", "properties": { "fid": 341, "time": "29/05/2026", "Type_Capac": "4m3", "Nom": "Carrefour Colonnel", "Commune": "Port-Bouet", "Cod": "Por-88", "X": 400301.37278013583, "Y": 581051.38942219771, "Quartier": null, "Affectatio": null, "Statut": "actif", "Num_Circu": null, "Amenagemen": null, "Num_Coffre": 1 }, "geometry": { "type": "Point", "coordinates": [ -3.8996878878, 5.2561575745 ] } },
{ "type": "Feature", "properties": { "fid": 342, "time": "29/05/2026", "Type_Capac": "4m3", "Nom": "Entrée Base Benogosso", "Commune": "Port-Bouet", "Cod": "Por-89", "X": 400288.51176112838, "Y": 581764.8584593893, "Quartier": null, "Affectatio": null, "Statut": "actif", "Num_Circu": null, "Amenagemen": null, "Num_Coffre": 1 }, "geometry": { "type": "Point", "coordinates": [ -3.8998132054, 5.2626110395 ] } },
{ "type": "Feature", "properties": { "fid": 343, "time": "27/10/2025", "Type_Capac": "20m3", "Nom": "Benogosso Bord Lagunaire", "Commune": "Port-Bouet", "Cod": "Por-86", "X": 400901.65773050266, "Y": 583698.66279819643, "Quartier": "Bénégosso", "Affectatio": "Précollecte", "Statut": "actif", "Num_Circu": "CDSM_501 - AMPLIROLL/Tt - NOUVEAU", "Amenagemen": "", "Num_Coffre": 1 }, "geometry": { "type": "Point", "coordinates": [ -3.8943055556, 5.2801111111 ] } },
{ "type": "Feature", "properties": { "fid": 344, "time": "24/09/2025", "Type_Capac": "20m3", "Nom": "Benogosso Cimétière", "Commune": "Port-Bouet", "Cod": "Por-92", "X": 400562.45900373609, "Y": 583293.78956667776, "Quartier": "Bénégosso", "Affectatio": "Précollecte", "Statut": "actif", "Num_Circu": "CDSM_501 - AMPLIROLL/Tt - NOUVEAU", "Amenagemen": "", "Num_Coffre": 1 }, "geometry": { "type": "Point", "coordinates": [ -3.8973611111, 5.2764444444 ] } },
{ "type": "Feature", "properties": { "fid": 345, "time": "28/05/2026", "Type_Capac": "4m3", "Nom": "Caraïbes 2", "Commune": "Port-Bouet", "Cod": "Por-", "X": 393630.9574895316, "Y": 580689.37298715976, "Quartier": null, "Affectatio": null, "Statut": "actif", "Num_Circu": null, "Amenagemen": null, "Num_Coffre": 1 }, "geometry": { "type": "Point", "coordinates": [ -3.9612379687, 5.2531690917 ] } },
{ "type": "Feature", "properties": { "fid": 346, "time": "29/05/2026", "Type_Capac": "20m3", "Nom": "Anani Todjo", "Commune": "Port-Bouet", "Cod": "Por-", "X": 402504.75787821005, "Y": 579670.4725667435, "Quartier": null, "Affectatio": null, "Statut": "actif", "Num_Circu": null, "Amenagemen": null, "Num_Coffre": 1 }, "geometry": { "type": "Point", "coordinates": [ -3.8735184072, 5.2441112092 ] } },
{ "type": "Feature", "properties": { "fid": 347, "time": "28/05/2026", "Type_Capac": "20m3", "Nom": "Casier", "Commune": "Port-Bouet", "Cod": "Por-17", "X": 398688.80022930377, "Y": 579511.40631132422, "Quartier": "Jean Folly", "Affectatio": "Précollecte", "Statut": "actif", "Num_Circu": "CDSM_501 - AMPLIROLL/Tt - NOUVEAU", "Amenagemen": "Plateforme pour 2 coffres", "Num_Coffre": 1 }, "geometry": { "type": "Point", "coordinates": [ -3.9154592325, 5.2426935664 ] } },
{ "type": "Feature", "properties": { "fid": 349, "time": "28/05/2026", "Type_Capac": "4m3", "Nom": "Cité Akissi Delta", "Commune": "Port-Bouet", "Cod": "Por-", "X": -402419.71956992854, "Y": 578958.91803602898, "Quartier": null, "Affectatio": null, "Statut": "actif", "Num_Circu": null, "Amenagemen": null, "Num_Coffre": 1 }, "geometry": { "type": "Point", "coordinates": [ -3.8593339913, 5.2322717218 ] } }
]
}
