{
"type": "FeatureCollection",
"name": "sitesbacs3",
"crs": { "type": "name", "properties": { "name": "urn:ogc:def:crs:OGC:1.3:CRS84" } },
"xy_coordinate_resolution": 1e-10,
"features": [
{ "type": "Feature", "properties": { "fid": 24, "today": "15/06/2026", "repere": "Auto Glass", "code_bac": "1190", "Commune": "Port-Bouet", "Nbre_bacs": 2, "Num_Circui": null, "Statut": "actif", "Capacite": "1100", "Coord_x": 403374.20803676685, "Coord_y": 578731.26178988756 }, "geometry": { "type": "Point", "coordinates": [ -3.8719314688, 5.2352102307 ] } },
{ "type": "Feature", "properties": { "fid": 204, "today": "15/06/2026", "repere": "Station Afriquia", "code_bac": "1211", "Commune": "Port-Bouet", "Nbre_bacs": 2, "Num_Circui": null, "Statut": "actif", "Capacite": "1100", "Coord_x": 403638.74658887304, "Coord_y": 578664.4887446505 }, "geometry": { "type": "Point", "coordinates": [ -3.8696656037, 5.2346427069 ] } },
{ "type": "Feature", "properties": { "fid": 205, "today": "15/06/2026", "repere": "Station total", "code_bac": null, "Commune": "Port-Bouet", "Nbre_bacs": 2, "Num_Circui": null, "Statut": "actif", "Capacite": "1100", "Coord_x": 403139.72032188537, "Coord_y": 578815.76626148808 }, "geometry": { "type": "Point", "coordinates": [ -3.8740483333, 5.2359716667 ] } },
{ "type": "Feature", "properties": { "fid": 239, "today": "15/06/2026", "repere": "Delta service auto", "code_bac": null, "Commune": "Port-Bouet", "Nbre_bacs": 2, "Num_Circui": null, "Statut": "actif", "Capacite": "1100", "Coord_x": 404315.22046287172, "Coord_y": 578480.23516029294 }, "geometry": { "type": "Point", "coordinates": [ -3.8637190647, 5.2330475733 ] } },
{ "type": "Feature", "properties": { "fid": 328, "today": "15/06/2026", "repere": "Rond point Anani", "code_bac": "1149", "Commune": "Port-Bouet", "Nbre_bacs": 3, "Num_Circui": "102", "Statut": "actif", "Capacite": "1100", "Coord_x": 403170.47943415964, "Coord_y": 578961.92193465726 }, "geometry": { "type": "Point", "coordinates": [ -3.8737726266, 5.2372941048 ] } },
{ "type": "Feature", "properties": { "fid": 356, "today": "15/06/2026", "repere": "Carrefour Abraham ", "code_bac": null, "Commune": "Port-Bouet", "Nbre_bacs": 3, "Num_Circui": null, "Statut": "actif", "Capacite": "1100", "Coord_x": 401730.21322205313, "Coord_y": 579016.1019171027 }, "geometry": { "type": "Point", "coordinates": [ -3.8863060608, 5.2380429414 ] } },
{ "type": "Feature", "properties": { "fid": 396, "today": "30/07/2025", "repere": "Au panneau ", "code_bac": null, "Commune": "Port-Bouet", "Nbre_bacs": 2, "Num_Circui": null, "Statut": "actif", "Capacite": "1100", "Coord_x": 403431.55229500541, "Coord_y": 578717.79604885762 }, "geometry": { "type": "Point", "coordinates": [ -3.8714138778, 5.2350891464 ] } },
{ "type": "Feature", "properties": { "fid": 397, "today": "30/07/2025", "repere": "Police du Distrist", "code_bac": "1695", "Commune": "Port-Bouet", "Nbre_bacs": 1, "Num_Circui": null, "Statut": "actif", "Capacite": "1100", "Coord_x": 402025.83584249922, "Coord_y": 580891.62878803897 }, "geometry": { "type": "Point", "coordinates": [ -3.8841254308, 5.254734711 ] } },
{ "type": "Feature", "properties": { "fid": 398, "today": "30/07/2025", "repere": "Commissariat du 42ieme", "code_bac": "2112", "Commune": "Port-Bouet", "Nbre_bacs": 1, "Num_Circui": null, "Statut": "actif", "Capacite": "1100", "Coord_x": 402050.11733708379, "Coord_y": 580912.33772189694 }, "geometry": { "type": "Point", "coordinates": [ -3.8839065947, 5.2549223434 ] } },
{ "type": "Feature", "properties": { "fid": 412, "today": "14/07/2026", "repere": "Ecole maternelle Avenue 8", "code_bac": "0844/21", "Commune": "Treichville", "Nbre_bacs": 1, "Num_Circui": null, "Statut": "actif", "Capacite": "1100", "Coord_x": 388629.24359519855, "Coord_y": 586971.74906663585 }, "geometry": { "type": "Point", "coordinates": [ -4.0049428575, 5.3096417362 ] } },
{ "type": "Feature", "properties": { "fid": 413, "today": "14/07/2026", "repere": "Piscine d'Etat", "code_bac": "0070/21", "Commune": "Treichville", "Nbre_bacs": 1, "Num_Circui": null, "Statut": "actif", "Capacite": "1100", "Coord_x": 389168.98257508496, "Coord_y": 586843.34169738018 }, "geometry": { "type": "Point", "coordinates": [ -4.0002215741, 5.3083937401 ] } },
{ "type": "Feature", "properties": { "fid": 414, "today": "16/06/2026", "repere": "Carrefour marché fruits", "code_bac": "0551/21", "Commune": "Marcory", "Nbre_bacs": 3, "Num_Circui": null, "Statut": "actif", "Capacite": "1100", "Coord_x": 392323.30978474102, "Coord_y": 584580.16308251454 }, "geometry": { "type": "Point", "coordinates": [ -3.9717254035, 5.2879682 ] } },
{ "type": "Feature", "properties": { "fid": 415, "today": "14/07/2026", "repere": "Police nationale BRI SUD ", "code_bac": "453", "Commune": "Treichville", "Nbre_bacs": 1, "Num_Circui": null, "Statut": "actif", "Capacite": "1100", "Coord_x": 389682.24664546293, "Coord_y": 585667.07551242807 }, "geometry": { "type": "Point", "coordinates": [ -3.9952133333, 5.297575 ] } },
{ "type": "Feature", "properties": { "fid": 416, "today": "26/07/2025", "repere": "Face camp commando", "code_bac": "84", "Commune": "Koumassi", "Nbre_bacs": 4, "Num_Circui": null, "Statut": "actif", "Capacite": "1100", "Coord_x": 393029.08634959091, "Coord_y": 584079.23581664183 }, "geometry": { "type": "Point", "coordinates": [ -3.9653497391, 5.2834471341 ] } },
{ "type": "Feature", "properties": { "fid": 417, "today": "10/06/2026", "repere": "Lycee moderne de Koumassi", "code_bac": "119", "Commune": "Koumassi", "Nbre_bacs": 3, "Num_Circui": null, "Statut": "actif", "Capacite": "1100", "Coord_x": 393562.94408429647, "Coord_y": 584588.71727873979 }, "geometry": { "type": "Point", "coordinates": [ -3.9605395464, 5.2880630018 ] } },
{ "type": "Feature", "properties": { "fid": 418, "today": "26/07/2025", "repere": "Ecole Lac", "code_bac": "1057", "Commune": "Koumassi", "Nbre_bacs": 4, "Num_Circui": null, "Statut": "actif", "Capacite": "1100", "Coord_x": 393280.68196150521, "Coord_y": 584784.67830140411 }, "geometry": { "type": "Point", "coordinates": [ -3.9630893134, 5.2898315689 ] } },
{ "type": "Feature", "properties": { "fid": 420, "today": "14/07/2026", "repere": "COMAR Assurance", "code_bac": "51", "Commune": "Treichville", "Nbre_bacs": 0, "Num_Circui": null, "Statut": "supprimé", "Capacite": "1100", "Coord_x": 388232.60182416561, "Coord_y": 585794.74023532448 }, "geometry": { "type": "Point", "coordinates": [ -4.0086558891, 5.298895269 ] } },
{ "type": "Feature", "properties": { "fid": 421, "today": "14/07/2026", "repere": "Rond point CHU", "code_bac": "50", "Commune": "Treichville", "Nbre_bacs": 2, "Num_Circui": null, "Statut": "actif", "Capacite": "1100", "Coord_x": 388824.88912033051, "Coord_y": 585366.6781293106 }, "geometry": { "type": "Point", "coordinates": [ -4.0033050452, 5.2950320736 ] } },
{ "type": "Feature", "properties": { "fid": 422, "today": "14/07/2026", "repere": "Kabalane", "code_bac": "129", "Commune": "Treichville", "Nbre_bacs": 2, "Num_Circui": null, "Statut": "actif", "Capacite": "1100", "Coord_x": 388328.09509017004, "Coord_y": 585921.99989779666 }, "geometry": { "type": "Point", "coordinates": [ -4.0077960568, 5.300047753 ] } },
{ "type": "Feature", "properties": { "fid": 423, "today": "14/07/2026", "repere": "Face à la station Shell (carrefour)", "code_bac": "1038", "Commune": "Treichville", "Nbre_bacs": 3, "Num_Circui": null, "Statut": "actif", "Capacite": "1100", "Coord_x": 388539.77833013376, "Coord_y": 586942.14932222397 }, "geometry": { "type": "Point", "coordinates": [ -4.0059008393, 5.3092782494 ] } },
{ "type": "Feature", "properties": { "fid": 424, "today": "16/06/2026", "repere": "CCDO (CRS)", "code_bac": "81", "Commune": "Marcory", "Nbre_bacs": 2, "Num_Circui": null, "Statut": "actif", "Capacite": "1100", "Coord_x": 390185.9662892067, "Coord_y": 585483.5178643954 }, "geometry": { "type": "Point", "coordinates": [ -3.9910666667, 5.296095 ] } },
{ "type": "Feature", "properties": { "fid": 425, "today": "16/06/2026", "repere": "CCDO (CRS)", "code_bac": "82", "Commune": "Marcory", "Nbre_bacs": 1, "Num_Circui": null, "Statut": "actif", "Capacite": "1100", "Coord_x": 390150.16647266824, "Coord_y": 585543.05326202791 }, "geometry": { "type": "Point", "coordinates": [ -3.9913466667, 5.2966033333 ] } },
{ "type": "Feature", "properties": { "fid": 427, "today": "19/06/2026", "repere": "Residence les Majorettes", "code_bac": "58", "Commune": "Marcory", "Nbre_bacs": 1, "Num_Circui": null, "Statut": "actif", "Capacite": "1100", "Coord_x": 392586.95825227757, "Coord_y": 583258.65154676023 }, "geometry": { "type": "Point", "coordinates": [ -3.9693277719, 5.2760185335 ] } },
{ "type": "Feature", "properties": { "fid": 428, "today": "10/06/2026", "repere": "Boutique bonnet rouge", "code_bac": "257", "Commune": "Port-Bouet", "Nbre_bacs": 2, "Num_Circui": null, "Statut": "actif", "Capacite": "1100", "Coord_x": 392687.65312207327, "Coord_y": 581298.72671989573 }, "geometry": { "type": "Point", "coordinates": [ -3.9683917163, 5.2582919449 ] } },
{ "type": "Feature", "properties": { "fid": 429, "today": "30/07/2025", "repere": "Au Phare", "code_bac": "468", "Commune": "Port-Bouet", "Nbre_bacs": 4, "Num_Circui": null, "Statut": "actif", "Capacite": "1100", "Coord_x": 393497.17405403033, "Coord_y": 580737.74594197213 }, "geometry": { "type": "Point", "coordinates": [ -3.9610794807, 5.2532290225 ] } },
{ "type": "Feature", "properties": { "fid": 430, "today": "30/07/2025", "repere": "Hollywood optical (rue des anguille)", "code_bac": "254", "Commune": "Port-Bouet", "Nbre_bacs": 3, "Num_Circui": null, "Statut": "actif", "Capacite": "1100", "Coord_x": 393797.5826407643, "Coord_y": 581121.83570466295 }, "geometry": { "type": "Point", "coordinates": [ -3.9583741661, 5.2567073888 ] } },
{ "type": "Feature", "properties": { "fid": 431, "today": "11/06/2026", "repere": "Entrée yapokro", "code_bac": "290", "Commune": "Koumassi", "Nbre_bacs": 3, "Num_Circui": null, "Statut": "actif", "Capacite": "1100", "Coord_x": 395087.06702774687, "Coord_y": 585614.73790357402 }, "geometry": { "type": "Point", "coordinates": [ -3.9468005169, 5.2973648136 ] } },
{ "type": "Feature", "properties": { "fid": 432, "today": "11/06/2026", "repere": "Cloture cité des professeurs 1", "code_bac": "242", "Commune": "Koumassi", "Nbre_bacs": 2, "Num_Circui": null, "Statut": "actif", "Capacite": "1100", "Coord_x": 392670.23177893349, "Coord_y": 584331.54450639384 }, "geometry": { "type": "Point", "coordinates": [ -3.9685914236, 5.2857242824 ] } },
{ "type": "Feature", "properties": { "fid": 433, "today": "11/06/2026", "repere": "Cloture cite des professeurs 1", "code_bac": "253", "Commune": "Koumassi", "Nbre_bacs": 2, "Num_Circui": null, "Statut": "actif", "Capacite": "1100", "Coord_x": 392725.29983640905, "Coord_y": 584081.01156142179 }, "geometry": { "type": "Point", "coordinates": [ -3.9680909946, 5.2834589265 ] } },
{ "type": "Feature", "properties": { "fid": 434, "today": "10/06/2026", "repere": "Agora", "code_bac": "252", "Commune": "Koumassi", "Nbre_bacs": 2, "Num_Circui": null, "Statut": "actif", "Capacite": "1100", "Coord_x": 393362.45523323049, "Coord_y": 584408.33190099173 }, "geometry": { "type": "Point", "coordinates": [ -3.9623461628, 5.2864285647 ] } },
{ "type": "Feature", "properties": { "fid": 436, "today": "11/06/2026", "repere": "Feu de Prodomo", "code_bac": "573", "Commune": "Koumassi", "Nbre_bacs": 2, "Num_Circui": null, "Statut": "actif", "Capacite": "1100", "Coord_x": 394301.43129301001, "Coord_y": 585798.59644636791 }, "geometry": { "type": "Point", "coordinates": [ -3.9538924779, 5.2990169818 ] } },
{ "type": "Feature", "properties": { "fid": 437, "today": "16/06/2026", "repere": "Platinum motors", "code_bac": "216", "Commune": "Marcory", "Nbre_bacs": 2, "Num_Circui": null, "Statut": "actif", "Capacite": "1100", "Coord_x": 391070.81638679595, "Coord_y": 585704.65881891234 }, "geometry": { "type": "Point", "coordinates": [ -3.983043439, 5.2981216766 ] } },
{ "type": "Feature", "properties": { "fid": 438, "today": "10/06/2026", "repere": "Deuxieme pont piéton", "code_bac": "213", "Commune": "Marcory", "Nbre_bacs": 3, "Num_Circui": null, "Statut": "actif", "Capacite": "1100", "Coord_x": 391648.54785745218, "Coord_y": 585850.14892470662 }, "geometry": { "type": "Point", "coordinates": [ -3.9778322222, 5.2994459234 ] } },
{ "type": "Feature", "properties": { "fid": 439, "today": "16/06/2026", "repere": "Maison du depute", "code_bac": "218", "Commune": "Marcory", "Nbre_bacs": 3, "Num_Circui": null, "Statut": "actif", "Capacite": "1100", "Coord_x": 390224.92827391898, "Coord_y": 586731.78212386195 }, "geometry": { "type": "Point", "coordinates": [ -3.9906912927, 5.3074000183 ] } },
{ "type": "Feature", "properties": { "fid": 440, "today": "26/07/2025", "repere": "Interieur camp commando", "code_bac": "444", "Commune": "Koumassi", "Nbre_bacs": 2, "Num_Circui": null, "Statut": "actif", "Capacite": "1100", "Coord_x": 393131.33671650174, "Coord_y": 583957.76895138866 }, "geometry": { "type": "Point", "coordinates": [ -3.9644253792, 5.2823498699 ] } },
{ "type": "Feature", "properties": { "fid": 441, "today": "26/07/2025", "repere": "Interieur camp commando", "code_bac": "434", "Commune": "Koumassi", "Nbre_bacs": 1, "Num_Circui": null, "Statut": "actif", "Capacite": "1100", "Coord_x": 392953.87423434196, "Coord_y": 583735.43942508311 }, "geometry": { "type": "Point", "coordinates": [ -3.9660236036, 5.280336354 ] } },
{ "type": "Feature", "properties": { "fid": 442, "today": "14/07/2026", "repere": "Bourse du travail", "code_bac": "364", "Commune": "Treichville", "Nbre_bacs": 3, "Num_Circui": null, "Statut": "actif", "Capacite": "1100", "Coord_x": 388180.07625040761, "Coord_y": 587338.13878876064 }, "geometry": { "type": "Point", "coordinates": [ -4.0091525474, 5.3128547282 ] } },
{ "type": "Feature", "properties": { "fid": 443, "today": "14/07/2026", "repere": "Maison de litterie", "code_bac": "917", "Commune": "Treichville", "Nbre_bacs": 3, "Num_Circui": null, "Statut": "actif", "Capacite": "1100", "Coord_x": 387908.95432023116, "Coord_y": 586120.30262717104 }, "geometry": { "type": "Point", "coordinates": [ -4.0115811621, 5.3018352528 ] } },
{ "type": "Feature", "properties": { "fid": 444, "today": "14/07/2026", "repere": "Samsung", "code_bac": "918", "Commune": "Treichville", "Nbre_bacs": 2, "Num_Circui": null, "Statut": "actif", "Capacite": "1100", "Coord_x": 388386.83589888533, "Coord_y": 585857.03306432744 }, "geometry": { "type": "Point", "coordinates": [ -4.007265047, 5.2994609826 ] } },
{ "type": "Feature", "properties": { "fid": 445, "today": "14/07/2026", "repere": "Boro et freres", "code_bac": "1052", "Commune": "Treichville", "Nbre_bacs": 2, "Num_Circui": null, "Statut": "actif", "Capacite": "1100", "Coord_x": 388349.23557329795, "Coord_y": 585720.70278839255 }, "geometry": { "type": "Point", "coordinates": [ -4.0076023415, 5.298227305 ] } },
{ "type": "Feature", "properties": { "fid": 446, "today": "14/07/2026", "repere": "Patisen /Socoprix", "code_bac": "1059", "Commune": "Treichville", "Nbre_bacs": 3, "Num_Circui": null, "Statut": "actif", "Capacite": "1100", "Coord_x": 389077.23969748197, "Coord_y": 585509.0397481455 }, "geometry": { "type": "Point", "coordinates": [ -4.0008911024, 5.2964038928 ] } },
{ "type": "Feature", "properties": { "fid": 447, "today": "14/07/2026", "repere": "Yopoiley", "code_bac": "961", "Commune": "Treichville", "Nbre_bacs": 3, "Num_Circui": null, "Statut": "actif", "Capacite": "1100", "Coord_x": 388149.31227720605, "Coord_y": 586022.9246328976 }, "geometry": { "type": "Point", "coordinates": [ -4.009410816, 5.3009580001 ] } },
{ "type": "Feature", "properties": { "fid": 448, "today": "10/06/2026", "repere": "Hôtel communal", "code_bac": "328", "Commune": "Port-Bouet", "Nbre_bacs": 1, "Num_Circui": null, "Statut": "actif", "Capacite": "1100", "Coord_x": 393060.49766092352, "Coord_y": 581478.50421144837 }, "geometry": { "type": "Point", "coordinates": [ -3.9650299776, 5.2599232941 ] } },
{ "type": "Feature", "properties": { "fid": 449, "today": "10/06/2026", "repere": "Groupe scolaire Sogefiha 1", "code_bac": "324", "Commune": "Port-Bouet", "Nbre_bacs": 2, "Num_Circui": null, "Statut": "actif", "Capacite": "1100", "Coord_x": 392807.99389351823, "Coord_y": 581356.62985476665 }, "geometry": { "type": "Point", "coordinates": [ -3.9673066688, 5.2588173787 ] } },
{ "type": "Feature", "properties": { "fid": 450, "today": "10/06/2026", "repere": "PDCI", "code_bac": "325", "Commune": "Port-Bouet", "Nbre_bacs": 3, "Num_Circui": null, "Statut": "actif", "Capacite": "1100", "Coord_x": 392535.86295868288, "Coord_y": 581221.14289073192 }, "geometry": { "type": "Point", "coordinates": [ -3.9697602594, 5.2575880517 ] } },
{ "type": "Feature", "properties": { "fid": 451, "today": "30/07/2025", "repere": "Cite 43eme Bima", "code_bac": "492", "Commune": "Port-Bouet", "Nbre_bacs": 3, "Num_Circui": null, "Statut": "actif", "Capacite": "1100", "Coord_x": 393826.7695886743, "Coord_y": 581189.67487962742 }, "geometry": { "type": "Point", "coordinates": [ -3.958111745, 5.2573214175 ] } },
{ "type": "Feature", "properties": { "fid": 452, "today": "11/06/2026", "repere": "Hopital general", "code_bac": "442", "Commune": "Koumassi", "Nbre_bacs": 2, "Num_Circui": null, "Statut": "actif", "Capacite": "1100", "Coord_x": 392640.05520352372, "Coord_y": 584463.70389628236 }, "geometry": { "type": "Point", "coordinates": [ -3.9688655822, 5.2869192707 ] } },
{ "type": "Feature", "properties": { "fid": 453, "today": "26/07/2025", "repere": "Canal aux bois", "code_bac": "271", "Commune": "Koumassi", "Nbre_bacs": 2, "Num_Circui": null, "Statut": "actif", "Capacite": "1100", "Coord_x": 394440.73376076989, "Coord_y": 584487.13992931857 }, "geometry": { "type": "Point", "coordinates": [ -3.9526172867, 5.2871564241 ] } },
{ "type": "Feature", "properties": { "fid": 454, "today": "26/07/2025", "repere": "Techno bois", "code_bac": "231", "Commune": "Koumassi", "Nbre_bacs": 1, "Num_Circui": null, "Statut": "actif", "Capacite": "1100", "Coord_x": 395197.68846836168, "Coord_y": 585159.33777292608 }, "geometry": { "type": "Point", "coordinates": [ -3.9457960303, 5.2932471091 ] } },
{ "type": "Feature", "properties": { "fid": 455, "today": "25/07/2025", "repere": "Face depot de boisson", "code_bac": "435", "Commune": "Marcory", "Nbre_bacs": 2, "Num_Circui": null, "Statut": "actif", "Capacite": "1100", "Coord_x": 391147.51853161195, "Coord_y": 586294.22145654343 }, "geometry": { "type": "Point", "coordinates": [ -3.9823597285, 5.3034554873 ] } },
{ "type": "Feature", "properties": { "fid": 456, "today": "14/07/2026", "repere": "Arras 1", "code_bac": "30", "Commune": "Treichville", "Nbre_bacs": 3, "Num_Circui": null, "Statut": "actif", "Capacite": "1100", "Coord_x": 388786.10317676945, "Coord_y": 585916.52217454929 }, "geometry": { "type": "Point", "coordinates": [ -4.0036355893, 5.3000586869 ] } },
{ "type": "Feature", "properties": { "fid": 458, "today": "14/07/2026", "repere": "Ivoire Win", "code_bac": "358", "Commune": "Treichville", "Nbre_bacs": 2, "Num_Circui": null, "Statut": "actif", "Capacite": "1100", "Coord_x": 388985.19170675217, "Coord_y": 586925.42442038667 }, "geometry": { "type": "Point", "coordinates": [ -4.0018106396, 5.309080911 ] } },
{ "type": "Feature", "properties": { "fid": 459, "today": "30/07/2025", "repere": "cloture point centre pilote", "code_bac": "425", "Commune": "Port-Bouet", "Nbre_bacs": 2, "Num_Circui": null, "Statut": "actif", "Capacite": "1100", "Coord_x": 393196.01128900639, "Coord_y": 581648.99842213257 }, "geometry": { "type": "Point", "coordinates": [ -3.9638095827, 5.2614673505 ] } },
{ "type": "Feature", "properties": { "fid": 460, "today": "15/06/2026", "repere": "Pharmacie du phare", "code_bac": "476", "Commune": "Port-Bouet", "Nbre_bacs": 3, "Num_Circui": null, "Statut": "actif", "Capacite": "1100", "Coord_x": 393709.32383565232, "Coord_y": 580631.9273304661 }, "geometry": { "type": "Point", "coordinates": [ -3.9590570072, 5.2522358545 ] } },
{ "type": "Feature", "properties": { "fid": 461, "today": "15/06/2026", "repere": "Lycée professionnel des métiers ", "code_bac": "452", "Commune": "Port-Bouet", "Nbre_bacs": 3, "Num_Circui": null, "Statut": "actif", "Capacite": "1100", "Coord_x": 393846.19747244241, "Coord_y": 580576.90404015768 }, "geometry": { "type": "Point", "coordinates": [ -3.9579279768, 5.2517790035 ] } },
{ "type": "Feature", "properties": { "fid": 465, "today": "16/06/2026", "repere": "Mamy's Secret (Pizza Doudou)", "code_bac": "416", "Commune": "Marcory", "Nbre_bacs": 2, "Num_Circui": null, "Statut": "actif", "Capacite": "1100", "Coord_x": 391703.90959641378, "Coord_y": 585083.6882564039 }, "geometry": { "type": "Point", "coordinates": [ -3.9773217617, 5.2925139111 ] } },
{ "type": "Feature", "properties": { "fid": 466, "today": "16/06/2026", "repere": "Station Shell INJS (TSF)", "code_bac": "1012222", "Commune": "Marcory", "Nbre_bacs": 3, "Num_Circui": null, "Statut": "actif", "Capacite": "1100", "Coord_x": 390916.46517489961, "Coord_y": 586870.03765271278 }, "geometry": { "type": "Point", "coordinates": [ -3.9844529619, 5.3086605399 ] } },
{ "type": "Feature", "properties": { "fid": 467, "today": "14/09/2022", "repere": "Chez chef Herminio", "code_bac": "484", "Commune": "Marcory", "Nbre_bacs": 1, "Num_Circui": null, "Statut": "actif", "Capacite": "1100", "Coord_x": 391404.81787671446, "Coord_y": 584725.25245481229 }, "geometry": { "type": "Point", "coordinates": [ -3.9800155563, 5.2892675214 ] } },
{ "type": "Feature", "properties": { "fid": 468, "today": "16/06/2026", "repere": "Lycée moderne de Marcory", "code_bac": "417", "Commune": "Marcory", "Nbre_bacs": 2, "Num_Circui": null, "Statut": "actif", "Capacite": "1100", "Coord_x": 392177.9183104324, "Coord_y": 586314.2022805945 }, "geometry": { "type": "Point", "coordinates": [ -3.9730618866, 5.3036509202 ] } },
{ "type": "Feature", "properties": { "fid": 469, "today": "14/07/2026", "repere": "Nouvelle Pharmacie (NANAN YAMOUSSO)", "code_bac": "412", "Commune": "Treichville", "Nbre_bacs": 3, "Num_Circui": null, "Statut": "actif", "Capacite": "1100", "Coord_x": 388625.02997929393, "Coord_y": 586739.92991816741 }, "geometry": { "type": "Point", "coordinates": [ -4.0051285826, 5.3074503999 ] } },
{ "type": "Feature", "properties": { "fid": 470, "today": "14/07/2026", "repere": "Gare SOTRA", "code_bac": "1258", "Commune": "Treichville", "Nbre_bacs": 3, "Num_Circui": null, "Statut": "actif", "Capacite": "1100", "Coord_x": 387545.31044681388, "Coord_y": 587009.89925666503 }, "geometry": { "type": "Point", "coordinates": [ -4.0148757187, 5.3098763754 ] } },
{ "type": "Feature", "properties": { "fid": 471, "today": "14/07/2026", "repere": "Face Ivosep", "code_bac": "470", "Commune": "Treichville", "Nbre_bacs": 1, "Num_Circui": null, "Statut": "actif", "Capacite": "1100", "Coord_x": 389014.17142876098, "Coord_y": 585768.56988248543 }, "geometry": { "type": "Point", "coordinates": [ -4.0016028879, 5.2986700087 ] } },
{ "type": "Feature", "properties": { "fid": 472, "today": "26/07/2025", "repere": "Immeuble Roche", "code_bac": "428", "Commune": "Treichville", "Nbre_bacs": 2, "Num_Circui": null, "Statut": "actif", "Capacite": "1100", "Coord_x": 388854.58407091815, "Coord_y": 585588.68981393706 }, "geometry": { "type": "Point", "coordinates": [ -4.003040327, 5.2970406354 ] } },
{ "type": "Feature", "properties": { "fid": 473, "today": "14/07/2026", "repere": "Sitarail", "code_bac": "158", "Commune": "Treichville", "Nbre_bacs": 3, "Num_Circui": null, "Statut": "actif", "Capacite": "1100", "Coord_x": 387159.49046220933, "Coord_y": 586588.74744597974 }, "geometry": { "type": "Point", "coordinates": [ -4.0183510276, 5.3060612852 ] } },
{ "type": "Feature", "properties": { "fid": 474, "today": "11/06/2026", "repere": "Interieur cité des professeurs", "code_bac": "488", "Commune": "Koumassi", "Nbre_bacs": 3, "Num_Circui": null, "Statut": "actif", "Capacite": "1100", "Coord_x": 392602.22201662522, "Coord_y": 584264.46091399144 }, "geometry": { "type": "Point", "coordinates": [ -3.9692041711, 5.2851165368 ] } },
{ "type": "Feature", "properties": { "fid": 475, "today": "14/07/2026", "repere": "Cité Chambroux", "code_bac": "209", "Commune": "Treichville", "Nbre_bacs": 1, "Num_Circui": null, "Statut": "actif", "Capacite": "1100", "Coord_x": 389410.00785430381, "Coord_y": 585193.97913403623 }, "geometry": { "type": "Point", "coordinates": [ -3.9980226522, 5.2934785147 ] } },
{ "type": "Feature", "properties": { "fid": 476, "today": "16/06/2026", "repere": "RÉSIDENCE MIAMI II", "code_bac": "0960/21", "Commune": "Marcory", "Nbre_bacs": 2, "Num_Circui": null, "Statut": "actif", "Capacite": "1100", "Coord_x": 391405.68514722463, "Coord_y": 585250.53504596988 }, "geometry": { "type": "Point", "coordinates": [ -3.9800152082, 5.2940188246 ] } },
{ "type": "Feature", "properties": { "fid": 477, "today": "16/06/2026", "repere": "OIC International (Hôtel Hibiscus)", "code_bac": "0060/21", "Commune": "Marcory", "Nbre_bacs": 2, "Num_Circui": null, "Statut": "actif", "Capacite": "1100", "Coord_x": 391320.43047143216, "Coord_y": 585925.71557862288 }, "geometry": { "type": "Point", "coordinates": [ -3.9807941467, 5.3001247535 ] } },
{ "type": "Feature", "properties": { "fid": 479, "today": "10/06/2026", "repere": "Prémier Pont piéton", "code_bac": "214", "Commune": "Marcory", "Nbre_bacs": 3, "Num_Circui": null, "Statut": "actif", "Capacite": "1100", "Coord_x": 391469.08854006714, "Coord_y": 585758.66752095171 }, "geometry": { "type": "Point", "coordinates": [ -3.9794503135, 5.298615894 ] } },
{ "type": "Feature", "properties": { "fid": 480, "today": "14/07/2026", "repere": "Coris Bank", "code_bac": "1160", "Commune": "Treichville", "Nbre_bacs": 3, "Num_Circui": null, "Statut": "actif", "Capacite": "1100", "Coord_x": 387673.92526206974, "Coord_y": 586250.64117247018 }, "geometry": { "type": "Point", "coordinates": [ -4.0137039131, 5.3030107075 ] } },
{ "type": "Feature", "properties": { "fid": 481, "today": "14/07/2026", "repere": "Aboussouan", "code_bac": "1119", "Commune": "Treichville", "Nbre_bacs": 3, "Num_Circui": null, "Statut": "actif", "Capacite": "1100", "Coord_x": 387632.31931415357, "Coord_y": 586314.1172841941 }, "geometry": { "type": "Point", "coordinates": [ -4.0140802897, 5.3035842404 ] } },
{ "type": "Feature", "properties": { "fid": 482, "today": "16/06/2026", "repere": "PMI (Hôpital Général)", "code_bac": "433", "Commune": "Marcory", "Nbre_bacs": 3, "Num_Circui": null, "Statut": "actif", "Capacite": "1100", "Coord_x": 391034.23967989924, "Coord_y": 586098.9777273587 }, "geometry": { "type": "Point", "coordinates": [ -3.9833791382, 5.3016878446 ] } },
{ "type": "Feature", "properties": { "fid": 483, "today": "11/06/2026", "repere": "Phenicia", "code_bac": "441", "Commune": "Marcory", "Nbre_bacs": 2, "Num_Circui": null, "Statut": "actif", "Capacite": "1100", "Coord_x": 391003.02167008619, "Coord_y": 585591.06449767912 }, "geometry": { "type": "Point", "coordinates": [ -3.9836535739, 5.2970932216 ] } },
{ "type": "Feature", "properties": { "fid": 484, "today": "16/06/2026", "repere": "Banque NSIA", "code_bac": "466", "Commune": "Marcory", "Nbre_bacs": 3, "Num_Circui": null, "Statut": "actif", "Capacite": "1100", "Coord_x": 390413.20828425471, "Coord_y": 586000.42160983069 }, "geometry": { "type": "Point", "coordinates": [ -3.9889433333, 5.3007666667 ] } },
{ "type": "Feature", "properties": { "fid": 485, "today": "22/09/2022", "repere": "Eglise St Pierre", "code_bac": "0871/21", "Commune": "Marcory", "Nbre_bacs": 1, "Num_Circui": null, "Statut": "actif", "Capacite": "800", "Coord_x": 392303.03615801706, "Coord_y": 587002.66976400116 }, "geometry": { "type": "Point", "coordinates": [ -3.9719425937, 5.3098800402 ] } },
{ "type": "Feature", "properties": { "fid": 486, "today": "14/07/2026", "repere": "FIF", "code_bac": "355", "Commune": "Treichville", "Nbre_bacs": 2, "Num_Circui": null, "Statut": "actif", "Capacite": "1100", "Coord_x": 387453.64185334987, "Coord_y": 587042.72874455492 }, "geometry": { "type": "Point", "coordinates": [ -4.0157034032, 5.3101719617 ] } },
{ "type": "Feature", "properties": { "fid": 487, "today": "14/07/2026", "repere": "Atelier de maintenance", "code_bac": "0917/21", "Commune": "Treichville", "Nbre_bacs": 2, "Num_Circui": null, "Statut": "actif", "Capacite": "800", "Coord_x": 387390.00003327837, "Coord_y": 587059.92916237086 }, "geometry": { "type": "Point", "coordinates": [ -4.0162779488, 5.3103265965 ] } },
{ "type": "Feature", "properties": { "fid": 488, "today": "14/07/2026", "repere": "Vidange ", "code_bac": "638", "Commune": "Treichville", "Nbre_bacs": 1, "Num_Circui": null, "Statut": "actif", "Capacite": "1100", "Coord_x": 388353.87140126538, "Coord_y": 587461.50499922642 }, "geometry": { "type": "Point", "coordinates": [ -4.0075860581, 5.3139731532 ] } },
{ "type": "Feature", "properties": { "fid": 489, "today": "14/07/2026", "repere": "Gare STL", "code_bac": "299/21", "Commune": "Treichville", "Nbre_bacs": 2, "Num_Circui": null, "Statut": "actif", "Capacite": "1100", "Coord_x": 388134.34393214027, "Coord_y": 587382.50606711337 }, "geometry": { "type": "Point", "coordinates": [ -4.0095658824, 5.3132553608 ] } },
{ "type": "Feature", "properties": { "fid": 490, "today": "26/07/2025", "repere": "SENAC", "code_bac": "0369/21", "Commune": "Treichville", "Nbre_bacs": 0, "Num_Circui": null, "Statut": "supprimé", "Capacite": "800", "Coord_x": 388069.1822835604, "Coord_y": 587281.43529274862 }, "geometry": { "type": "Point", "coordinates": [ -4.0101524028, 5.3123402015 ] } },
{ "type": "Feature", "properties": { "fid": 491, "today": "14/07/2026", "repere": "General regulation", "code_bac": "0474/21", "Commune": "Treichville", "Nbre_bacs": 1, "Num_Circui": null, "Statut": "actif", "Capacite": "1100", "Coord_x": 389354.06980906974, "Coord_y": 585863.50229825545 }, "geometry": { "type": "Point", "coordinates": [ -3.9985371352, 5.2995336433 ] } },
{ "type": "Feature", "properties": { "fid": 493, "today": "14/07/2026", "repere": "Interieur ecole regionale", "code_bac": "0512/21", "Commune": "Treichville", "Nbre_bacs": 2, "Num_Circui": null, "Statut": "actif", "Capacite": "1100", "Coord_x": 388985.2676755123, "Coord_y": 586633.56679270836 }, "geometry": { "type": "Point", "coordinates": [ -4.0018763206, 5.3064936095 ] } },
{ "type": "Feature", "properties": { "fid": 494, "today": "17/06/2026", "repere": "Interieur ecole regionale", "code_bac": "448", "Commune": "Treichville", "Nbre_bacs": 3, "Num_Circui": null, "Statut": "actif", "Capacite": "1100", "Coord_x": 389168.33501123847, "Coord_y": 586586.55425374163 }, "geometry": { "type": "Point", "coordinates": [ -4.0002236756, 5.30607105 ] } },
{ "type": "Feature", "properties": { "fid": 495, "today": "14/07/2026", "repere": "CNPS", "code_bac": "0440/21", "Commune": "Treichville", "Nbre_bacs": 2, "Num_Circui": null, "Statut": "actif", "Capacite": "1100", "Coord_x": 389284.9547119413, "Coord_y": 586789.59044111148 }, "geometry": { "type": "Point", "coordinates": [ -3.9991742804, 5.3079092453 ] } },
{ "type": "Feature", "properties": { "fid": 496, "today": "14/07/2026", "repere": "Cité douane ", "code_bac": "0317/21", "Commune": "Treichville", "Nbre_bacs": 2, "Num_Circui": null, "Statut": "actif", "Capacite": "1100", "Coord_x": 387303.9019077681, "Coord_y": 586817.51722924737 }, "geometry": { "type": "Point", "coordinates": [ -4.0170512873, 5.308132677 ] } },
{ "type": "Feature", "properties": { "fid": 497, "today": "14/07/2026", "repere": "Groupe scolaire Pont", "code_bac": "0480/21", "Commune": "Treichville", "Nbre_bacs": 1, "Num_Circui": null, "Statut": "actif", "Capacite": "1100", "Coord_x": 387295.67863283627, "Coord_y": 586738.60322988557 }, "geometry": { "type": "Point", "coordinates": [ -4.0171243227, 5.3074187697 ] } },
{ "type": "Feature", "properties": { "fid": 498, "today": "10/06/2026", "repere": "Bretelle du pont 2", "code_bac": "449", "Commune": "Marcory", "Nbre_bacs": 1, "Num_Circui": null, "Statut": "actif", "Capacite": "1100", "Coord_x": 391389.07356320054, "Coord_y": 585711.09197223268 }, "geometry": { "type": "Point", "coordinates": [ -3.9801716685, 5.2981844202 ] } },
{ "type": "Feature", "properties": { "fid": 499, "today": "19/10/2022", "repere": "Rue Pierre Marie Curie", "code_bac": "504", "Commune": "Marcory", "Nbre_bacs": 1, "Num_Circui": null, "Statut": "actif", "Capacite": "1100", "Coord_x": 391117.69168735429, "Coord_y": 584593.33656347462 }, "geometry": { "type": "Point", "coordinates": [ -3.9826045828, 5.2880702146 ] } },
{ "type": "Feature", "properties": { "fid": 501, "today": "13/10/2023", "repere": "Lycee municipal1", "code_bac": "0521/21", "Commune": "Koumassi", "Nbre_bacs": 3, "Num_Circui": null, "Statut": "actif", "Capacite": "800", "Coord_x": 395320.56740981532, "Coord_y": 587254.56357949402 }, "geometry": { "type": "Point", "coordinates": [ -3.9447160157, 5.3122007467 ] } },
{ "type": "Feature", "properties": { "fid": 502, "today": "16/06/2026", "repere": "Pâtisserie Abidjanaise (Sécurel)", "code_bac": "0318/21_", "Commune": "Marcory", "Nbre_bacs": 2, "Num_Circui": null, "Statut": "actif", "Capacite": "1100", "Coord_x": 390315.36791327852, "Coord_y": 585446.60474452539 }, "geometry": { "type": "Point", "coordinates": [ -3.9897933333, 5.2956933333 ] } },
{ "type": "Feature", "properties": { "fid": 503, "today": "26/07/2025", "repere": "Groupe scolaire prodomo", "code_bac": "676", "Commune": "Koumassi", "Nbre_bacs": 2, "Num_Circui": null, "Statut": "actif", "Capacite": "1100", "Coord_x": 395011.43559227808, "Coord_y": 586364.25079901004 }, "geometry": { "type": "Point", "coordinates": [ -3.9474933333, 5.3041433333 ] } },
{ "type": "Feature", "properties": { "fid": 505, "today": "15/06/2022", "repere": "Deriere warf cité douane", "code_bac": "440", "Commune": "Port-Bouet", "Nbre_bacs": 2, "Num_Circui": null, "Statut": "actif", "Capacite": "800", "Coord_x": 395969.57273803139, "Coord_y": 581181.8455406205 }, "geometry": { "type": "Point", "coordinates": [ -3.9387766667, 5.25728 ] } },
{ "type": "Feature", "properties": { "fid": 506, "today": "24/03/2022", "repere": "Epp Gabriel dadier2", "code_bac": "0123/21", "Commune": "Koumassi", "Nbre_bacs": 2, "Num_Circui": null, "Statut": "actif", "Capacite": "800", "Coord_x": 393100.92182673974, "Coord_y": 585754.35341273854 }, "geometry": { "type": "Point", "coordinates": [ -3.964725, 5.2986 ] } },
{ "type": "Feature", "properties": { "fid": 507, "today": "16/06/2026", "repere": "Ecole yobou clement", "code_bac": "1265", "Commune": "Marcory", "Nbre_bacs": 2, "Num_Circui": null, "Statut": "actif", "Capacite": "1100", "Coord_x": 392048.1982036737, "Coord_y": 586258.47373819526 }, "geometry": { "type": "Point", "coordinates": [ -3.9742316667, 5.303145 ] } },
{ "type": "Feature", "properties": { "fid": 508, "today": "15/01/2024", "repere": "EPP Kankankoura", "code_bac": "355", "Commune": "Koumassi", "Nbre_bacs": 4, "Num_Circui": null, "Statut": "actif", "Capacite": "1100", "Coord_x": 393830.44951607171, "Coord_y": 585258.67318460951 }, "geometry": { "type": "Point", "coordinates": [ -3.958135, 5.2941266667 ] } },
{ "type": "Feature", "properties": { "fid": 509, "today": "CDSM_117", "repere": "Cleanbor", "code_bac": "0357/21", "Commune": "Marcory", "Nbre_bacs": 2, "Num_Circui": null, "Statut": "actif", "Capacite": "1100", "Coord_x": 390013.78319166717, "Coord_y": 585465.32811972534 }, "geometry": { "type": "Point", "coordinates": [ -3.9927640188, 5.2961121101 ] } },
{ "type": "Feature", "properties": { "fid": 511, "today": "26/07/2025", "repere": "EPP bad7", "code_bac": "805", "Commune": "Koumassi", "Nbre_bacs": 1, "Num_Circui": null, "Statut": "actif", "Capacite": "1100", "Coord_x": 392938.81879221549, "Coord_y": 585319.20194925542 }, "geometry": { "type": "Point", "coordinates": [ -3.9661816667, 5.2946616667 ] } },
{ "type": "Feature", "properties": { "fid": 513, "today": "30/07/2025", "repere": "Face Hotel Ibis", "code_bac": "430", "Commune": "Marcory", "Nbre_bacs": 3, "Num_Circui": null, "Statut": "actif", "Capacite": "1100", "Coord_x": 392137.09391686117, "Coord_y": 584999.47467203171 }, "geometry": { "type": "Point", "coordinates": [ -3.9734116667, 5.2917583333 ] } },
{ "type": "Feature", "properties": { "fid": 514, "today": "24/03/2022", "repere": "Groupe scolaire mondon", "code_bac": "0276/21", "Commune": "Koumassi", "Nbre_bacs": 2, "Num_Circui": null, "Statut": "actif", "Capacite": "800", "Coord_x": 393234.17459190637, "Coord_y": 585333.85215526598 }, "geometry": { "type": "Point", "coordinates": [ -3.9635166667, 5.2947983333 ] } },
{ "type": "Feature", "properties": { "fid": 515, "today": "25/07/2025", "repere": "ANADER", "code_bac": "0213/21", "Commune": "Marcory", "Nbre_bacs": 3, "Num_Circui": null, "Statut": "actif", "Capacite": "1100", "Coord_x": 390282.72771041427, "Coord_y": 585015.67222634738 }, "geometry": { "type": "Point", "coordinates": [ -3.9901366667, 5.2918233333 ] } },
{ "type": "Feature", "properties": { "fid": 516, "today": "30/07/2025", "repere": "Cite universitaire 2", "code_bac": "0171/21", "Commune": "Port-Bouet", "Nbre_bacs": 3, "Num_Circui": null, "Statut": "actif", "Capacite": "1100", "Coord_x": 393654.08530924411, "Coord_y": 581677.51473534282 }, "geometry": { "type": "Point", "coordinates": [ -3.9604707931, 5.2618060289 ] } },
{ "type": "Feature", "properties": { "fid": 519, "today": "16/06/2026", "repere": "Maison kayzer", "code_bac": "0205/21", "Commune": "Marcory", "Nbre_bacs": 3, "Num_Circui": null, "Statut": "actif", "Capacite": "1100", "Coord_x": 392220.80305846286, "Coord_y": 584553.06778383465 }, "geometry": { "type": "Point", "coordinates": [ -3.97265, 5.2877216667 ] } },
{ "type": "Feature", "properties": { "fid": 520, "today": "10/06/2026", "repere": "Gare communale Yaya fofana", "code_bac": null, "Commune": "Koumassi", "Nbre_bacs": 2, "Num_Circui": null, "Statut": "actif", "Capacite": "1100", "Coord_x": 394200.9941256693, "Coord_y": 585524.72408125235 }, "geometry": { "type": "Point", "coordinates": [ -3.954795, 5.2965383333 ] } },
{ "type": "Feature", "properties": { "fid": 522, "today": "30/07/2025", "repere": "Cite militaire de l'air", "code_bac": "0924/21", "Commune": "Port-Bouet", "Nbre_bacs": 1, "Num_Circui": null, "Statut": "actif", "Capacite": "1100", "Coord_x": 395762.97852738341, "Coord_y": 581490.04995031725 }, "geometry": { "type": "Point", "coordinates": [ -3.940645, 5.260065 ] } },
{ "type": "Feature", "properties": { "fid": 524, "today": "26/07/2025", "repere": "Groupe scolaire collectif", "code_bac": "852", "Commune": "Koumassi", "Nbre_bacs": 1, "Num_Circui": null, "Statut": "actif", "Capacite": "1100", "Coord_x": 392885.57543729787, "Coord_y": 584218.33811869135 }, "geometry": { "type": "Point", "coordinates": [ -3.9666466667, 5.2847033333 ] } },
{ "type": "Feature", "properties": { "fid": 525, "today": "26/07/2025", "repere": "Interieur camp commando", "code_bac": "835", "Commune": "Koumassi", "Nbre_bacs": 1, "Num_Circui": null, "Statut": "actif", "Capacite": "1100", "Coord_x": 392932.1464229027, "Coord_y": 583997.33945315203 }, "geometry": { "type": "Point", "coordinates": [ -3.9662233333, 5.282705 ] } },
{ "type": "Feature", "properties": { "fid": 527, "today": "27/04/2022", "repere": "Mairie resto bat F", "code_bac": "687", "Commune": "Marcory", "Nbre_bacs": 1, "Num_Circui": null, "Statut": "actif", "Capacite": "1100", "Coord_x": 390443.70482901239, "Coord_y": 584848.10765481368 }, "geometry": { "type": "Point", "coordinates": [ -3.98869, 5.290365 ] } },
{ "type": "Feature", "properties": { "fid": 528, "today": "13/10/2023", "repere": "Lycee municipal2", "code_bac": "0643/21", "Commune": "Koumassi", "Nbre_bacs": 1, "Num_Circui": null, "Statut": "actif", "Capacite": "800", "Coord_x": 395468.03038146871, "Coord_y": 587111.08779412345 }, "geometry": { "type": "Point", "coordinates": [ -3.9433833333, 5.310905 ] } },
{ "type": "Feature", "properties": { "fid": 529, "today": "26/07/2025", "repere": "Interieur camp commando", "code_bac": "565", "Commune": "Koumassi", "Nbre_bacs": 1, "Num_Circui": null, "Statut": "actif", "Capacite": "1100", "Coord_x": 393165.64626310853, "Coord_y": 583782.31591042376 }, "geometry": { "type": "Point", "coordinates": [ -3.9641133333, 5.2807633333 ] } },
{ "type": "Feature", "properties": { "fid": 530, "today": "30/07/2025", "repere": "Lavage Auto Clean", "code_bac": "0507/21", "Commune": "Port-Bouet", "Nbre_bacs": 1, "Num_Circui": null, "Statut": "actif", "Capacite": "1100", "Coord_x": 391760.50186936115, "Coord_y": 581117.53752809134 }, "geometry": { "type": "Point", "coordinates": [ -3.976755, 5.25664 ] } },
{ "type": "Feature", "properties": { "fid": 531, "today": "15/06/2022", "repere": "Base aérienne", "code_bac": "486", "Commune": "Port-Bouet", "Nbre_bacs": 1, "Num_Circui": null, "Statut": "actif", "Capacite": "800", "Coord_x": 396864.53651750577, "Coord_y": 581837.75145838968 }, "geometry": { "type": "Point", "coordinates": [ -3.93071, 5.263225 ] } },
{ "type": "Feature", "properties": { "fid": 532, "today": "10/06/2026", "repere": "Clôture Abattoir", "code_bac": null, "Commune": "Port-Bouet", "Nbre_bacs": 1, "Num_Circui": null, "Statut": "actif", "Capacite": "1100", "Coord_x": 392995.33349784254, "Coord_y": 581633.73630331398 }, "geometry": { "type": "Point", "coordinates": [ -3.9645243429, 5.2618174848 ] } },
{ "type": "Feature", "properties": { "fid": 533, "today": "26/07/2025", "repere": "Epp Bad 8", "code_bac": "365", "Commune": "Koumassi", "Nbre_bacs": 1, "Num_Circui": null, "Statut": "actif", "Capacite": "1100", "Coord_x": 394695.02806385863, "Coord_y": 584417.49658383138 }, "geometry": { "type": "Point", "coordinates": [ -3.9503216667, 5.28653 ] } },
{ "type": "Feature", "properties": { "fid": 534, "today": "11/06/2026", "repere": "Carrefour camp commando", "code_bac": "0359/21", "Commune": "Koumassi", "Nbre_bacs": 1, "Num_Circui": null, "Statut": "actif", "Capacite": "1100", "Coord_x": 392625.45326649304, "Coord_y": 583941.24887077836 }, "geometry": { "type": "Point", "coordinates": [ -3.96899, 5.2821933333 ] } },
{ "type": "Feature", "properties": { "fid": 535, "today": "30/07/2025", "repere": "Samsung", "code_bac": "312", "Commune": "Marcory", "Nbre_bacs": 1, "Num_Circui": null, "Statut": "actif", "Capacite": "1100", "Coord_x": 391687.36585224979, "Coord_y": 585244.69320265064 }, "geometry": { "type": "Point", "coordinates": [ -3.9774733333, 5.29397 ] } },
{ "type": "Feature", "properties": { "fid": 536, "today": "10/06/2026", "repere": "Rue Pierre Marie Curie ", "code_bac": "0306/21", "Commune": "Marcory", "Nbre_bacs": 1, "Num_Circui": null, "Statut": "actif", "Capacite": "1100", "Coord_x": 391352.99196599668, "Coord_y": 585669.57039511774 }, "geometry": { "type": "Point", "coordinates": [ -3.9804966667, 5.2978083333 ] } },
{ "type": "Feature", "properties": { "fid": 537, "today": "11/06/2026", "repere": "Alikobond (ibis)", "code_bac": "0304/21", "Commune": "Marcory", "Nbre_bacs": 1, "Num_Circui": null, "Statut": "actif", "Capacite": "1100", "Coord_x": 391951.7681131665, "Coord_y": 585071.4422153628 }, "geometry": { "type": "Point", "coordinates": [ -3.975085, 5.2924066667 ] } },
{ "type": "Feature", "properties": { "fid": 539, "today": "15/06/2026", "repere": "Cité Universitaire", "code_bac": "0222/21", "Commune": "Port-Bouet", "Nbre_bacs": 2, "Num_Circui": null, "Statut": "actif", "Capacite": "1100", "Coord_x": 394010.78187620093, "Coord_y": 580486.47604485322 }, "geometry": { "type": "Point", "coordinates": [ -3.9558565529, 5.2506921788 ] } },
{ "type": "Feature", "properties": { "fid": 540, "today": "15/06/2026", "repere": "Cite halaman2", "code_bac": "0174/21", "Commune": "Koumassi", "Nbre_bacs": 1, "Num_Circui": null, "Statut": "actif", "Capacite": "1100", "Coord_x": 392651.03049751127, "Coord_y": 583760.63529844256 }, "geometry": { "type": "Point", "coordinates": [ -3.9687566667, 5.28056 ] } },
{ "type": "Feature", "properties": { "fid": 541, "today": "26/07/2025", "repere": "Interieur camp commando", "code_bac": "0127/21", "Commune": "Koumassi", "Nbre_bacs": 1, "Num_Circui": null, "Statut": "actif", "Capacite": "800", "Coord_x": 393123.99834541371, "Coord_y": 583843.55431544641 }, "geometry": { "type": "Point", "coordinates": [ -3.96449, 5.2813166667 ] } },
{ "type": "Feature", "properties": { "fid": 542, "today": "15/06/2026", "repere": "Cite halaman1", "code_bac": "0120/21", "Commune": "Koumassi", "Nbre_bacs": 1, "Num_Circui": null, "Statut": "actif", "Capacite": "1100", "Coord_x": 392684.84407180373, "Coord_y": 583650.21160065942 }, "geometry": { "type": "Point", "coordinates": [ -3.9684511192, 5.2794443916 ] } },
{ "type": "Feature", "properties": { "fid": 543, "today": "11/06/2026", "repere": "Echangeur hkb", "code_bac": "0097/21", "Commune": "Marcory", "Nbre_bacs": 1, "Num_Circui": null, "Statut": "actif", "Capacite": "1100", "Coord_x": 391288.35059306026, "Coord_y": 585437.87387216219 }, "geometry": { "type": "Point", "coordinates": [ -3.9810766667, 5.2957116667 ] } },
{ "type": "Feature", "properties": { "fid": 544, "today": "30/07/2025", "repere": "Societe engrais chimique", "code_bac": "0044/21", "Commune": "Port-Bouet", "Nbre_bacs": 1, "Num_Circui": null, "Statut": "actif", "Capacite": "1100", "Coord_x": 391311.54690674489, "Coord_y": 581284.07375833346 }, "geometry": { "type": "Point", "coordinates": [ -3.9808083333, 5.25814 ] } },
{ "type": "Feature", "properties": { "fid": 545, "today": "16/06/2026", "repere": "Siconex supermarché ( en fache)", "code_bac": "0041/21", "Commune": "Marcory", "Nbre_bacs": 2, "Num_Circui": null, "Statut": "actif", "Capacite": "1100", "Coord_x": 392046.72108220542, "Coord_y": 584257.60426348622 }, "geometry": { "type": "Point", "coordinates": [ -3.9742166667, 5.2850466667 ] } },
{ "type": "Feature", "properties": { "fid": 548, "today": "26/07/2025", "repere": "Interieur camp commando", "code_bac": "494", "Commune": "Koumassi", "Nbre_bacs": 2, "Num_Circui": null, "Statut": "actif", "Capacite": "1100", "Coord_x": 392980.1371342371, "Coord_y": 583738.74989826721 }, "geometry": { "type": "Point", "coordinates": [ -3.9657866667, 5.2803666667 ] } },
{ "type": "Feature", "properties": { "fid": 549, "today": "14/07/2026", "repere": "CNACO_Asec mimosa", "code_bac": null, "Commune": "Treichville", "Nbre_bacs": 3, "Num_Circui": null, "Statut": "actif", "Capacite": "1100", "Coord_x": 388986.99019229226, "Coord_y": 585881.73797978938 }, "geometry": { "type": "Point", "coordinates": [ -4.0018498117, 5.2996932337 ] } },
{ "type": "Feature", "properties": { "fid": 550, "today": "16/06/2026", "repere": "Resto petit cafe", "code_bac": "1015", "Commune": "Marcory", "Nbre_bacs": 2, "Num_Circui": null, "Statut": "actif", "Capacite": "1100", "Coord_x": 392144.32780782809, "Coord_y": 584442.78462329856 }, "geometry": { "type": "Point", "coordinates": [ -3.9733385232, 5.2867230476 ] } },
{ "type": "Feature", "properties": { "fid": 551, "today": "14/07/2026", "repere": "Douane ", "code_bac": "0800/21", "Commune": "Treichville", "Nbre_bacs": 1, "Num_Circui": null, "Statut": "actif", "Capacite": "1100", "Coord_x": 388608.25531806244, "Coord_y": 585785.68864799885 }, "geometry": { "type": "Point", "coordinates": [ -4.0052659886, 5.2988189116 ] } },
{ "type": "Feature", "properties": { "fid": 552, "today": "14/07/2026", "repere": "FDFP/ face college moderne", "code_bac": null, "Commune": "Treichville", "Nbre_bacs": 1, "Num_Circui": null, "Statut": "actif", "Capacite": "1100", "Coord_x": 389402.59179543616, "Coord_y": 585902.69476603717 }, "geometry": { "type": "Point", "coordinates": [ -3.9980998569, 5.2998888517 ] } },
{ "type": "Feature", "properties": { "fid": 553, "today": "16/06/2026", "repere": "Station Shell", "code_bac": null, "Commune": "Marcory", "Nbre_bacs": 2, "Num_Circui": null, "Statut": "actif", "Capacite": "1100", "Coord_x": 391472.56070723332, "Coord_y": 585503.92490987224 }, "geometry": { "type": "Point", "coordinates": [ -3.9794153533, 5.2963117434 ] } },
{ "type": "Feature", "properties": { "fid": 554, "today": "16/06/2026", "repere": "Niche CIE", "code_bac": null, "Commune": "Marcory", "Nbre_bacs": 2, "Num_Circui": null, "Statut": "actif", "Capacite": "1100", "Coord_x": 391544.2562167513, "Coord_y": 585462.3377508081 }, "geometry": { "type": "Point", "coordinates": [ -3.978767803, 5.2959366018 ] } },
{ "type": "Feature", "properties": { "fid": 556, "today": "16/06/2026", "repere": "Mosquée cap sud", "code_bac": "2", "Commune": "Marcory", "Nbre_bacs": 3, "Num_Circui": null, "Statut": "actif", "Capacite": "1100", "Coord_x": 390529.918011687, "Coord_y": 585730.06019601459 }, "geometry": { "type": "Point", "coordinates": [ -3.9879247112, 5.2983436656 ] } },
{ "type": "Feature", "properties": { "fid": 557, "today": "15/06/2026", "repere": "Marche de nuit 2", "code_bac": "477", "Commune": "Port-Bouet", "Nbre_bacs": 2, "Num_Circui": null, "Statut": "actif", "Capacite": "1100", "Coord_x": 393279.09587114345, "Coord_y": 580838.4793970905 }, "geometry": { "type": "Point", "coordinates": [ -3.9630486252, 5.2541371505 ] } },
{ "type": "Feature", "properties": { "fid": 558, "today": "30/07/2025", "repere": "Feu Vridi cité", "code_bac": "2", "Commune": "Port-Bouet", "Nbre_bacs": 3, "Num_Circui": null, "Statut": "actif", "Capacite": "1100", "Coord_x": 391222.09445916157, "Coord_y": 581290.19970064831 }, "geometry": { "type": "Point", "coordinates": [ -3.981615562, 5.2581941405 ] } },
{ "type": "Feature", "properties": { "fid": 559, "today": "16/06/2026", "repere": "Groupe scolaire Assamoi Alphonse", "code_bac": null, "Commune": "Marcory", "Nbre_bacs": 1, "Num_Circui": null, "Statut": "actif", "Capacite": "1100", "Coord_x": 391449.34987885028, "Coord_y": 585836.55824622896 }, "geometry": { "type": "Point", "coordinates": [ -3.9796295397, 5.2993201499 ] } },
{ "type": "Feature", "properties": { "fid": 560, "today": "16/06/2026", "repere": "26e arrondissement", "code_bac": "1408", "Commune": "Marcory", "Nbre_bacs": 2, "Num_Circui": null, "Statut": "actif", "Capacite": "1100", "Coord_x": 393206.36488269194, "Coord_y": 586628.98001923517 }, "geometry": { "type": "Point", "coordinates": [ -3.9637857765, 5.3065126983 ] } },
{ "type": "Feature", "properties": { "fid": 561, "today": "14/07/2026", "repere": "Intérieur collège moderne Autoroute", "code_bac": "892", "Commune": "Treichville", "Nbre_bacs": 2, "Num_Circui": null, "Statut": "actif", "Capacite": "1100", "Coord_x": 389511.93994098058, "Coord_y": 585971.92261914082 }, "geometry": { "type": "Point", "coordinates": [ -3.9971141367, 5.3005166195 ] } },
{ "type": "Feature", "properties": { "fid": 562, "today": "15/06/2026", "repere": "Swann oil", "code_bac": "727", "Commune": "Koumassi", "Nbre_bacs": 3, "Num_Circui": null, "Statut": "actif", "Capacite": "1100", "Coord_x": 392902.35460115504, "Coord_y": 583324.12200417859 }, "geometry": { "type": "Point", "coordinates": [ -3.9664827308, 5.2766151621 ] } },
{ "type": "Feature", "properties": { "fid": 565, "today": "29/02/2024", "repere": "Intérieur centre des metiers", "code_bac": "0578/21", "Commune": "Koumassi", "Nbre_bacs": 2, "Num_Circui": null, "Statut": "actif", "Capacite": "800", "Coord_x": 392487.98487794003, "Coord_y": 584951.67572187271 }, "geometry": { "type": "Point", "coordinates": [ -3.970244676, 5.2913309461 ] } },
{ "type": "Feature", "properties": { "fid": 566, "today": "03/01/2023", "repere": "O'Delices", "code_bac": "844", "Commune": "Marcory", "Nbre_bacs": 1, "Num_Circui": null, "Statut": "actif", "Capacite": "1100", "Coord_x": 391181.66183217271, "Coord_y": 585111.19418511284 }, "geometry": { "type": "Point", "coordinates": [ -3.9820347295, 5.2927552567 ] } },
{ "type": "Feature", "properties": { "fid": 567, "today": "14/07/2026", "repere": "Interieur palais des sports", "code_bac": null, "Commune": "Treichville", "Nbre_bacs": 2, "Num_Circui": null, "Statut": "actif", "Capacite": "1100", "Coord_x": 388565.61570234492, "Coord_y": 585602.78305495449 }, "geometry": { "type": "Point", "coordinates": [ -4.0056480788, 5.2971638804 ] } },
{ "type": "Feature", "properties": { "fid": 568, "today": "14/07/2026", "repere": "SIPPI", "code_bac": "0140/21", "Commune": "Treichville", "Nbre_bacs": 1, "Num_Circui": null, "Statut": "actif", "Capacite": "800", "Coord_x": 389481.21768095845, "Coord_y": 585904.3947851836 }, "geometry": { "type": "Point", "coordinates": [ -3.9973903854, 5.2999053727 ] } },
{ "type": "Feature", "properties": { "fid": 569, "today": "14/07/2026", "repere": "Cité Nanan Yamousso", "code_bac": null, "Commune": "Treichville", "Nbre_bacs": 2, "Num_Circui": null, "Statut": "actif", "Capacite": "1100", "Coord_x": 388624.11313798506, "Coord_y": 586924.64446447534 }, "geometry": { "type": "Point", "coordinates": [ -4.0053423083, 5.3090468137 ] } },
{ "type": "Feature", "properties": { "fid": 570, "today": "26/07/2025", "repere": "Intérieur camp commando", "code_bac": "695", "Commune": "Koumassi", "Nbre_bacs": 1, "Num_Circui": null, "Statut": "actif", "Capacite": "1100", "Coord_x": 393138.87214949308, "Coord_y": 583915.88382227521 }, "geometry": { "type": "Point", "coordinates": [ -3.9643567973, 5.2819711139 ] } },
{ "type": "Feature", "properties": { "fid": 571, "today": "11/06/2026", "repere": "147 SODECI", "code_bac": "602", "Commune": "Koumassi", "Nbre_bacs": 3, "Num_Circui": null, "Statut": "actif", "Capacite": "1100", "Coord_x": 395178.24909197434, "Coord_y": 586635.68193022592 }, "geometry": { "type": "Point", "coordinates": [ -3.9459917654, 5.3066008132 ] } },
{ "type": "Feature", "properties": { "fid": 572, "today": "26/07/2025", "repere": "Interieur école Lagune", "code_bac": null, "Commune": "Koumassi", "Nbre_bacs": 5, "Num_Circui": null, "Statut": "actif", "Capacite": "800", "Coord_x": 394588.24835094344, "Coord_y": 585822.20496715175 }, "geometry": { "type": "Point", "coordinates": [ -3.9513046231, 5.2992345114 ] } },
{ "type": "Feature", "properties": { "fid": 573, "today": "16/06/2026", "repere": "Marché de fruits", "code_bac": null, "Commune": "Marcory", "Nbre_bacs": 2, "Num_Circui": null, "Statut": "actif", "Capacite": "1100", "Coord_x": 392303.81794176885, "Coord_y": 584649.9584172063 }, "geometry": { "type": "Point", "coordinates": [ -3.9719022747, 5.2885992393 ] } },
{ "type": "Feature", "properties": { "fid": 577, "today": "16/06/2026", "repere": "Eglise le Jourdain", "code_bac": "655", "Commune": "Marcory", "Nbre_bacs": 1, "Num_Circui": null, "Statut": "actif", "Capacite": "1100", "Coord_x": 392102.80861181789, "Coord_y": 586309.95368532802 }, "geometry": { "type": "Point", "coordinates": [ -3.9737396026, 5.3036114237 ] } },
{ "type": "Feature", "properties": { "fid": 580, "today": "26/04/2023", "repere": "EPP Pangolin", "code_bac": "966", "Commune": "Koumassi", "Nbre_bacs": 4, "Num_Circui": null, "Statut": "actif", "Capacite": "1100", "Coord_x": 394848.21254490712, "Coord_y": 587320.11707066605 }, "geometry": { "type": "Point", "coordinates": [ -3.9489794592, 5.3127871592 ] } },
{ "type": "Feature", "properties": { "fid": 581, "today": "14/07/2026", "repere": "Face maison de la literie", "code_bac": "1232", "Commune": "Treichville", "Nbre_bacs": 3, "Num_Circui": null, "Statut": "actif", "Capacite": "1100", "Coord_x": 387940.91158216761, "Coord_y": 586136.21342957125 }, "geometry": { "type": "Point", "coordinates": [ -4.011293024, 5.3019796395 ] } },
{ "type": "Feature", "properties": { "fid": 582, "today": "19/06/2026", "repere": "Yoyo superette", "code_bac": null, "Commune": "Marcory", "Nbre_bacs": 1, "Num_Circui": null, "Statut": "actif", "Capacite": "1100", "Coord_x": 391830.02482241107, "Coord_y": 583713.5898260586 }, "geometry": { "type": "Point", "coordinates": [ -3.9761643339, 5.2801228621 ] } },
{ "type": "Feature", "properties": { "fid": 583, "today": "30/07/2025", "repere": "Interieur centre pilote", "code_bac": "1010", "Commune": "Port-Bouet", "Nbre_bacs": 1, "Num_Circui": null, "Statut": "actif", "Capacite": "1100", "Coord_x": 393107.85732981982, "Coord_y": 581619.11316909536 }, "geometry": { "type": "Point", "coordinates": [ -3.9646046, 5.2611958 ] } },
{ "type": "Feature", "properties": { "fid": 584, "today": "30/07/2025", "repere": "Interieur centre pilote", "code_bac": "456", "Commune": "Port-Bouet", "Nbre_bacs": 1, "Num_Circui": null, "Statut": "actif", "Capacite": "1100", "Coord_x": 393115.64666900947, "Coord_y": 581517.52307532646 }, "geometry": { "type": "Point", "coordinates": [ -3.9645329, 5.260277 ] } },
{ "type": "Feature", "properties": { "fid": 585, "today": "14/07/2026", "repere": "Garde republicaine", "code_bac": "1229", "Commune": "Treichville", "Nbre_bacs": 2, "Num_Circui": null, "Statut": "actif", "Capacite": "1100", "Coord_x": 387680.69141924463, "Coord_y": 587106.84297122795 }, "geometry": { "type": "Point", "coordinates": [ -4.013655501, 5.3107552483 ] } },
{ "type": "Feature", "properties": { "fid": 586, "today": "14/07/2026", "repere": "Ecole CHICAGO", "code_bac": "1234", "Commune": "Treichville", "Nbre_bacs": 1, "Num_Circui": null, "Statut": "actif", "Capacite": "1100", "Coord_x": 388199.77975862921, "Coord_y": 587049.80136806134 }, "geometry": { "type": "Point", "coordinates": [ -4.0089705038, 5.3102469714 ] } },
{ "type": "Feature", "properties": { "fid": 587, "today": "14/07/2026", "repere": "Contre allée du pont FHB", "code_bac": "259/21", "Commune": "Treichville", "Nbre_bacs": 2, "Num_Circui": null, "Statut": "actif", "Capacite": "1100", "Coord_x": 387174.5146132753, "Coord_y": 586713.01289195009 }, "geometry": { "type": "Point", "coordinates": [ -4.018217297, 5.3071855018 ] } },
{ "type": "Feature", "properties": { "fid": 589, "today": "25/07/2025", "repere": "Mairie Technique", "code_bac": "674/21", "Commune": "Marcory", "Nbre_bacs": 1, "Num_Circui": null, "Statut": "actif", "Capacite": "1100", "Coord_x": 390403.18324070354, "Coord_y": 584955.91903826897 }, "geometry": { "type": "Point", "coordinates": [ -3.98888, 5.2912983333 ] } },
{ "type": "Feature", "properties": { "fid": 590, "today": "17/06/2026", "repere": "Interieur ecole regionale", "code_bac": "1299", "Commune": "Treichville", "Nbre_bacs": 2, "Num_Circui": null, "Statut": "actif", "Capacite": "1100", "Coord_x": 389035.25410822179, "Coord_y": 586754.91432362818 }, "geometry": { "type": "Point", "coordinates": [ -4.0014270243, 5.3075919467 ] } },
{ "type": "Feature", "properties": { "fid": 591, "today": "14/07/2026", "repere": "SOPIM", "code_bac": null, "Commune": "Treichville", "Nbre_bacs": 2, "Num_Circui": null, "Statut": "actif", "Capacite": "1100", "Coord_x": 388091.75715810381, "Coord_y": 587260.50553212722 }, "geometry": { "type": "Point", "coordinates": [ -4.0099483824, 5.3121512226 ] } },
{ "type": "Feature", "properties": { "fid": 592, "today": "26/02/2024", "repere": "Groupe scolaire mondon", "code_bac": null, "Commune": "Koumassi", "Nbre_bacs": 1, "Num_Circui": null, "Statut": "actif", "Capacite": "1100", "Coord_x": 393236.65390779503, "Coord_y": 585324.61934250337 }, "geometry": { "type": "Point", "coordinates": [ -3.9634941647, 5.294714855 ] } },
{ "type": "Feature", "properties": { "fid": 593, "today": "30/07/2025", "repere": "Groupe scolaire Port-Bouet 4", "code_bac": "1537", "Commune": "Port-Bouet", "Nbre_bacs": 1, "Num_Circui": null, "Statut": "actif", "Capacite": "1100", "Coord_x": 393582.34299102868, "Coord_y": 581244.26578948926 }, "geometry": { "type": "Point", "coordinates": [ -3.9603180082, 5.2578118153 ] } },
{ "type": "Feature", "properties": { "fid": 595, "today": "11/06/2026", "repere": "Oasis missionnaire de la charité", "code_bac": null, "Commune": "Koumassi", "Nbre_bacs": 1, "Num_Circui": null, "Statut": "actif", "Capacite": "1100", "Coord_x": 395248.51413612254, "Coord_y": 586332.21365298366 }, "geometry": { "type": "Point", "coordinates": [ -3.9453535201, 5.3038568226 ] } },
{ "type": "Feature", "properties": { "fid": 596, "today": "14/07/2026", "repere": "EPP Kouassi Lenoir", "code_bac": "1667", "Commune": "Treichville", "Nbre_bacs": 2, "Num_Circui": null, "Statut": "actif", "Capacite": "1100", "Coord_x": 388669.59186475602, "Coord_y": 587005.47133794834 }, "geometry": { "type": "Point", "coordinates": [ -4.0047303537, 5.3098529121 ] } },
{ "type": "Feature", "properties": { "fid": 599, "today": "04/07/2024", "repere": "Lycée municipal2", "code_bac": null, "Commune": "Koumassi", "Nbre_bacs": 4, "Num_Circui": null, "Statut": "actif", "Capacite": "1100", "Coord_x": 395469.81702856516, "Coord_y": 587109.24396392424 }, "geometry": { "type": "Point", "coordinates": [ -3.9433671853, 5.3108883466 ] } },
{ "type": "Feature", "properties": { "fid": 600, "today": "26/07/2025", "repere": "Lavage", "code_bac": null, "Commune": "Koumassi", "Nbre_bacs": 1, "Num_Circui": null, "Statut": "actif", "Capacite": "800", "Coord_x": 394349.5768767253, "Coord_y": 586164.21656343015 }, "geometry": { "type": "Point", "coordinates": [ -3.9534630942, 5.3023247867 ] } },
{ "type": "Feature", "properties": { "fid": 601, "today": "25/07/2025", "repere": "Epp Aliodan Bad", "code_bac": null, "Commune": "Marcory", "Nbre_bacs": 2, "Num_Circui": null, "Statut": "actif", "Capacite": "1100", "Coord_x": 392807.47220555833, "Coord_y": 587087.08163027535 }, "geometry": { "type": "Point", "coordinates": [ -3.9673917944, 5.3106507123 ] } },
{ "type": "Feature", "properties": { "fid": 602, "today": "16/06/2026", "repere": "Foyer des jeunes d'Aliodan", "code_bac": "2106", "Commune": "Marcory", "Nbre_bacs": 2, "Num_Circui": null, "Statut": "actif", "Capacite": "1100", "Coord_x": 393206.81950011884, "Coord_y": 586713.37051829067 }, "geometry": { "type": "Point", "coordinates": [ -3.9637828589, 5.3072760377 ] } },
{ "type": "Feature", "properties": { "fid": 603, "today": "25/07/2025", "repere": "Le Fleuriste", "code_bac": "1475", "Commune": "Marcory", "Nbre_bacs": 1, "Num_Circui": null, "Statut": "actif", "Capacite": "1100", "Coord_x": 392458.98738846829, "Coord_y": 583956.60233029444 }, "geometry": { "type": "Point", "coordinates": [ -3.9704923237, 5.2823298626 ] } },
{ "type": "Feature", "properties": { "fid": 604, "today": "19/06/2026", "repere": "Grand moulin", "code_bac": null, "Commune": "Marcory", "Nbre_bacs": 3, "Num_Circui": null, "Statut": "actif", "Capacite": "1100", "Coord_x": 391816.26977736288, "Coord_y": 583284.66633855074 }, "geometry": { "type": "Point", "coordinates": [ -3.9762823848, 5.2762429584 ] } },
{ "type": "Feature", "properties": { "fid": 605, "today": "25/07/2025", "repere": "Rue des alizés", "code_bac": null, "Commune": "Marcory", "Nbre_bacs": 1, "Num_Circui": null, "Statut": "actif", "Capacite": "1100", "Coord_x": 392235.27421987266, "Coord_y": 583280.7299835952 }, "geometry": { "type": "Point", "coordinates": [ -3.9725014771, 5.2762132808 ] } },
{ "type": "Feature", "properties": { "fid": 606, "today": "14/07/2026", "repere": "Base maritime", "code_bac": null, "Commune": "Treichville", "Nbre_bacs": 2, "Num_Circui": null, "Statut": "actif", "Capacite": "1100", "Coord_x": 387229.78519542736, "Coord_y": 586934.49403487903 }, "geometry": { "type": "Point", "coordinates": [ -4.0177218338, 5.3091896425 ] } },
{ "type": "Feature", "properties": { "fid": 607, "today": "14/07/2026", "repere": "Atelier de maintenance", "code_bac": "0917/21", "Commune": "Treichville", "Nbre_bacs": 1, "Num_Circui": null, "Statut": "actif", "Capacite": "1100", "Coord_x": 387390.00003327837, "Coord_y": 587059.92916237086 }, "geometry": { "type": "Point", "coordinates": [ -4.0162779488, 5.3103265965 ] } },
{ "type": "Feature", "properties": { "fid": 608, "today": "14/07/2026", "repere": "Sous le pont de Gaulle ", "code_bac": "3298", "Commune": "Treichville", "Nbre_bacs": 1, "Num_Circui": null, "Statut": "actif", "Capacite": "1100", "Coord_x": 388264.54397835716, "Coord_y": 587447.05395848223 }, "geometry": { "type": "Point", "coordinates": [ -4.0083919249, 5.3138411251 ] } },
{ "type": "Feature", "properties": { "fid": 609, "today": "14/07/2026", "repere": "Complexe sportif", "code_bac": "2196", "Commune": "Treichville", "Nbre_bacs": 1, "Num_Circui": null, "Statut": "actif", "Capacite": "1100", "Coord_x": 388556.25934527529, "Coord_y": 587208.51366809872 }, "geometry": { "type": "Point", "coordinates": [ -4.0057560232, 5.3116877924 ] } },
{ "type": "Feature", "properties": { "fid": 610, "today": "14/07/2026", "repere": "Intérieure école régionale", "code_bac": "2580/2581", "Commune": "Treichville", "Nbre_bacs": 2, "Num_Circui": null, "Statut": "actif", "Capacite": "1100", "Coord_x": 389212.50188967795, "Coord_y": 586684.71248901286 }, "geometry": { "type": "Point", "coordinates": [ -3.999826553, 5.3069595509 ] } },
{ "type": "Feature", "properties": { "fid": 611, "today": "14/07/2026", "repere": "Interieur ecole regionale", "code_bac": "0512/21", "Commune": "Treichville", "Nbre_bacs": 1, "Num_Circui": null, "Statut": "actif", "Capacite": "800", "Coord_x": 388985.2676755123, "Coord_y": 586633.56679270836 }, "geometry": { "type": "Point", "coordinates": [ -4.001869487, 5.3064866475 ] } },
{ "type": "Feature", "properties": { "fid": 612, "today": "14/07/2026", "repere": "Mosqué aboubakar", "code_bac": "2567/2235/", "Commune": "Treichville", "Nbre_bacs": 3, "Num_Circui": null, "Statut": "actif", "Capacite": "1100", "Coord_x": 388071.14123004029, "Coord_y": 585883.72713462252 }, "geometry": { "type": "Point", "coordinates": [ -4.0101141606, 5.2996977902 ] } },
{ "type": "Feature", "properties": { "fid": 614, "today": "26/07/2025", "repere": "Intérieure camp commando 1", "code_bac": null, "Commune": "Koumassi", "Nbre_bacs": 2, "Num_Circui": null, "Statut": "actif", "Capacite": "1100", "Coord_x": 393028.41909728956, "Coord_y": 583992.52558487584 }, "geometry": { "type": "Point", "coordinates": [ -3.9653545461, 5.2826628089 ] } },
{ "type": "Feature", "properties": { "fid": 615, "today": "26/07/2025", "repere": "Intérieure camp commando 2", "code_bac": null, "Commune": "Koumassi", "Nbre_bacs": 2, "Num_Circui": null, "Statut": "actif", "Capacite": "1100", "Coord_x": 393096.28151724086, "Coord_y": 584014.65602472541 }, "geometry": { "type": "Point", "coordinates": [ -3.9647424968, 5.2828639364 ] } },
{ "type": "Feature", "properties": { "fid": 616, "today": "26/07/2025", "repere": "Intérieure camp commando", "code_bac": null, "Commune": "Koumassi", "Nbre_bacs": 1, "Num_Circui": null, "Statut": "actif", "Capacite": "1100", "Coord_x": 393134.88920367404, "Coord_y": 583774.6155044951 }, "geometry": { "type": "Point", "coordinates": [ -3.9643907623, 5.2806932502 ] } },
{ "type": "Feature", "properties": { "fid": 617, "today": "26/07/2025", "repere": "Intérieure camp commando", "code_bac": null, "Commune": "Koumassi", "Nbre_bacs": 1, "Num_Circui": null, "Statut": "actif", "Capacite": "1100", "Coord_x": 393020.18043574772, "Coord_y": 583743.05660201656 }, "geometry": { "type": "Point", "coordinates": [ -3.9654253962, 5.2804061837 ] } },
{ "type": "Feature", "properties": { "fid": 618, "today": "26/07/2025", "repere": "Groupe scolaire collectif", "code_bac": "852", "Commune": "Koumassi", "Nbre_bacs": 1, "Num_Circui": null, "Statut": "actif", "Capacite": "800", "Coord_x": 392885.57543729787, "Coord_y": 584218.33811869135 }, "geometry": { "type": "Point", "coordinates": [ -3.9666466667, 5.2847033333 ] } },
{ "type": "Feature", "properties": { "fid": 619, "today": "26/07/2025", "repere": "Groupe scolaire nord", "code_bac": "2", "Commune": "Koumassi", "Nbre_bacs": 2, "Num_Circui": null, "Statut": "actif", "Capacite": "1100", "Coord_x": 393532.67839047575, "Coord_y": 585847.74337942724 }, "geometry": { "type": "Point", "coordinates": [ -3.9608302321, 5.2994507971 ] } },
{ "type": "Feature", "properties": { "fid": 620, "today": "26/07/2025", "repere": "Lonaci", "code_bac": "2513/2207", "Commune": "Koumassi", "Nbre_bacs": 2, "Num_Circui": null, "Statut": "actif", "Capacite": "1100", "Coord_x": 396349.57930863381, "Coord_y": 586971.06214140437 }, "geometry": { "type": "Point", "coordinates": [ -3.9354263147, 5.3096505251 ] } },
{ "type": "Feature", "properties": { "fid": 621, "today": "26/07/2025", "repere": "EPP bad7", "code_bac": "805", "Commune": "Koumassi", "Nbre_bacs": 1, "Num_Circui": null, "Statut": "actif", "Capacite": "800", "Coord_x": 392938.81879221549, "Coord_y": 585319.20194925542 }, "geometry": { "type": "Point", "coordinates": [ -3.9661816667, 5.2946616667 ] } },
{ "type": "Feature", "properties": { "fid": 622, "today": "11/06/2026", "repere": "36 ème arrondissements", "code_bac": null, "Commune": "Koumassi", "Nbre_bacs": 2, "Num_Circui": null, "Statut": "actif", "Capacite": "1100", "Coord_x": 394081.52163573226, "Coord_y": 585527.44696633297 }, "geometry": { "type": "Point", "coordinates": [ -3.9558731292, 5.2965612991 ] } },
{ "type": "Feature", "properties": { "fid": 623, "today": "26/07/2025", "repere": "Commissariat 20ème", "code_bac": null, "Commune": "Koumassi", "Nbre_bacs": 1, "Num_Circui": null, "Statut": "actif", "Capacite": "1100", "Coord_x": 395476.10895920818, "Coord_y": 586502.31964457093 }, "geometry": { "type": "Point", "coordinates": [ -3.9433020643, 5.3053986196 ] } },
{ "type": "Feature", "properties": { "fid": 624, "today": "26/07/2025", "repere": "Commissariat 20ème", "code_bac": null, "Commune": "Koumassi", "Nbre_bacs": 1, "Num_Circui": null, "Statut": "actif", "Capacite": "800", "Coord_x": 395476.10895920818, "Coord_y": 586502.31964457093 }, "geometry": { "type": "Point", "coordinates": [ -3.9433020643, 5.3053986196 ] } },
{ "type": "Feature", "properties": { "fid": 625, "today": "11/06/2026", "repere": "Abelle béton", "code_bac": null, "Commune": "Marcory", "Nbre_bacs": 1, "Num_Circui": null, "Statut": "actif", "Capacite": "1100", "Coord_x": 392500.21462890354, "Coord_y": 584294.3624579868 }, "geometry": { "type": "Point", "coordinates": [ -3.9701250617, 5.2853855648 ] } },
{ "type": "Feature", "properties": { "fid": 626, "today": "30/07/2025", "repere": "Commissariat du 25ème", "code_bac": null, "Commune": "Port-Bouet", "Nbre_bacs": 1, "Num_Circui": null, "Statut": "actif", "Capacite": "1100", "Coord_x": 391116.36978536233, "Coord_y": 581307.64454349433 }, "geometry": { "type": "Point", "coordinates": [ -3.9825697776, 5.2583504304 ] } },
{ "type": "Feature", "properties": { "fid": 627, "today": "30/07/2025", "repere": "IFEF", "code_bac": null, "Commune": "Port-Bouet", "Nbre_bacs": 1, "Num_Circui": null, "Statut": "actif", "Capacite": "1100", "Coord_x": 393249.24091650214, "Coord_y": 581516.65361810103 }, "geometry": { "type": "Point", "coordinates": [ -3.9633274382, 5.2602709995 ] } },
{ "type": "Feature", "properties": { "fid": 628, "today": "30/07/2025", "repere": "Centre Islamique", "code_bac": null, "Commune": "Port-Bouet", "Nbre_bacs": 1, "Num_Circui": null, "Statut": "actif", "Capacite": "1100", "Coord_x": 393434.6443441516, "Coord_y": 581494.2086332544 }, "geometry": { "type": "Point", "coordinates": [ -3.9616541907, 5.2600705617 ] } },
{ "type": "Feature", "properties": { "fid": 629, "today": "30/07/2025", "repere": "GS Sogefiha 2", "code_bac": "2894 1280", "Commune": "Port-Bouet", "Nbre_bacs": 2, "Num_Circui": null, "Statut": "actif", "Capacite": "800", "Coord_x": 393601.5584461235, "Coord_y": 581484.04349365074 }, "geometry": { "type": "Point", "coordinates": [ -3.9601515785, 5.2599809662 ] } },
{ "type": "Feature", "properties": { "fid": 630, "today": "30/07/2025", "repere": "Hôpital Général", "code_bac": "2250 2267 3153 3160", "Commune": "Port-Bouet", "Nbre_bacs": 4, "Num_Circui": null, "Statut": "actif", "Capacite": "1100", "Coord_x": 393389.67862775392, "Coord_y": 581705.12662486359 }, "geometry": { "type": "Point", "coordinates": [ -3.9620628566, 5.261977745 ] } },
{ "type": "Feature", "properties": { "fid": 631, "today": "30/07/2025", "repere": "Lycée moderne", "code_bac": "962 138 4421", "Commune": "Port-Bouet", "Nbre_bacs": 3, "Num_Circui": null, "Statut": "actif", "Capacite": "800", "Coord_x": 393752.9652241412, "Coord_y": 580963.00733245735 }, "geometry": { "type": "Point", "coordinates": [ -3.95877456, 5.2552701236 ] } },
{ "type": "Feature", "properties": { "fid": 632, "today": "30/07/2025", "repere": "Intérieure Lycée  CFP", "code_bac": "6441", "Commune": "Port-Bouet", "Nbre_bacs": 1, "Num_Circui": null, "Statut": "actif", "Capacite": "800", "Coord_x": 393871.64556502679, "Coord_y": 580612.60804954788 }, "geometry": { "type": "Point", "coordinates": [ -3.9576988489, 5.2521023086 ] } },
{ "type": "Feature", "properties": { "fid": 633, "today": "30/07/2025", "repere": "Intérieure Lycée  CFP", "code_bac": "2085", "Commune": "Port-Bouet", "Nbre_bacs": 1, "Num_Circui": null, "Statut": "actif", "Capacite": "1100", "Coord_x": 393871.64556502679, "Coord_y": 580612.60804954788 }, "geometry": { "type": "Point", "coordinates": [ -3.9578594917, 5.2521569606 ] } },
{ "type": "Feature", "properties": { "fid": 634, "today": "30/07/2025", "repere": "Intérieure Lycée  CFP", "code_bac": "774", "Commune": "Port-Bouet", "Nbre_bacs": 1, "Num_Circui": null, "Statut": "actif", "Capacite": "800", "Coord_x": 393871.64556502679, "Coord_y": 580612.60804954788 }, "geometry": { "type": "Point", "coordinates": [ -3.9579546675, 5.2531225538 ] } },
{ "type": "Feature", "properties": { "fid": 635, "today": "30/07/2025", "repere": "Intérieure Lycée  CFP", "code_bac": "227", "Commune": "Port-Bouet", "Nbre_bacs": 1, "Num_Circui": null, "Statut": "actif", "Capacite": "800", "Coord_x": 393871.64556502679, "Coord_y": 580612.60804954788 }, "geometry": { "type": "Point", "coordinates": [ -3.9579665169, 5.2529773966 ] } },
{ "type": "Feature", "properties": { "fid": 636, "today": "30/07/2025", "repere": "Intérieure Lycée  CFP", "code_bac": "193", "Commune": "Port-Bouet", "Nbre_bacs": 1, "Num_Circui": null, "Statut": "actif", "Capacite": "800", "Coord_x": 393871.64556502679, "Coord_y": 580612.60804954788 }, "geometry": { "type": "Point", "coordinates": [ -3.9580134109, 5.2526823956 ] } },
{ "type": "Feature", "properties": { "fid": 637, "today": "30/07/2025", "repere": "Commissariat 33ieme", "code_bac": null, "Commune": "Port-Bouet", "Nbre_bacs": 1, "Num_Circui": null, "Statut": "actif", "Capacite": "1100", "Coord_x": 395634.9007359572, "Coord_y": 580603.86728640657 }, "geometry": { "type": "Point", "coordinates": [ -3.9417886392, 5.2520474484 ] } },
{ "type": "Feature", "properties": { "fid": 638, "today": "30/07/2025", "repere": "Collège Moderne", "code_bac": "1961 1566", "Commune": "Port-Bouet", "Nbre_bacs": 2, "Num_Circui": null, "Statut": "actif", "Capacite": "1100", "Coord_x": 395716.86438834696, "Coord_y": 580974.23908964684 }, "geometry": { "type": "Point", "coordinates": [ -3.9410540948, 5.2553986964 ] } },
{ "type": "Feature", "properties": { "fid": 639, "today": "30/07/2025", "repere": "Église Céleste", "code_bac": null, "Commune": "Port-Bouet", "Nbre_bacs": 2, "Num_Circui": null, "Statut": "actif", "Capacite": "1100", "Coord_x": 393576.82104520005, "Coord_y": 582480.73424776504 }, "geometry": { "type": "Point", "coordinates": [ -3.9603849907, 5.2689959295 ] } },
{ "type": "Feature", "properties": { "fid": 640, "today": "15/06/2026", "repere": "Club Saint Michel", "code_bac": "2151 2150 2902", "Commune": "Port-Bouet", "Nbre_bacs": 2, "Num_Circui": null, "Statut": "actif", "Capacite": "1100", "Coord_x": 393003.33676708402, "Coord_y": 583205.34540596174 }, "geometry": { "type": "Point", "coordinates": [ -3.9655698626, 5.2755422142 ] } },
{ "type": "Feature", "properties": { "fid": 641, "today": "30/07/2025", "repere": "Gare Sotra", "code_bac": "1595 1603", "Commune": "Koumassi", "Nbre_bacs": 2, "Num_Circui": null, "Statut": "actif", "Capacite": "1100", "Coord_x": 392571.75968618994, "Coord_y": 584168.95376919548 }, "geometry": { "type": "Point", "coordinates": [ -3.9694777066, 5.2842522223 ] } },
{ "type": "Feature", "properties": { "fid": 642, "today": "25/07/2025", "repere": "Intérieure Sapeur Pompier", "code_bac": "0213/21", "Commune": "Marcory", "Nbre_bacs": 2, "Num_Circui": null, "Statut": "actif", "Capacite": "1100", "Coord_x": 390282.72771041427, "Coord_y": 585015.67222634738 }, "geometry": { "type": "Point", "coordinates": [ -3.9898200423, 5.2916328039 ] } },
{ "type": "Feature", "properties": { "fid": 644, "today": "25/07/2025", "repere": "Mairie Technique", "code_bac": "674/21", "Commune": "Marcory", "Nbre_bacs": 1, "Num_Circui": null, "Statut": "actif", "Capacite": "1100", "Coord_x": 390403.18324070354, "Coord_y": 584955.91903826897 }, "geometry": { "type": "Point", "coordinates": [ -3.9896633333, 5.2911633333 ] } },
{ "type": "Feature", "properties": { "fid": 646, "today": "25/07/2025", "repere": "Mairie Technique", "code_bac": "674/21", "Commune": "Marcory", "Nbre_bacs": 2, "Num_Circui": null, "Statut": "actif", "Capacite": "1100", "Coord_x": 390403.18324070354, "Coord_y": 584955.91903826897 }, "geometry": { "type": "Point", "coordinates": [ -3.9894433333, 5.290815 ] } },
{ "type": "Feature", "properties": { "fid": 648, "today": "16/06/2026", "repere": "CCDO (CRS)", "code_bac": "82", "Commune": "Marcory", "Nbre_bacs": 1, "Num_Circui": null, "Statut": "actif", "Capacite": "1100", "Coord_x": 390150.16647266824, "Coord_y": 585543.05326202791 }, "geometry": { "type": "Point", "coordinates": [ -3.9912833333, 5.29589 ] } },
{ "type": "Feature", "properties": { "fid": 649, "today": "29/10/2025", "repere": "Eglise Saint Etienne (chez les soeurs)", "code_bac": "1057", "Commune": "Koumassi", "Nbre_bacs": 1, "Num_Circui": null, "Statut": "actif", "Capacite": "1100", "Coord_x": 393280.68196150521, "Coord_y": 584784.67830140411 }, "geometry": { "type": "Point", "coordinates": [ -3.9612783354, 5.2919949962 ] } },
{ "type": "Feature", "properties": { "fid": 650, "today": "10/11/2025", "repere": "Lycée Régional", "code_bac": "1122", "Commune": "Port-Bouet", "Nbre_bacs": 2, "Num_Circui": null, "Statut": "actif", "Capacite": "1100", "Coord_x": 394005.95253432775, "Coord_y": 580787.27719195781 }, "geometry": { "type": "Point", "coordinates": [ -3.9575701915, 5.2537885451 ] } },
{ "type": "Feature", "properties": { "fid": 651, "today": "27/11/2025", "repere": "Centre Commercial", "code_bac": "0800/21", "Commune": "Treichville", "Nbre_bacs": 2, "Num_Circui": null, "Statut": "actif", "Capacite": "1100", "Coord_x": 388608.25531806244, "Coord_y": 585785.68864799885 }, "geometry": { "type": "Point", "coordinates": [ -4.0041603181, 5.298719909 ] } },
{ "type": "Feature", "properties": { "fid": 652, "today": "14/07/2026", "repere": "Auto école abidjanaise", "code_bac": "0800/21", "Commune": "Treichville", "Nbre_bacs": 2, "Num_Circui": null, "Statut": "actif", "Capacite": "1100", "Coord_x": 388608.25531806244, "Coord_y": 585785.68864799885 }, "geometry": { "type": "Point", "coordinates": [ -4.0041138125, 5.2983105774 ] } },
{ "type": "Feature", "properties": { "fid": 653, "today": "16/06/2026", "repere": "9ème Arrondissement", "code_bac": "1012222", "Commune": "Marcory", "Nbre_bacs": 1, "Num_Circui": null, "Statut": "actif", "Capacite": "1100", "Coord_x": 390916.46517489961, "Coord_y": 586870.03765271278 }, "geometry": { "type": "Point", "coordinates": [ -3.98558, 5.30645 ] } },
{ "type": "Feature", "properties": { "fid": 654, "today": "29/10/2025", "repere": "Eglise Saint Etienne (isef)", "code_bac": "1057", "Commune": "Koumassi", "Nbre_bacs": 2, "Num_Circui": null, "Statut": "actif", "Capacite": "1100", "Coord_x": 393280.68196150521, "Coord_y": 584784.67830140411 }, "geometry": { "type": "Point", "coordinates": [ -3.9625283364, 5.291535003 ] } },
{ "type": "Feature", "properties": { "fid": 655, "today": "29/10/2025", "repere": "Eglise Saint Etienne (centre  mathieu)", "code_bac": "1057", "Commune": "Koumassi", "Nbre_bacs": 2, "Num_Circui": null, "Statut": "actif", "Capacite": "1100", "Coord_x": 393280.68196150521, "Coord_y": 584784.67830140411 }, "geometry": { "type": "Point", "coordinates": [ -3.9612550023, 5.2905700026 ] } },
{ "type": "Feature", "properties": { "fid": 656, "today": "26/07/2025", "repere": "Intérieure camp commando", "code_bac": null, "Commune": "Koumassi", "Nbre_bacs": 1, "Num_Circui": null, "Statut": "actif", "Capacite": "1100", "Coord_x": 393134.88920367404, "Coord_y": 583774.6155044951 }, "geometry": { "type": "Point", "coordinates": [ -3.9655848348, 5.281128443 ] } },
{ "type": "Feature", "properties": { "fid": 657, "today": "26/07/2025", "repere": "Groupe Scolaire Abri 2000", "code_bac": null, "Commune": "Koumassi", "Nbre_bacs": 1, "Num_Circui": null, "Statut": "actif", "Capacite": "1100", "Coord_x": 395476.10895920818, "Coord_y": 586502.31964457093 }, "geometry": { "type": "Point", "coordinates": [ -3.9442857345, 5.3056067599 ] } },
{ "type": "Feature", "properties": { "fid": 658, "today": "26/07/2025", "repere": "Groupe Scolaire Abri 2000", "code_bac": null, "Commune": "Koumassi", "Nbre_bacs": 1, "Num_Circui": null, "Statut": "actif", "Capacite": "800", "Coord_x": 395476.10895920818, "Coord_y": 586502.31964457093 }, "geometry": { "type": "Point", "coordinates": [ -3.9442857345, 5.3056067599 ] } },
{ "type": "Feature", "properties": { "fid": 659, "today": "27/04/2022", "repere": "Mairie", "code_bac": "687", "Commune": "Marcory", "Nbre_bacs": 1, "Num_Circui": null, "Statut": "actif", "Capacite": "1100", "Coord_x": 390443.70482901239, "Coord_y": 584848.10765481368 }, "geometry": { "type": "Point", "coordinates": [ -3.9896869046, 5.2903524341 ] } },
{ "type": "Feature", "properties": { "fid": 660, "today": "27/04/2022", "repere": "Mairie bat G", "code_bac": "687", "Commune": "Marcory", "Nbre_bacs": 1, "Num_Circui": null, "Statut": "actif", "Capacite": "800", "Coord_x": 390443.70482901239, "Coord_y": 584848.10765481368 }, "geometry": { "type": "Point", "coordinates": [ -3.9886561394, 5.289866658 ] } },
{ "type": "Feature", "properties": { "fid": 661, "today": "27/04/2022", "repere": "Mairie atelier de peinture", "code_bac": "687", "Commune": "Marcory", "Nbre_bacs": 1, "Num_Circui": null, "Statut": "actif", "Capacite": "1100", "Coord_x": 390443.70482901239, "Coord_y": 584848.10765481368 }, "geometry": { "type": "Point", "coordinates": [ -3.9893962846, 5.2902019132 ] } },
{ "type": "Feature", "properties": { "fid": 662, "today": "27/04/2022", "repere": "Mairie", "code_bac": "687", "Commune": "Marcory", "Nbre_bacs": 1, "Num_Circui": null, "Statut": "actif", "Capacite": "800", "Coord_x": 390443.70482901239, "Coord_y": 584848.10765481368 }, "geometry": { "type": "Point", "coordinates": [ -3.9896869046, 5.2903524341 ] } },
{ "type": "Feature", "properties": { "fid": 663, "today": "27/04/2022", "repere": "Mairie bat G", "code_bac": "687", "Commune": "Marcory", "Nbre_bacs": 1, "Num_Circui": null, "Statut": "actif", "Capacite": "1100", "Coord_x": 390443.70482901239, "Coord_y": 584848.10765481368 }, "geometry": { "type": "Point", "coordinates": [ -3.9886561394, 5.289866658 ] } },
{ "type": "Feature", "properties": { "fid": 664, "today": "25/07/2025", "repere": "Mairie Technique", "code_bac": "674/21", "Commune": "Marcory", "Nbre_bacs": 1, "Num_Circui": null, "Statut": "actif", "Capacite": "1100", "Coord_x": 390403.18324070354, "Coord_y": 584955.91903826897 }, "geometry": { "type": "Point", "coordinates": [ -3.988412817, 5.291013003 ] } },
{ "type": "Feature", "properties": { "fid": 665, "today": "16/06/2026", "repere": "Pharmacie metropole", "code_bac": "957", "Commune": "Marcory", "Nbre_bacs": 2, "Num_Circui": null, "Statut": "actif", "Capacite": "1100", "Coord_x": 390862.35255954857, "Coord_y": 585808.98913315637 }, "geometry": { "type": "Point", "coordinates": [ -3.9851997001, 5.2992710591 ] } },
{ "type": "Feature", "properties": { "fid": 666, "today": "30/07/2025", "repere": "Mairie Bibliothèque Aka Angui", "code_bac": "425", "Commune": "Port-Bouet", "Nbre_bacs": 2, "Num_Circui": null, "Statut": "actif", "Capacite": "1100", "Coord_x": 393196.01128900639, "Coord_y": 581648.99842213257 }, "geometry": { "type": "Point", "coordinates": [ -3.9642070772, 5.2610501502 ] } },
{ "type": "Feature", "properties": { "fid": 667, "today": "30/07/2025", "repere": "Mairie parking motos", "code_bac": "425", "Commune": "Port-Bouet", "Nbre_bacs": 2, "Num_Circui": null, "Statut": "actif", "Capacite": "1100", "Coord_x": 393196.01128900639, "Coord_y": 581648.99842213257 }, "geometry": { "type": "Point", "coordinates": [ -3.9643520211, 5.2606207732 ] } },
{ "type": "Feature", "properties": { "fid": 668, "today": "30/07/2025", "repere": "GS Sogefiha 2", "code_bac": "2894 1280", "Commune": "Port-Bouet", "Nbre_bacs": 1, "Num_Circui": null, "Statut": "actif", "Capacite": "1100", "Coord_x": 393601.5584461235, "Coord_y": 581484.04349365074 }, "geometry": { "type": "Point", "coordinates": [ -3.9601536579, 5.259977659 ] } },
{ "type": "Feature", "properties": { "fid": 669, "today": "30/07/2025", "repere": "Cite militaire de l'air", "code_bac": "0924/21", "Commune": "Port-Bouet", "Nbre_bacs": 1, "Num_Circui": null, "Statut": "actif", "Capacite": "1100", "Coord_x": 395762.97852738341, "Coord_y": 581490.04995031725 }, "geometry": { "type": "Point", "coordinates": [ -3.9402700939, 5.2601885774 ] } },
{ "type": "Feature", "properties": { "fid": 670, "today": "14/07/2026", "repere": "Gare ghana", "code_bac": "1059", "Commune": "Treichville", "Nbre_bacs": 1, "Num_Circui": null, "Statut": "actif", "Capacite": "1100", "Coord_x": 389077.23969748197, "Coord_y": 585509.0397481455 }, "geometry": { "type": "Point", "coordinates": [ -4.0003139165, 5.2961352834 ] } },
{ "type": "Feature", "properties": { "fid": 671, "today": "14/07/2026", "repere": "Centre commercial Resto le roi", "code_bac": "0800/21", "Commune": "Treichville", "Nbre_bacs": 1, "Num_Circui": null, "Statut": "actif", "Capacite": "1100", "Coord_x": 388608.25531806244, "Coord_y": 585785.68864799885 }, "geometry": { "type": "Point", "coordinates": [ -4.0039086755, 5.2985912324 ] } },
{ "type": "Feature", "properties": { "fid": 672, "today": "14/07/2026", "repere": "Centre commercial parking", "code_bac": "0800/21", "Commune": "Treichville", "Nbre_bacs": 1, "Num_Circui": null, "Statut": "actif", "Capacite": "1100", "Coord_x": 388608.25531806244, "Coord_y": 585785.68864799885 }, "geometry": { "type": "Point", "coordinates": [ -4.0035306202, 5.2984716639 ] } },
{ "type": "Feature", "properties": { "fid": 673, "today": "14/07/2026", "repere": "Centre commercial moov", "code_bac": "0800/21", "Commune": "Treichville", "Nbre_bacs": 1, "Num_Circui": null, "Statut": "actif", "Capacite": "1100", "Coord_x": 388608.25531806244, "Coord_y": 585785.68864799885 }, "geometry": { "type": "Point", "coordinates": [ -4.0029557272, 5.2989482432 ] } },
{ "type": "Feature", "properties": { "fid": 674, "today": "14/07/2026", "repere": "Intérieur Centre Commercial fashion boutique ", "code_bac": "0800/21", "Commune": "Treichville", "Nbre_bacs": 1, "Num_Circui": null, "Statut": "actif", "Capacite": "1100", "Coord_x": 388608.25531806244, "Coord_y": 585785.68864799885 }, "geometry": { "type": "Point", "coordinates": [ -4.0025984624, 5.2990414707 ] } },
{ "type": "Feature", "properties": { "fid": 675, "today": "14/07/2026", "repere": "Intérieur Centre Commercial Coq ivoire ", "code_bac": "0800/21", "Commune": "Treichville", "Nbre_bacs": 1, "Num_Circui": null, "Statut": "actif", "Capacite": "1100", "Coord_x": 388608.25531806244, "Coord_y": 585785.68864799885 }, "geometry": { "type": "Point", "coordinates": [ -4.0025052131, 5.2990408426 ] } },
{ "type": "Feature", "properties": { "fid": 676, "today": "14/07/2026", "repere": "Devant Palais des sport", "code_bac": "0800/21", "Commune": "Treichville", "Nbre_bacs": 2, "Num_Circui": null, "Statut": "actif", "Capacite": "1100", "Coord_x": 388608.25531806244, "Coord_y": 585785.68864799885 }, "geometry": { "type": "Point", "coordinates": [ -4.0047600282, 5.2982992497 ] } },
{ "type": "Feature", "properties": { "fid": 677, "today": "14/07/2026", "repere": "Immeuble Roch", "code_bac": "470", "Commune": "Treichville", "Nbre_bacs": 2, "Num_Circui": null, "Statut": "actif", "Capacite": "1100", "Coord_x": 389014.17142876098, "Coord_y": 585768.56988248543 }, "geometry": { "type": "Point", "coordinates": [ -4.0025218288, 5.2981430274 ] } },
{ "type": "Feature", "properties": { "fid": 678, "today": "14/07/2026", "repere": "Ivosep ", "code_bac": "470", "Commune": "Treichville", "Nbre_bacs": 2, "Num_Circui": null, "Statut": "actif", "Capacite": "1100", "Coord_x": 389014.17142876098, "Coord_y": 585768.56988248543 }, "geometry": { "type": "Point", "coordinates": [ -4.0013411403, 5.2985412497 ] } },
{ "type": "Feature", "properties": { "fid": 679, "today": "11/06/2026", "repere": "Centre des impots", "code_bac": null, "Commune": "Koumassi", "Nbre_bacs": 1, "Num_Circui": null, "Statut": "actif", "Capacite": "1100", "Coord_x": 394081.52163573226, "Coord_y": 585527.44696633297 }, "geometry": { "type": "Point", "coordinates": [ -3.9558605335, 5.2963204974 ] } },
{ "type": "Feature", "properties": { "fid": 680, "today": "2026-06-15T10:35:05.487", "repere": "Lavage ", "code_bac": null, "Commune": "Port-Bouet", "Nbre_bacs": 2, "Num_Circui": null, "Statut": "actif", "Capacite": "1100", "Coord_x": 403416.72028317838, "Coord_y": 578718.93312928919 }, "geometry": { "type": "Point", "coordinates": [ -3.8716142837, 5.2351611006 ] } },
{ "type": "Feature", "properties": { "fid": 681, "today": "2026-06-16T09:21:14.495", "repere": "Police municipale ", "code_bac": null, "Commune": "Marcory", "Nbre_bacs": 1, "Num_Circui": null, "Statut": "actif", "Capacite": "1100", "Coord_x": 392590.24787141377, "Coord_y": 586354.54421445529 }, "geometry": { "type": "Point", "coordinates": [ -3.9693416667, 5.3040216667 ] } },
{ "type": "Feature", "properties": { "fid": 682, "today": "2026-06-16T11:14:55.297", "repere": "Collège Adventiste Abidjan ", "code_bac": null, "Commune": "Marcory", "Nbre_bacs": 2, "Num_Circui": null, "Statut": "actif", "Capacite": "1100", "Coord_x": 389760.1916717178, "Coord_y": 586996.92861194187 }, "geometry": { "type": "Point", "coordinates": [ -3.9948888361, 5.3097915734 ] } },
{ "type": "Feature", "properties": { "fid": 683, "today": "2026-06-16T11:29:29.051", "repere": "Axedeco", "code_bac": null, "Commune": "Marcory", "Nbre_bacs": 1, "Num_Circui": null, "Statut": "actif", "Capacite": "1100", "Coord_x": 390393.31476663845, "Coord_y": 585912.29015961988 }, "geometry": { "type": "Point", "coordinates": [ -3.98916, 5.29999 ] } },
{ "type": "Feature", "properties": { "fid": 684, "today": "2026-06-16T12:05:12.266", "repere": "HIPPOCAMPE ", "code_bac": null, "Commune": "Marcory", "Nbre_bacs": 1, "Num_Circui": null, "Statut": "actif", "Capacite": "1100", "Coord_x": 392184.8431460798, "Coord_y": 584707.34900897555 }, "geometry": { "type": "Point", "coordinates": [ -3.9729766667, 5.2891166667 ] } },
{ "type": "Feature", "properties": { "fid": 685, "today": "14/07/2026", "repere": "Restaurant Maïga", "code_bac": null, "Commune": "Treichville", "Nbre_bacs": 1, "Num_Circui": null, "Statut": "actif", "Capacite": "1100", "Coord_x": 387535.53775686247, "Coord_y": 586182.05981277791 }, "geometry": { "type": "Point", "coordinates": [ -4.0149516667, 5.3023883333 ] } },
{ "type": "Feature", "properties": { "fid": 686, "today": "14/07/2026", "repere": "Megamonde concessionnaire auto moto", "code_bac": null, "Commune": "Treichville", "Nbre_bacs": 1, "Num_Circui": null, "Statut": "actif", "Capacite": "1100", "Coord_x": 387947.35659105988, "Coord_y": 585805.49352656503 }, "geometry": { "type": "Point", "coordinates": [ -4.01123, 5.2989883333 ] } },
{ "type": "Feature", "properties": { "fid": 687, "today": "14/07/2026", "repere": "Intérieur centre commercial Sociam ", "code_bac": null, "Commune": "Treichville", "Nbre_bacs": 1, "Num_Circui": null, "Statut": "actif", "Capacite": "1100", "Coord_x": 388874.84412099491, "Coord_y": 585759.58096728346 }, "geometry": { "type": "Point", "coordinates": [ -4.00286, 5.2985866667 ] } },
{ "type": "Feature", "properties": { "fid": 688, "today": "2026-06-19T12:19:13.730", "repere": "Siconex supermarché ", "code_bac": null, "Commune": "Marcory", "Nbre_bacs": 1, "Num_Circui": null, "Statut": "actif", "Capacite": "1100", "Coord_x": 391183.6666374412, "Coord_y": 584060.88235205319 }, "geometry": { "type": "Point", "coordinates": [ -3.9820016667, 5.283255 ] } }
]
}
